{"version": 0.6, "generator": "Overpass API 0.7.62.7 375dc00a", "osm3s": {"timestamp_osm_base": "2025-07-16T18:41:45Z", "copyright": "The data included in this document is from www.openstreetmap.org. The data is made available under ODbL."}, "elements": [{"type": "node", "id": 365622830, "lat": 55.2482444, "lon": 9.3104627, "tags": {"highway": "bus_stop", "public_transport": "platform"}}, {"type": "node", "id": 365622845, "lat": 55.2505012, "lon": 9.3158168, "tags": {"highway": "bus_stop", "public_transport": "platform"}}, {"type": "node", "id": 365622849, "lat": 55.2505543, "lon": 9.3157497, "tags": {"highway": "bus_stop", "public_transport": "platform"}}, {"type": "node", "id": 388233206, "lat": 54.9705269, "lon": 9.6576856, "tags": {"bus": "yes", "highway": "bus_stop", "name": "Ullerup, Aabenraavej", "network": "Sydtrafik", "network:wikidata": "Q12338112", "public_transport": "platform", "route_ref": "112"}}, {"type": "node", "id": 510800217, "lat": 54.9243916, "lon": 9.6719855, "tags": {"bench": "no", "bin": "yes", "bus": "yes", "highway": "bus_stop", "public_transport": "platform", "shelter": "yes"}}, {"type": "node", "id": 510800257, "lat": 54.9244438, "lon": 9.6716018, "tags": {"bench": "no", "bin": "yes", "bus": "yes", "highway": "bus_stop", "public_transport": "platform"}}, {"type": "node", "id": 510802239, "lat": 54.9385587, "lon": 9.6247221, "tags": {"highway": "bus_stop", "public_transport": "platform", "toilets:wheelchair": "no", "wheelchair": "no"}}, {"type": "node", "id": 510802285, "lat": 54.9372736, "lon": 9.6209095, "tags": {"bus": "yes", "highway": "bus_stop", "name": "Adsb\u00f8l v kirken", "network": "Sydtrafik", "network:wikidata": "Q12338112", "public_transport": "platform", "route_ref": "110"}}, {"type": "node", "id": 510802522, "lat": 54.9383861, "lon": 9.624662, "tags": {"highway": "bus_stop", "public_transport": "platform", "toilets:wheelchair": "no", "wheelchair": "no"}}, {"type": "node", "id": 510803501, "lat": 54.9279238, "lon": 9.60145, "tags": {"highway": "bus_stop", "public_transport": "platform"}}, {"type": "node", "id": 510803699, "lat": 54.9281658, "lon": 9.6014916, "tags": {"highway": "bus_stop", "public_transport": "platform"}}, {"type": "node", "id": 569065445, "lat": 55.2527088, "lon": 9.6385057, "tags": {"highway": "bus_stop", "public_transport": "platform"}}, {"type": "node", "id": 569065452, "lat": 55.2539874, "lon": 9.6782851, "tags": {"highway": "bus_stop", "public_transport": "platform"}}, {"type": "node", "id": 569065455, "lat": 55.2570904, "lon": 9.7019164, "tags": {"highway": "bus_stop", "public_transport": "platform", "shelter": "yes"}}, {"type": "node", "id": 569065457, "lat": 55.2571855, "lon": 9.7018674, "tags": {"highway": "bus_stop", "public_transport": "platform", "shelter": "yes"}}, {"type": "node", "id": 569065469, "lat": 55.2584937, "lon": 9.707958, "tags": {"bench": "yes", "highway": "bus_stop", "public_transport": "platform", "shelter": "yes"}}, {"type": "node", "id": 706665595, "lat": 55.2241347, "lon": 9.4296932, "tags": {"highway": "bus_stop", "name": "N\u00f8rskovg\u00e5rd (Erlev)", "public_transport": "platform"}}, {"type": "node", "id": 710556491, "lat": 54.9429521, "lon": 9.4532566, "tags": {"highway": "bus_stop", "public_transport": "platform"}}, {"type": "node", "id": 710556591, "lat": 54.9430753, "lon": 9.4532512, "tags": {"highway": "bus_stop", "public_transport": "platform"}}, {"type": "node", "id": 1158114511, "lat": 55.0618201, "lon": 9.3974798, "tags": {"bus": "yes", "highway": "bus_stop", "name": "Larsen-Ledets Vej v Fruel\u00f8kke", "network": "Sydtrafik", "network:wikidata": "Q12338112", "network:wikipedia": "da:Sydtrafik", "operator": "sydtrafik", "public_transport": "platform", "route_ref": "1"}}, {"type": "node", "id": 1316238139, "lat": 55.2474005, "lon": 9.3049621}, {"type": "node", "id": 1316238140, "lat": 55.2474054, "lon": 9.3050648}, {"type": "node", "id": 1316238144, "lat": 55.2487822, "lon": 9.3049816}, {"type": "node", "id": 1316238145, "lat": 55.249727, "lon": 9.3047237}, {"type": "node", "id": 1316238146, "lat": 55.2497305, "lon": 9.3048806}, {"type": "node", "id": 1388450441, "lat": 54.935066, "lon": 9.4962845, "tags": {"bus": "yes", "highway": "bus_stop", "public_transport": "platform"}}, {"type": "node", "id": 1388771106, "lat": 55.0139034, "lon": 9.5696902, "tags": {"bench": "yes", "highway": "bus_stop", "name": "Bl\u00e5krogvej", "network": "Sydtrafik", "network:wikidata": "Q12338112", "public_transport": "platform", "ref": "12", "shelter": "yes", "tactile_paving": "no"}}, {"type": "node", "id": 1396130578, "lat": 55.0215198, "lon": 9.8422736, "tags": {"bus": "yes", "highway": "bus_stop", "network": "Sydtrafik", "network:wikidata": "Q12338112", "public_transport": "platform"}}, {"type": "node", "id": 1396130579, "lat": 55.0072396, "lon": 9.8456022, "tags": {"bus": "yes", "highway": "bus_stop", "network": "Sydtrafik", "network:wikidata": "Q12338112", "operator": "Sydtrafik", "public_transport": "platform"}}, {"type": "node", "id": 1396130580, "lat": 54.9987495, "lon": 9.8502786, "tags": {"bench": "yes", "bin": "no", "bus": "yes", "departures_board": "timetable", "highway": "bus_stop", "network": "Sydtrafik", "network:wikidata": "Q12338112", "operator": "Sydtrafik", "public_transport": "platform", "shelter": "yes", "tactile_paving": "no"}}, {"type": "node", "id": 1403239490, "lat": 54.9846269, "lon": 9.871075, "tags": {"bus": "yes", "highway": "bus_stop", "network": "Sydtrafik", "network:wikidata": "Q12338112", "network:wikipedia": "da:Sydtrafik", "operator": "Sydtrafik", "public_transport": "platform", "shelter": "yes"}}, {"type": "node", "id": 1403239492, "lat": 54.9996219, "lon": 9.849676, "tags": {"bench": "yes", "bin": "no", "bus": "yes", "departures_board": "timetable", "highway": "bus_stop", "network": "Sydtrafik", "network:wikidata": "Q12338112", "operator": "Sydtrafik", "public_transport": "platform", "shelter": "yes"}}, {"type": "node", "id": 1403239497, "lat": 55.0248509, "lon": 9.8379056, "tags": {"bus": "yes", "highway": "bus_stop", "public_transport": "platform"}}, {"type": "node", "id": 1403239500, "lat": 54.965964, "lon": 9.8994139, "tags": {"bench": "no", "bin": "no", "bus": "yes", "departures_board": "timetable", "highway": "bus_stop", "network": "Sydtrafik", "network:wikidata": "Q12338112", "network:wikipedia": "da:Sydtrafik", "operator": "sydtrafik", "public_transport": "platform", "shelter": "yes"}}, {"type": "node", "id": 1403239502, "lat": 55.0076612, "lon": 9.8457922, "tags": {"bus": "yes", "highway": "bus_stop", "network": "Sydtrafik", "network:wikidata": "Q12338112", "operator": "Sydtrafik", "public_transport": "platform"}}, {"type": "node", "id": 1403239503, "lat": 54.9734887, "lon": 9.8937851, "tags": {"bus": "yes", "highway": "bus_stop", "network": "Sydtrafik", "network:wikidata": "Q12338112", "network:wikipedia": "da:Sydtrafik", "operator": "Sydtrafik", "public_transport": "platform", "shelter": "no"}}, {"type": "node", "id": 1403239505, "lat": 55.0361808, "lon": 9.8102851, "tags": {"bus": "yes", "highway": "bus_stop", "network": "Sydtrafik", "network:wikidata": "Q12338112", "public_transport": "platform"}}, {"type": "node", "id": 1403239507, "lat": 55.0291334, "lon": 9.8305912, "tags": {"bus": "yes", "highway": "bus_stop", "public_transport": "platform"}}, {"type": "node", "id": 1403239513, "lat": 55.0217706, "lon": 9.8422292, "tags": {"bus": "yes", "highway": "bus_stop", "network": "Sydtrafik", "network:wikidata": "Q12338112", "public_transport": "platform"}}, {"type": "node", "id": 1403239514, "lat": 54.9764051, "lon": 9.8861264, "tags": {"bench": "no", "bin": "no", "bus": "yes", "departures_board": "timetable", "highway": "bus_stop", "network": "Sydtrafik", "network:wikidata": "Q12338112", "operator": "Sydtrafik", "public_transport": "platform", "shelter": "no"}}, {"type": "node", "id": 1403239515, "lat": 54.9810545, "lon": 9.8781557, "tags": {"bench": "yes", "bus": "yes", "departures_board": "timetable", "highway": "bus_stop", "network": "Sydtrafik", "network:wikidata": "Q12338112", "operator": "Sydtrafik", "public_transport": "platform", "shelter": "yes"}}, {"type": "node", "id": 1403239517, "lat": 55.0314038, "lon": 9.8258687, "tags": {"bus": "yes", "departures_board": "timetable", "highway": "bus_stop", "network": "Sydtrafik", "network:wikidata": "Q12338112", "operator": "Sydtrafik", "public_transport": "platform", "shelter": "yes"}}, {"type": "node", "id": 1411289189, "lat": 54.916052, "lon": 9.7887072, "tags": {"bench": "yes", "bin": "yes", "bus": "yes", "highway": "bus_stop", "name": "Arnkilgade v sygehuset", "network": "Sydtrafik", "network:wikidata": "Q12338112", "public_transport": "platform", "shelter": "yes"}}, {"type": "node", "id": 1582384185, "lat": 54.9593918, "lon": 9.6464303, "tags": {"highway": "bus_stop", "public_transport": "platform", "shelter": "yes"}}, {"type": "node", "id": 1690352672, "lat": 55.2340136, "lon": 9.5443282, "tags": {"highway": "bus_stop", "public_transport": "platform"}}, {"type": "node", "id": 1738040416, "lat": 55.2483527, "lon": 9.3052338}, {"type": "node", "id": 1771837305, "lat": 54.989068, "lon": 9.6631501, "tags": {"direction": "NW", "highway": "bus_stop", "local_ref": "12", "name": "Blans", "public_transport": "platform"}}, {"type": "node", "id": 1771837326, "lat": 54.9890542, "lon": 9.6629758, "tags": {"direction": "SE", "highway": "bus_stop", "local_ref": "12", "name": "Blans", "public_transport": "platform"}}, {"type": "node", "id": 1778340713, "lat": 54.9236403, "lon": 9.8301445, "tags": {"highway": "bus_stop", "name": "Augustenborg Landevej v Spang", "network": "Sydtrafik", "network:wikidata": "Q12338112", "public_transport": "platform", "shelter": "yes"}}, {"type": "node", "id": 1960983182, "lat": 54.917367, "lon": 9.7139639, "tags": {"bench": "yes", "bin": "no", "bus": "yes", "highway": "bus_stop", "lit": "yes", "name": "B\u00f8ffelkobbelvej v Rendsborgvej", "network": "Sydtrafik", "network:wikidata": "Q12338112", "operator": "Sydtrafik", "public_transport": "platform", "shelter": "yes", "tactile_paving": "no"}}, {"type": "node", "id": 1960983436, "lat": 54.9182518, "lon": 9.7156993, "tags": {"bench": "yes", "bin": "no", "bus": "yes", "highway": "bus_stop", "lit": "yes", "name": "B\u00f8ffelkobbelvej v Ejdervej", "network": "Sydtrafik", "network:wikidata": "Q12338112", "operator": "Sydtrafik", "public_transport": "platform", "shelter": "yes", "tactile_paving": "no"}}, {"type": "node", "id": 1960984382, "lat": 54.9179744, "lon": 9.7187812, "tags": {"bench": "no", "bin": "no", "bus": "yes", "highway": "bus_stop", "lit": "yes", "name": "Trenevej", "name:signed": "no", "network": "Sydtrafik", "network:wikidata": "Q12338112", "operator": "Sydtrafik", "public_transport": "platform", "shelter": "yes", "tactile_paving": "no"}}, {"type": "node", "id": 1960984812, "lat": 54.9170972, "lon": 9.7209967, "tags": {"bench": "no", "bin": "no", "bus": "yes", "highway": "bus_stop", "lit": "yes", "name": "Trenevej v Hollingstedvej", "network": "Sydtrafik", "network:wikidata": "Q12338112", "operator": "Sydtrafik", "public_transport": "platform", "shelter": "yes", "tactile_paving": "no"}}, {"type": "node", "id": 1960990039, "lat": 54.9188392, "lon": 9.725492, "tags": {"bench": "yes", "bin": "yes", "highway": "bus_stop", "lit": "yes", "name": "H\u00f8rtoftvej v Forsamlingshuset", "public_transport": "platform", "shelter": "yes", "tactile_paving": "no"}}, {"type": "node", "id": 1986559359, "lat": 55.2474305, "lon": 9.3053086}, {"type": "node", "id": 1986559386, "lat": 55.2490573, "lon": 9.3051893}, {"type": "node", "id": 1986559432, "lat": 55.2474233, "lon": 9.3051953}, {"type": "node", "id": 1986559442, "lat": 55.2495672, "lon": 9.3050276}, {"type": "node", "id": 2320674211, "lat": 54.9185134, "lon": 9.5936843}, {"type": "node", "id": 2320674215, "lat": 54.9185668, "lon": 9.5935809}, {"type": "node", "id": 2320674240, "lat": 54.9191575, "lon": 9.5945784}, {"type": "node", "id": 2320674244, "lat": 54.9192023, "lon": 9.5944947}, {"type": "node", "id": 2324179947, "lat": 55.2487939, "lon": 9.3048228}, {"type": "node", "id": 2377765230, "lat": 55.0491678, "lon": 9.4185462}, {"type": "node", "id": 2377765233, "lat": 55.0492716, "lon": 9.4179257}, {"type": "node", "id": 2377765236, "lat": 55.0494332, "lon": 9.4169468, "tags": {"noexit": "yes"}}, {"type": "node", "id": 2466065448, "lat": 55.0611419, "lon": 9.4068702, "tags": {"bus": "yes", "highway": "bus_stop", "name": "Camma Larsen-Ledets Vej v Nyl\u00f8kke", "network": "Sydtrafik", "network:wikidata": "Q12338112", "public_transport": "platform", "route_ref": "1"}}, {"type": "node", "id": 2466066704, "lat": 55.0613385, "lon": 9.406547, "tags": {"bus": "yes", "highway": "bus_stop", "name": "Camma Larsen-Ledets Vej v Nyl\u00f8kke", "network": "Sydtrafik", "network:wikidata": "Q12338112", "public_transport": "platform"}}, {"type": "node", "id": 2466066713, "lat": 55.0618331, "lon": 9.4039801, "tags": {"bus": "yes", "highway": "bus_stop", "name": "Camma Larsen-Ledets Vej v Uglek\u00e6r", "network": "Sydtrafik", "network:wikidata": "Q12338112", "network:wikipedia": "da:Sydtrafik", "operator": "sydtrafik", "public_transport": "platform", "route_ref": "1"}}, {"type": "node", "id": 2466066715, "lat": 55.0621442, "lon": 9.4020462, "tags": {"bus": "yes", "highway": "bus_stop", "name": "Camma Larsen-Ledets Vej v Uglek\u00e6r", "network": "Sydtrafik", "network:wikidata": "Q12338112", "network:wikipedia": "da:Sydtrafik", "operator": "sydtrafik", "public_transport": "platform", "route_ref": "1"}}, {"type": "node", "id": 2466068197, "lat": 55.0617018, "lon": 9.397343, "tags": {"bus": "yes", "highway": "bus_stop", "name": "Larsen-Ledets Vej v Fruel\u00f8kke", "network": "Sydtrafik", "network:wikidata": "Q12338112", "network:wikipedia": "da:Sydtrafik", "operator": "sydtrafik", "public_transport": "platform", "route_ref": "1"}}, {"type": "node", "id": 2548484300, "lat": 55.0642358, "lon": 9.378745, "tags": {"bus": "yes", "departures_board": "timetable", "highway": "bus_stop", "name": "Kresten Philipsens Vej v Aabenraa Sygehus", "network": "Sydtrafik", "network:wikidata": "Q12338112", "network:wikipedia": "da:Sydtrafik", "operator": "sydtrafik", "public_transport": "platform", "route_ref": "1", "shelter": "yes"}}, {"type": "node", "id": 2548484303, "lat": 55.0643408, "lon": 9.3789337, "tags": {"bus": "yes", "departures_board": "timetable", "highway": "bus_stop", "name": "Kresten Philipsens Vej v Aabenraa Sygehus", "network": "Sydtrafik", "network:wikidata": "Q12338112", "network:wikipedia": "da:Sydtrafik", "operator": "sydtrafik", "public_transport": "platform", "route_ref": "1", "shelter": "yes"}}, {"type": "node", "id": 2563224030, "lat": 55.3320809, "lon": 10.056816, "tags": {"bus": "yes", "highway": "bus_stop", "lit": "yes", "name": "\u00d8rsted / Chr. Richardtsvej", "network": "FynBus", "network:wikidata": "Q12313224", "network:wikipedia": "da:FynBus", "operator": "Fynbus", "public_transport": "platform", "ref": "8013"}}, {"type": "node", "id": 2563224033, "lat": 55.3245487, "lon": 10.0486442, "tags": {"bus": "yes", "departures_board": "timetable", "highway": "bus_stop", "local_ref": "Zone 73", "name": "Dyrh\u00f8jvej / \u00d8rsted (Glamsbjerg)", "network": "FynBus", "network:wikidata": "Q12313224", "network:wikipedia": "da:FynBus", "operator": "fynbus", "public_transport": "platform", "ref": "2226"}}, {"type": "node", "id": 2563224037, "lat": 55.3241458, "lon": 10.0480059, "tags": {"bus": "yes", "departures_board": "timetable", "highway": "bus_stop", "local_ref": "Zone 73", "name": "Dyrh\u00f8jvej / \u00d8rsted (Glamsbjerg)", "network": "FynBus", "network:wikidata": "Q12313224", "network:wikipedia": "da:FynBus", "operator": "Fynbus", "public_transport": "platform", "ref": "2227"}}, {"type": "node", "id": 2563322828, "lat": 55.3016218, "lon": 9.9938524, "tags": {"bus": "yes", "departures_board": "timetable", "highway": "bus_stop", "lit": "yes", "local_ref": "Zone 82", "name": "Turup (Assens Kommune)", "network": "FynBus", "network:wikidata": "Q12313224", "network:wikipedia": "da:FynBus", "operator": "Fynbus", "public_transport": "platform", "ref": "2376"}}, {"type": "node", "id": 2563322830, "lat": 55.3448266, "lon": 10.0469784, "tags": {"bus": "yes", "direction": "W", "highway": "bus_stop", "local_ref": "Zone 81", "name": "Bogensevej 190 (Glamsbjerg)", "network": "FynBus", "network:wikidata": "Q12313224", "network:wikipedia": "da:FynBus", "public_transport": "platform", "ref": "2353"}}, {"type": "node", "id": 2563322831, "lat": 55.3016729, "lon": 9.9933253, "tags": {"bus": "yes", "departures_board": "timetable", "highway": "bus_stop", "lit": "yes", "local_ref": "Zone 82", "name": "Turup (Assens Kommune)", "network": "FynBus", "network:wikidata": "Q12313224", "network:wikipedia": "da:FynBus", "operator": "Fynbus", "public_transport": "platform", "ref": "2375"}}, {"type": "node", "id": 2563322833, "lat": 55.3435514, "lon": 10.0471905, "tags": {"bus": "yes", "direction": "E", "highway": "bus_stop", "local_ref": "Zone 81", "name": "Bogensevej 190 (Glamsbjerg)", "network": "FynBus", "network:wikidata": "Q12313224", "network:wikipedia": "da:FynBus", "operator": "Fynbus", "public_transport": "platform", "ref": "2354"}}, {"type": "node", "id": 2579791540, "lat": 55.2745801, "lon": 9.895771, "tags": {"bus": "yes", "departures_board": "timetable", "highway": "bus_stop", "lit": "yes", "name": "Mariendalsvej", "network": "FynBus", "network:wikidata": "Q12313224", "operator": "Fynbus", "public_transport": "platform", "ref": "2167"}}, {"type": "node", "id": 2579791559, "lat": 55.2744662, "lon": 9.8958166, "tags": {"bus": "yes", "departures_board": "timetable", "highway": "bus_stop", "lit": "yes", "name": "Mariendalsvej", "network": "FynBus", "network:wikidata": "Q12313224", "operator": "Fynbus", "public_transport": "platform", "ref": "2168", "shelter": "yes", "shelter_type": "public_transport"}}, {"type": "node", "id": 2579824511, "lat": 55.2662017, "lon": 9.9021278, "tags": {"bus": "yes", "departures_board": "timetable", "highway": "bus_stop", "local_ref": "Zone 07", "name": "Pilehaven", "network": "FynBus", "network:wikidata": "Q12313224", "operator": "Fynbus", "public_transport": "platform", "ref": "2161"}}, {"type": "node", "id": 2579824516, "lat": 55.2690636, "lon": 9.9151764, "tags": {"bus": "yes", "departures_board": "timetable", "highway": "bus_stop", "lit": "yes", "name": "Korsvang Centret", "network": "FynBus", "network:wikidata": "Q12313224", "network:wikipedia": "da:FynBus", "operator": "Fynbus", "public_transport": "platform", "ref": "2175", "shelter": "yes", "shelter_type": "public_transport"}}, {"type": "node", "id": 2579824519, "lat": 55.2727191, "lon": 9.9042266, "tags": {"bus": "yes", "departures_board": "timetable", "highway": "bus_stop", "name": "Kalkbr\u00e6nderivej", "network": "FynBus", "network:wikidata": "Q12313224", "operator": "Fynbus", "public_transport": "platform", "ref": "2172"}}, {"type": "node", "id": 2579824526, "lat": 55.2701718, "lon": 9.9021935, "tags": {"bench": "no", "bin": "yes", "bus": "yes", "departures_board": "timetable", "highway": "bus_stop", "lit": "yes", "local_ref": "Zone 07", "name": "\u00d8stergade", "network": "FynBus", "network:wikidata": "Q12313224", "network:wikipedia": "da:FynBus", "operator": "Fynbus", "public_transport": "platform", "ref": "2177", "shelter": "no", "tactile_paving": "no"}}, {"type": "node", "id": 2579824530, "lat": 55.2764835, "lon": 9.9059164, "tags": {"bus": "yes", "departures_board": "timetable", "highway": "bus_stop", "lit": "yes", "name": "Niels Kj\u00e6rbyes Vej", "network": "FynBus", "network:wikidata": "Q12313224", "network:wikipedia": "da:FynBus", "operator": "Fynbus", "public_transport": "platform", "ref": "2164"}}, {"type": "node", "id": 2579824544, "lat": 55.2698646, "lon": 9.9071314, "tags": {"bus": "yes", "departures_board": "timetable", "highway": "bus_stop", "name": "Sundhedscentret", "network": "FynBus", "network:wikidata": "Q12313224", "network:wikipedia": "da:FynBus", "operator": "Fynbus", "public_transport": "platform", "ref": "2153", "shelter": "no"}}, {"type": "node", "id": 2579824548, "lat": 55.2698371, "lon": 9.9007451, "tags": {"bench": "no", "bin": "no", "bus": "yes", "departures_board": "timetable", "highway": "bus_stop", "lit": "yes", "local_ref": "Zone 07", "name": "M\u00f8llevej", "network": "FynBus", "network:wikidata": "Q12313224", "network:wikipedia": "da:FynBus", "operator": "Fynbus", "public_transport": "platform", "shelter": "no", "tactile_paving": "no"}}, {"type": "node", "id": 2579824553, "lat": 55.2764448, "lon": 9.9057099, "tags": {"bus": "yes", "departures_board": "timetable", "highway": "bus_stop", "lit": "yes", "name": "Niels Kj\u00e6rbyes Vej", "network": "FynBus", "network:wikidata": "Q12313224", "network:wikipedia": "da:FynBus", "operator": "Fynbus", "public_transport": "platform", "ref": "2163", "shelter": "yes", "shelter_type": "public_transport"}}, {"type": "node", "id": 2579824563, "lat": 55.2688257, "lon": 9.9159892, "tags": {"bus": "yes", "departures_board": "timetable", "highway": "bus_stop", "lit": "yes", "name": "Korsvang Centret", "network": "FynBus", "network:wikidata": "Q12313224", "network:wikipedia": "da:FynBus", "operator": "Fynbus", "public_transport": "platform", "ref": "2176", "shelter": "yes", "shelter_type": "public_transport"}}, {"type": "node", "id": 2579824567, "lat": 55.2705111, "lon": 9.9010294, "tags": {"bus": "yes", "departures_board": "timetable", "highway": "bus_stop", "lit": "yes", "local_ref": "Zone 07", "name": "N\u00f8rregade", "network": "FynBus", "network:wikidata": "Q12313224", "network:wikipedia": "da:FynBus", "operator": "Fynbus", "public_transport": "platform", "ref": "2174"}}, {"type": "node", "id": 2579824577, "lat": 55.2698387, "lon": 9.9064823, "tags": {"bus": "yes", "departures_board": "timetable", "highway": "bus_stop", "name": "Sundhedscentret", "network": "FynBus", "network:wikidata": "Q12313224", "network:wikipedia": "da:FynBus", "operator": "Fynbus", "public_transport": "platform", "ref": "2154", "shelter": "yes"}}, {"type": "node", "id": 2579824585, "lat": 55.2662552, "lon": 9.9023076, "tags": {"bus": "yes", "departures_board": "timetable", "highway": "bus_stop", "local_ref": "Zone 07", "name": "Pilehaven", "network": "FynBus", "network:wikidata": "Q12313224", "operator": "Fynbus", "public_transport": "platform", "ref": "2162"}}, {"type": "node", "id": 2579824609, "lat": 55.2726273, "lon": 9.9043983, "tags": {"bus": "yes", "departures_board": "timetable", "highway": "bus_stop", "name": "Kalkbr\u00e6nderivej", "network": "FynBus", "network:wikidata": "Q12313224", "operator": "Fynbus", "public_transport": "platform", "ref": "2173"}}, {"type": "node", "id": 2579859184, "lat": 55.273396, "lon": 9.907716, "tags": {"bus": "yes", "highway": "bus_stop", "network": "FynBus", "network:wikidata": "Q12313224", "public_transport": "platform"}}, {"type": "node", "id": 2579859189, "lat": 55.2734876, "lon": 9.9077321, "tags": {"bus": "yes", "highway": "bus_stop", "network": "FynBus", "network:wikidata": "Q12313224", "public_transport": "platform"}}, {"type": "node", "id": 2585287404, "lat": 55.2417991, "lon": 9.9760286, "tags": {"bus": "yes", "departures_board": "timetable", "highway": "bus_stop", "network": "FynBus", "network:wikidata": "Q12313224", "network:wikipedia": "da:FynBus", "operator": "Fynbus", "public_transport": "platform", "ref": "6909"}}, {"type": "node", "id": 2585308874, "lat": 55.2480313, "lon": 9.963772, "tags": {"bus": "yes", "highway": "bus_stop", "public_transport": "platform"}}, {"type": "node", "id": 2585308898, "lat": 55.2479213, "lon": 9.9636527, "tags": {"bus": "yes", "highway": "bus_stop", "public_transport": "platform"}}, {"type": "node", "id": 2643532470, "lat": 54.9519748, "lon": 9.8910475, "tags": {"highway": "bus_stop", "public_transport": "platform"}}, {"type": "node", "id": 2643532473, "lat": 54.9521492, "lon": 9.8908936, "tags": {"highway": "bus_stop", "public_transport": "platform"}}, {"type": "node", "id": 2824190411, "lat": 55.252389, "lon": 9.4817741, "tags": {"bench": "yes", "bin": "yes", "bus": "yes", "highway": "bus_stop", "network": "Sydtrafik", "network:wikidata": "Q12338112", "public_transport": "platform", "shelter": "yes"}}, {"type": "node", "id": 2824190412, "lat": 55.2528079, "lon": 9.4833271, "tags": {"bench": "yes", "bin": "yes", "bus": "yes", "highway": "bus_stop", "public_transport": "platform", "shelter": "yes", "tactile_paving": "no"}}, {"type": "node", "id": 2958441296, "lat": 55.1950197, "lon": 9.601084, "tags": {"highway": "bus_stop", "public_transport": "platform"}}, {"type": "node", "id": 2962690348, "lat": 55.1917599, "lon": 9.5761243, "tags": {"highway": "bus_stop", "public_transport": "platform"}}, {"type": "node", "id": 2964298091, "lat": 55.1925243, "lon": 9.5840904, "tags": {"highway": "bus_stop", "public_transport": "platform"}}, {"type": "node", "id": 3090206968, "lat": 54.921437, "lon": 9.81963, "tags": {"bus": "yes", "departures_board": "timetable", "highway": "bus_stop", "name": "Augustenborg Landevej v Agtoftvej", "network": "Sydtrafik", "network:wikidata": "Q12338112", "public_transport": "platform", "shelter": "no"}}, {"type": "node", "id": 3255946904, "lat": 54.9350928, "lon": 9.398428}, {"type": "node", "id": 3255946905, "lat": 54.9351213, "lon": 9.397854}, {"type": "node", "id": 3255946906, "lat": 54.9351882, "lon": 9.3965054}, {"type": "node", "id": 3546215974, "lat": 54.9262995, "lon": 10.0405298, "tags": {"bench": "no", "bin": "no", "highway": "bus_stop", "lit": "no", "name:signed": "no", "public_transport": "platform", "shelter": "no", "tactile_paving": "no"}}, {"type": "node", "id": 3620003467, "lat": 55.3085366, "lon": 10.049923, "tags": {"bench": "yes", "bus": "yes", "departures_board": "timetable", "highway": "bus_stop", "local_ref": "Zone 73", "name": "Vedtofte (Glamsbjerg)", "network": "FynBus", "network:wikidata": "Q12313224", "network:wikipedia": "da:FynBus", "operator": "Fynbus", "public_transport": "platform", "ref": "2262", "shelter": "no"}}, {"type": "node", "id": 3620003486, "lat": 55.308736, "lon": 10.0500914, "tags": {"bus": "yes", "departures_board": "timetable", "highway": "bus_stop", "local_ref": "Zone 73", "name": "Vedtofte (Glamsbjerg)", "network": "FynBus", "network:wikidata": "Q12313224", "network:wikipedia": "da:FynBus", "operator": "Fynbus", "public_transport": "platform", "ref": "2263", "shelter": "no"}}, {"type": "node", "id": 3622426624, "lat": 55.2585621, "lon": 9.9167422, "tags": {"bus": "yes", "departures_board": "timetable", "highway": "bus_stop", "name": "Egebjergvej", "network": "FynBus", "network:wikidata": "Q12313224", "operator": "Fynbus", "public_transport": "platform", "ref": "2157"}}, {"type": "node", "id": 3622426626, "lat": 55.2587447, "lon": 9.9166671, "tags": {"bus": "yes", "departures_board": "timetable", "highway": "bus_stop", "name": "Egebjergvej", "network": "FynBus", "network:wikidata": "Q12313224", "operator": "Fynbus", "public_transport": "platform", "ref": "2158"}}, {"type": "node", "id": 3687409690, "lat": 54.9300468, "lon": 9.8460379, "tags": {"highway": "bus_stop", "name": "Madeskov", "network": "Sydtrafik", "network:wikidata": "Q12338112", "public_transport": "platform", "shelter": "yes"}}, {"type": "node", "id": 3687409691, "lat": 54.9303481, "lon": 9.8454907, "tags": {"highway": "bus_stop", "name": "Madeskov", "network": "Sydtrafik", "network:wikidata": "Q12338112", "public_transport": "platform", "shelter": "no"}}, {"type": "node", "id": 3751318714, "lat": 55.261969, "lon": 9.9916338, "tags": {"bus": "yes", "departures_board": "timetable", "highway": "bus_stop", "name": "\u00d8ksnebjerg M\u00f8lle", "network": "FynBus", "network:wikidata": "Q12313224", "network:wikipedia": "da:FynBus", "operator": "Fynbus", "public_transport": "platform", "ref": "2290", "shelter": "no"}}, {"type": "node", "id": 3751318717, "lat": 55.2617841, "lon": 9.990011, "tags": {"bus": "yes", "departures_board": "timetable", "highway": "bus_stop", "name": "\u00d8ksnebjerg M\u00f8lle", "network": "FynBus", "network:wikidata": "Q12313224", "network:wikipedia": "da:FynBus", "operator": "Fynbus", "public_transport": "platform", "ref": "2291", "shelter": "no"}}, {"type": "node", "id": 3751318718, "lat": 55.2635035, "lon": 9.9578058, "tags": {"bench": "yes", "bus": "yes", "highway": "bus_stop", "name": "Vrangstrupgyden", "network": "FynBus", "network:wikidata": "Q12313224", "network:wikipedia": "da:FynBus", "operator": "Fynbus", "public_transport": "platform", "ref": "2289", "shelter": "no"}}, {"type": "node", "id": 3751319725, "lat": 55.2624321, "lon": 9.9704953, "tags": {"bus": "yes", "departures_board": "timetable", "highway": "bus_stop", "name": "S\u00f8ren Nordbys Vej", "network": "FynBus", "network:wikidata": "Q12313224", "network:wikipedia": "da:FynBus", "operator": "Fynbus", "public_transport": "platform", "ref": "2285"}}, {"type": "node", "id": 3751319740, "lat": 55.262131, "lon": 9.9794619, "tags": {"bus": "yes", "departures_board": "timetable", "highway": "bus_stop", "name": "Gamtoftevej", "network": "FynBus", "network:wikidata": "Q12313224", "network:wikipedia": "da:FynBus", "operator": "Fynbus", "public_transport": "platform", "ref": "2278", "shelter": "yes"}}, {"type": "node", "id": 3751319742, "lat": 55.2674922, "lon": 9.9408997, "tags": {"bus": "yes", "departures_board": "timetable", "highway": "bus_stop", "name": "Melby / Odensevej", "network": "FynBus", "network:wikidata": "Q12313224", "network:wikipedia": "da:FynBus", "operator": "Fynbus", "public_transport": "platform", "ref": "2169"}}, {"type": "node", "id": 3751319744, "lat": 55.2627821, "lon": 9.9689718, "tags": {"bus": "yes", "departures_board": "timetable", "highway": "bus_stop", "name": "S\u00f8ren Nordbys Vej", "network": "FynBus", "network:wikidata": "Q12313224", "network:wikipedia": "da:FynBus", "operator": "Fynbus", "public_transport": "platform", "ref": "2284"}}, {"type": "node", "id": 3751319751, "lat": 55.2681723, "lon": 10.0251346, "tags": {"bus": "yes", "departures_board": "timetable", "highway": "bus_stop", "name": "S\u00f8 S\u00f8byvej", "network": "FynBus", "network:wikidata": "Q12313224", "network:wikipedia": "da:FynBus", "operator": "Fynbus", "public_transport": "platform", "ref": "2282", "shelter": "no"}}, {"type": "node", "id": 3751319757, "lat": 55.2683373, "lon": 10.0266956, "tags": {"bus": "yes", "departures_board": "timetable", "highway": "bus_stop", "name": "S\u00f8 S\u00f8byvej", "network": "FynBus", "network:wikidata": "Q12313224", "network:wikipedia": "da:FynBus", "operator": "Fynbus", "public_transport": "platform", "ref": "2283", "shelter": "no"}}, {"type": "node", "id": 3751319764, "lat": 55.2640307, "lon": 9.9553918, "tags": {"bench": "yes", "bus": "yes", "highway": "bus_stop", "name": "Vrangstrupgyden", "network": "FynBus", "network:wikidata": "Q12313224", "network:wikipedia": "da:FynBus", "operator": "Fynbus", "public_transport": "platform", "ref": "2288", "shelter": "no"}}, {"type": "node", "id": 3751319769, "lat": 55.2620775, "lon": 10.0055732, "tags": {"bus": "yes", "departures_board": "timetable", "highway": "bus_stop", "name": "Thinggyden", "network": "FynBus", "network:wikidata": "Q12313224", "network:wikipedia": "da:FynBus", "operator": "Fynbus", "public_transport": "platform", "ref": "2287", "shelter": "no"}}, {"type": "node", "id": 3751319774, "lat": 55.2619079, "lon": 9.9821951, "tags": {"bus": "yes", "departures_board": "timetable", "highway": "bus_stop", "name": "Gamtoftevej", "network": "FynBus", "network:wikidata": "Q12313224", "network:wikipedia": "da:FynBus", "operator": "Fynbus", "public_transport": "platform", "ref": "2279", "shelter": "yes"}}, {"type": "node", "id": 3751319775, "lat": 55.2621983, "lon": 10.00409, "tags": {"bus": "yes", "departures_board": "timetable", "highway": "bus_stop", "name": "Thinggyden", "network": "FynBus", "network:wikidata": "Q12313224", "network:wikipedia": "da:FynBus", "operator": "Fynbus", "public_transport": "platform", "ref": "2286", "shelter": "no"}}, {"type": "node", "id": 3774819593, "lat": 55.0684004, "lon": 9.3324863}, {"type": "node", "id": 3774819594, "lat": 55.0684148, "lon": 9.3323615}, {"type": "node", "id": 3774819595, "lat": 55.0685723, "lon": 9.3327509}, {"type": "node", "id": 3774819596, "lat": 55.0685815, "lon": 9.3326704}, {"type": "node", "id": 3774819601, "lat": 55.0700971, "lon": 9.3332641}, {"type": "node", "id": 3774819602, "lat": 55.0700979, "lon": 9.3331793}, {"type": "node", "id": 3774819603, "lat": 55.0704717, "lon": 9.3331678}, {"type": "node", "id": 3774819605, "lat": 55.0712462, "lon": 9.3335973}, {"type": "node", "id": 3774819606, "lat": 55.0712516, "lon": 9.3335303}, {"type": "node", "id": 3774819607, "lat": 55.071263, "lon": 9.3334067}, {"type": "node", "id": 3774819608, "lat": 55.0712743, "lon": 9.3332982}, {"type": "node", "id": 3799881068, "lat": 54.9191756, "lon": 9.8074988, "tags": {"bus": "yes", "departures_board": "timetable", "highway": "bus_stop", "name": "Alsgade v Grundtvigs Alle", "network": "Sydtrafik", "network:wikidata": "Q12338112", "public_transport": "platform", "shelter": "no", "shelter_type": "public_transport"}}, {"type": "node", "id": 3799881069, "lat": 54.9192276, "lon": 9.8086017, "tags": {"bus": "yes", "departures_board": "timetable", "highway": "bus_stop", "name": "Alsgade v Grundtvigs Alle", "network": "Sydtrafik", "network:wikidata": "Q12338112", "public_transport": "platform", "shelter": "yes", "shelter_type": "public_transport"}}, {"type": "node", "id": 3799881070, "lat": 54.921557, "lon": 9.8180694, "tags": {"bus": "yes", "departures_board": "timetable", "highway": "bus_stop", "name": "Augustenborg Landevej v Agtoftvej", "network": "Sydtrafik", "network:wikidata": "Q12338112", "public_transport": "platform", "shelter": "no"}}, {"type": "node", "id": 3799881071, "lat": 54.9222696, "lon": 9.8247987, "tags": {"bus": "yes", "departures_board": "timetable", "highway": "bus_stop", "name": "Augustenborg Landevej v Stationsvej", "network": "Sydtrafik", "network:wikidata": "Q12338112", "public_transport": "platform", "shelter": "yes"}}, {"type": "node", "id": 3799881072, "lat": 54.9235411, "lon": 9.8307092, "tags": {"highway": "bus_stop", "name": "Augustenborg Landevej v Spang", "network": "Sydtrafik", "network:wikidata": "Q12338112", "public_transport": "platform", "shelter": "yes"}}, {"type": "node", "id": 3799881073, "lat": 54.9252708, "lon": 9.8553409, "tags": {"highway": "bus_stop", "name": "Mommarkvej v Linb\u00e6kvej", "network": "Sydtrafik", "network:wikidata": "Q12338112", "public_transport": "platform", "shelter": "no"}}, {"type": "node", "id": 3799881074, "lat": 54.9253956, "lon": 9.8552773, "tags": {"highway": "bus_stop", "name": "Mommarkvej v Linb\u00e6kvej", "network": "Sydtrafik", "network:wikidata": "Q12338112", "public_transport": "platform", "shelter": "yes"}}, {"type": "node", "id": 3799881075, "lat": 54.9256462, "lon": 9.8498305, "tags": {"bus": "yes", "highway": "bus_stop", "name": "Mommarkvej v Huholt", "network": "Sydtrafik", "network:wikidata": "Q12338112", "public_transport": "platform", "shelter": "no"}}, {"type": "node", "id": 3799881076, "lat": 54.9256578, "lon": 9.8510094, "tags": {"bus": "yes", "highway": "bus_stop", "name": "Mommarkvej v Huholt", "network": "Sydtrafik", "network:wikidata": "Q12338112", "public_transport": "platform", "shelter": "no"}}, {"type": "node", "id": 3941952376, "lat": 55.2764791, "lon": 9.9014257, "tags": {"bus": "yes", "departures_board": "timetable", "highway": "bus_stop", "lit": "yes", "name": "Gangtunnellen", "network": "FynBus", "network:wikidata": "Q12313224", "operator": "Fynbus", "public_transport": "platform", "ref": "2165"}}, {"type": "node", "id": 3941952423, "lat": 55.276394, "lon": 9.9015578, "tags": {"bus": "yes", "departures_board": "timetable", "highway": "bus_stop", "lit": "yes", "name": "Gangtunnellen", "network": "FynBus", "network:wikidata": "Q12313224", "operator": "Fynbus", "public_transport": "platform", "ref": "2166"}}, {"type": "node", "id": 4185589646, "lat": 55.051229, "lon": 9.7709708, "tags": {"bus": "yes", "departures_board": "timetable", "highway": "bus_stop", "network": "Sydtrafik", "network:wikidata": "Q12338112", "network:wikipedia": "da:Sydtrafik", "operator": "Sydtrafik", "public_transport": "platform", "shelter": "yes"}}, {"type": "node", "id": 4185589648, "lat": 55.0518628, "lon": 9.7699307, "tags": {"bus": "yes", "departures_board": "timetable", "highway": "bus_stop", "network": "Sydtrafik", "network:wikidata": "Q12338112", "network:wikipedia": "da:Sydtrafik", "operator": "Sydtrafik", "public_transport": "platform", "shelter": "yes"}}, {"type": "node", "id": 4185589649, "lat": 55.0550316, "lon": 9.757956, "tags": {"bus": "yes", "highway": "bus_stop", "network": "Sydtrafik", "network:wikidata": "Q12338112", "network:wikipedia": "da:Sydtrafik", "operator": "Sydtrafik", "public_transport": "platform"}}, {"type": "node", "id": 4185589651, "lat": 55.054742, "lon": 9.7592944, "tags": {"bus": "yes", "highway": "bus_stop", "network": "Sydtrafik", "network:wikidata": "Q12338112", "network:wikipedia": "da:Sydtrafik", "operator": "Sydtrafik", "public_transport": "platform", "shelter": "yes", "shelter_type": "public_transport"}}, {"type": "node", "id": 4185589653, "lat": 55.0532817, "lon": 9.7650022, "tags": {"bus": "yes", "departures_board": "timetable", "highway": "bus_stop", "name": "Nordborgvej v Nordals Idr\u00e6tscenter", "network": "Sydtrafik", "network:wikidata": "Q12338112", "network:wikipedia": "da:Sydtrafik", "operator": "Sydtrafik", "public_transport": "platform"}}, {"type": "node", "id": 4185589654, "lat": 55.0486676, "lon": 9.7777287, "tags": {"bus": "yes", "highway": "bus_stop", "network": "Sydtrafik", "network:wikidata": "Q12338112", "network:wikipedia": "da:Sydtrafik", "operator": "Sydtrafik", "public_transport": "platform", "shelter": "yes"}}, {"type": "node", "id": 4185589656, "lat": 55.053377, "lon": 9.7652422, "tags": {"bus": "yes", "departures_board": "timetable", "highway": "bus_stop", "name": "Nordborgvej v Nordals Idr\u00e6tscenter", "network": "Sydtrafik", "network:wikidata": "Q12338112", "network:wikipedia": "da:Sydtrafik", "operator": "Sydtrafik", "public_transport": "platform"}}, {"type": "node", "id": 4185589657, "lat": 55.0492791, "lon": 9.7769219, "tags": {"bus": "yes", "highway": "bus_stop", "network": "Sydtrafik", "network:wikidata": "Q12338112", "network:wikipedia": "da:Sydtrafik", "operator": "Sydtrafik", "public_transport": "platform", "shelter": "yes"}}, {"type": "node", "id": 4185598534, "lat": 55.0349051, "lon": 9.7913039, "tags": {"bus": "yes", "highway": "bus_stop", "network": "Sydtrafik", "network:wikidata": "Q12338112", "network:wikipedia": "da:Sydtrafik", "operator": "Sydtrafik", "public_transport": "platform", "shelter": "yes", "shelter_type": "public_transport"}}, {"type": "node", "id": 4185598536, "lat": 55.0412445, "lon": 9.791194, "tags": {"bus": "yes", "highway": "bus_stop", "network": "Sydtrafik", "network:wikidata": "Q12338112", "network:wikipedia": "da:Sydtrafik", "operator": "Sydtrafik", "public_transport": "platform", "shelter": "yes", "shelter_type": "public_transport"}}, {"type": "node", "id": 4185598537, "lat": 55.034942, "lon": 9.7908962, "tags": {"bus": "yes", "highway": "bus_stop", "network": "Sydtrafik", "network:wikidata": "Q12338112", "network:wikipedia": "da:Sydtrafik", "operator": "Sydtrafik", "public_transport": "platform", "shelter": "yes", "shelter_type": "public_transport"}}, {"type": "node", "id": 4185598538, "lat": 55.0421743, "lon": 9.7912074, "tags": {"bus": "yes", "departures_board": "timetable", "highway": "bus_stop", "network": "Sydtrafik", "network:wikidata": "Q12338112", "network:wikipedia": "da:Sydtrafik", "operator": "Sydtrafik", "public_transport": "platform", "shelter": "yes", "shelter_type": "public_transport"}}, {"type": "node", "id": 4185614092, "lat": 55.0330037, "lon": 9.7926994, "tags": {"bus": "yes", "highway": "bus_stop", "network": "Sydtrafik", "network:wikidata": "Q12338112", "network:wikipedia": "da:Sydtrafik", "operator": "Sydtrafik", "public_transport": "platform", "shelter": "yes", "shelter_type": "public_transport"}}, {"type": "node", "id": 4185614093, "lat": 55.0324703, "lon": 9.7936905, "tags": {"bus": "yes", "highway": "bus_stop", "network": "Sydtrafik", "network:wikidata": "Q12338112", "network:wikipedia": "da:Sydtrafik", "operator": "Sydtrafik", "public_transport": "platform", "shelter": "yes", "shelter_type": "public_transport"}}, {"type": "node", "id": 4231496173, "lat": 54.9372408, "lon": 9.6200014, "tags": {"bus": "yes", "highway": "bus_stop", "name": "Adsb\u00f8l v kirken", "network": "Sydtrafik", "network:wikidata": "Q12338112", "public_transport": "platform", "route_ref": "110"}}, {"type": "node", "id": 4266815717, "lat": 55.0695622, "lon": 9.3330841}, {"type": "node", "id": 4340181042, "lat": 54.9905595, "lon": 9.8658494}, {"type": "node", "id": 4340181044, "lat": 54.9906136, "lon": 9.8656235, "tags": {"bus": "yes", "departures_board": "timetable", "highway": "bus_stop", "name": "Guderup Busstation", "public_transport": "platform"}}, {"type": "node", "id": 4340181049, "lat": 54.9906429, "lon": 9.8654691}, {"type": "node", "id": 4497445673, "lat": 54.9193198, "lon": 9.5943868}, {"type": "node", "id": 4497445674, "lat": 54.9195302, "lon": 9.5946852}, {"type": "node", "id": 4497445675, "lat": 54.9193053, "lon": 9.5941833}, {"type": "node", "id": 4497445676, "lat": 54.9195844, "lon": 9.5945896}, {"type": "node", "id": 4556026175, "lat": 55.2959016, "lon": 9.9379172, "tags": {"bench": "yes", "bin": "no", "bus": "yes", "departures_board": "timetable", "highway": "bus_stop", "lit": "yes", "local_ref": "Zone 82", "name": "Aborgvej (Assens kommune)", "network": "FynBus", "network:wikidata": "Q12313224", "network:wikipedia": "da:FynBus", "operator": "Fynbus", "public_transport": "platform", "ref": "2366", "shelter": "yes", "tactile_paving": "no"}}, {"type": "node", "id": 4556026177, "lat": 55.2957897, "lon": 9.9381293, "tags": {"bench": "yes", "bin": "no", "bus": "yes", "departures_board": "timetable", "highway": "bus_stop", "lit": "yes", "local_ref": "Zone 82", "name": "Aborgvej (Assens Kommune)", "network": "FynBus", "network:wikidata": "Q12313224", "network:wikipedia": "da:FynBus", "operator": "Fynbus", "public_transport": "platform", "ref": "2367", "shelter": "yes", "tactile_paving": "no"}}, {"type": "node", "id": 4556045690, "lat": 55.2873506, "lon": 9.9253833, "tags": {"bench": "yes", "bin": "no", "bus": "yes", "departures_board": "timetable", "highway": "bus_stop", "lit": "no", "local_ref": "Zone 82", "name": "Byst\u00e6vnevej", "network": "FynBus", "network:wikidata": "Q12313224", "network:wikipedia": "da:FynBus", "operator": "Fynbus", "public_transport": "platform", "ref": "2368", "shelter": "no", "tactile_paving": "no"}}, {"type": "node", "id": 4556045706, "lat": 55.2877676, "lon": 9.9264857, "tags": {"bench": "yes", "bin": "no", "bus": "yes", "departures_board": "timetable", "highway": "bus_stop", "lit": "no", "local_ref": "Zone 82", "name": "Byst\u00e6vnevej", "network": "FynBus", "network:wikidata": "Q12313224", "network:wikipedia": "da:FynBus", "operator": "Fynbus", "public_transport": "platform", "ref": "2369", "shelter": "no", "tactile_paving": "no"}}, {"type": "node", "id": 4743680643, "lat": 54.9849586, "lon": 9.8692336, "tags": {"bus": "yes", "highway": "bus_stop", "network": "Sydtrafik", "network:wikidata": "Q12338112", "network:wikipedia": "da:Sydtrafik", "operator": "Sydtrafik", "public_transport": "platform"}}, {"type": "node", "id": 4743680646, "lat": 55.0326023, "lon": 9.8084642, "tags": {"bus": "yes", "highway": "bus_stop", "network": "Sydtrafik", "network:wikidata": "Q12338112", "public_transport": "platform"}}, {"type": "node", "id": 4743680647, "lat": 55.0283881, "lon": 9.8314117, "tags": {"bus": "yes", "highway": "bus_stop", "public_transport": "platform"}}, {"type": "node", "id": 4743680649, "lat": 55.0250139, "lon": 9.837361, "tags": {"bus": "yes", "highway": "bus_stop", "public_transport": "platform"}}, {"type": "node", "id": 4743680651, "lat": 54.9935891, "lon": 9.8610154, "tags": {"highway": "bus_stop", "public_transport": "platform"}}, {"type": "node", "id": 4743680652, "lat": 55.0306292, "lon": 9.8275495, "tags": {"bus": "yes", "departures_board": "timetable", "highway": "bus_stop", "network": "Sydtrafik", "network:wikidata": "Q12338112", "operator": "Sydtrafik", "public_transport": "platform", "shelter": "yes"}}, {"type": "node", "id": 4743680655, "lat": 55.0360347, "lon": 9.8111679, "tags": {"highway": "bus_stop", "public_transport": "platform"}}, {"type": "node", "id": 4743680657, "lat": 54.9652704, "lon": 9.899226, "tags": {"bus": "yes", "departures_board": "timetable", "highway": "bus_stop", "network": "Sydtrafik", "network:wikidata": "Q12338112", "network:wikipedia": "da:Sydtrafik", "operator": "sydtrafik", "public_transport": "platform", "shelter": "yes"}}, {"type": "node", "id": 4743680658, "lat": 55.0329313, "lon": 9.8093761, "tags": {"bus": "yes", "highway": "bus_stop", "network": "Sydtrafik", "network:wikidata": "Q12338112", "public_transport": "platform"}}, {"type": "node", "id": 4743680660, "lat": 54.9927728, "lon": 9.8616726, "tags": {"highway": "bus_stop", "public_transport": "platform"}}, {"type": "node", "id": 4743680661, "lat": 54.9733881, "lon": 9.8935934, "tags": {"bus": "yes", "highway": "bus_stop", "network": "Sydtrafik", "network:wikidata": "Q12338112", "network:wikipedia": "da:Sydtrafik", "operator": "Sydtrafik", "public_transport": "platform", "shelter": "no"}}, {"type": "node", "id": 4743680662, "lat": 54.9764769, "lon": 9.885528, "tags": {"bench": "no", "bin": "no", "bus": "yes", "departures_board": "timetable", "highway": "bus_stop", "network": "Sydtrafik", "network:wikidata": "Q12338112", "operator": "Sydtrafik", "public_transport": "platform", "shelter": "no"}}, {"type": "node", "id": 4743680664, "lat": 54.9802651, "lon": 9.8789539, "tags": {"bench": "yes", "bus": "yes", "departures_board": "timetable", "highway": "bus_stop", "network": "Sydtrafik", "network:wikidata": "Q12338112", "operator": "Sydtrafik", "public_transport": "platform", "shelter": "yes"}}, {"type": "node", "id": 4890715293, "lat": 55.2589146, "lon": 9.4746352, "tags": {"highway": "bus_stop", "public_transport": "platform"}}, {"type": "node", "id": 4892327031, "lat": 55.2483537, "lon": 9.461656, "tags": {"bus": "yes", "highway": "bus_stop", "network": "Sydtrafik", "network:wikidata": "Q12338112", "operator": "Sydtrafik", "public_transport": "platform"}}, {"type": "node", "id": 4892327036, "lat": 55.2489151, "lon": 9.4655872, "tags": {"highway": "bus_stop", "public_transport": "platform"}}, {"type": "node", "id": 4983782651, "lat": 54.9238758, "lon": 9.8504703, "tags": {"highway": "bus_stop", "name": "Huholt v Skovlyk", "network": "Sydtrafik", "network:wikidata": "Q12338112", "public_transport": "platform", "ref": "224", "shelter": "no"}}, {"type": "node", "id": 4983782653, "lat": 54.9289944, "lon": 9.8332652, "tags": {"highway": "bus_stop", "name": "Pr\u00e6steg\u00e5rdsvej v Bispeparken", "network": "Sydtrafik", "network:wikidata": "Q12338112", "public_transport": "platform", "ref": "3", "shelter": "yes"}}, {"type": "node", "id": 4983804286, "lat": 54.9172636, "lon": 9.8023501, "tags": {"bus": "yes", "departures_board": "timetable", "highway": "bus_stop", "name": "Alsgade v Ringgade", "network": "Sydtrafik", "network:wikidata": "Q12338112", "public_transport": "platform", "shelter": "no"}}, {"type": "node", "id": 4983804287, "lat": 54.9173885, "lon": 9.8029563, "tags": {"bus": "yes", "departures_board": "timetable", "highway": "bus_stop", "name": "Alsgade v Ringgade", "network": "Sydtrafik", "network:wikidata": "Q12338112", "public_transport": "platform", "shelter": "yes"}}, {"type": "node", "id": 4993313123, "lat": 55.2495718, "lon": 9.3051128}, {"type": "node", "id": 5173327428, "lat": 54.994334, "lon": 9.9846686, "tags": {"bench": "yes", "bin": "yes", "bus": "yes", "departures_board": "timetable", "highway": "bus_stop", "lit": "yes", "name": "Fynshav F\u00e6rgehavn (bus)", "network": "Sydtrafik", "network:wikidata": "Q12338112", "network:wikipedia": "da:Sydtrafik", "operator": "Sydtrafik", "public_transport": "platform", "shelter": "yes"}}, {"type": "node", "id": 5314676124, "lat": 55.2449072, "lon": 9.9679172, "tags": {"bus": "yes", "departures_board": "timetable", "highway": "bus_stop", "name": "Rybergsvej", "network": "FynBus", "network:wikidata": "Q12313224", "network:wikipedia": "da:FynBus", "operator": "Fynbus", "public_transport": "platform", "ref": "2274"}}, {"type": "node", "id": 5314676125, "lat": 55.2422336, "lon": 9.979731, "tags": {"bus": "yes", "departures_board": "timetable", "highway": "bus_stop", "name": "Ravnek\u00e6rvej", "network": "FynBus", "network:wikidata": "Q12313224", "network:wikipedia": "da:FynBus", "operator": "Fynbus", "public_transport": "platform", "ref": "2273", "shelter": "no"}}, {"type": "node", "id": 5314676126, "lat": 55.253364, "lon": 9.9429704, "tags": {"bus": "yes", "highway": "bus_stop", "name": "K\u00e6rumvej", "network": "FynBus", "network:wikidata": "Q12313224", "operator": "Fynbus", "public_transport": "platform", "ref": "2155", "shelter": "no"}}, {"type": "node", "id": 5314676127, "lat": 55.2622555, "lon": 9.9090578, "tags": {"bus": "yes", "departures_board": "timetable", "highway": "bus_stop", "name": "M\u00f8llerhuse", "network": "FynBus", "network:wikidata": "Q12313224", "operator": "Fynbus", "public_transport": "platform", "ref": "2156"}}, {"type": "node", "id": 5314676132, "lat": 55.244856, "lon": 9.9676034, "tags": {"bus": "yes", "departures_board": "timetable", "highway": "bus_stop", "name": "Rybergsvej", "network": "FynBus", "network:wikidata": "Q12313224", "network:wikipedia": "da:FynBus", "operator": "Fynbus", "public_transport": "platform", "ref": "2275"}}, {"type": "node", "id": 5314676135, "lat": 55.3115099, "lon": 10.0256334, "tags": {"bus": "yes", "highway": "bus_stop", "name": "Rybjergvej / Turupvej", "public_transport": "platform"}}, {"type": "node", "id": 5314676136, "lat": 55.2408112, "lon": 9.9918684, "tags": {"bus": "yes", "departures_board": "timetable", "highway": "bus_stop", "name": "Mosemarksvej", "network": "FynBus", "network:wikidata": "Q12313224", "network:wikipedia": "da:FynBus", "operator": "Fynbus", "public_transport": "platform", "ref": "2268"}}, {"type": "node", "id": 5314676138, "lat": 55.31722, "lon": 10.0328311, "tags": {"bus": "yes", "highway": "bus_stop", "name": "Bregnebjergvej / Turupvej", "public_transport": "platform"}}, {"type": "node", "id": 5314676143, "lat": 55.2434447, "lon": 9.9734613, "tags": {"bus": "yes", "departures_board": "timetable", "highway": "bus_stop", "name": "Ebberup", "network": "FynBus", "network:wikidata": "Q12313224", "network:wikipedia": "da:FynBus", "operator": "Fynbus", "public_transport": "platform", "ref": "2277"}}, {"type": "node", "id": 5314676144, "lat": 55.3172126, "lon": 10.0325839, "tags": {"bus": "yes", "highway": "bus_stop", "name": "Bregnebjergvej / Turupvej", "public_transport": "platform"}}, {"type": "node", "id": 5314676147, "lat": 55.2423269, "lon": 9.9798128, "tags": {"bus": "yes", "departures_board": "timetable", "highway": "bus_stop", "name": "Ravnek\u00e6rvej", "network": "FynBus", "network:wikidata": "Q12313224", "network:wikipedia": "da:FynBus", "operator": "Fynbus", "public_transport": "platform", "ref": "2272", "shelter": "no"}}, {"type": "node", "id": 5314676148, "lat": 55.2435922, "lon": 9.9731569, "tags": {"bus": "yes", "departures_board": "timetable", "highway": "bus_stop", "name": "Ebberup", "network": "FynBus", "network:wikidata": "Q12313224", "network:wikipedia": "da:FynBus", "operator": "Fynbus", "public_transport": "platform", "ref": "2276"}}, {"type": "node", "id": 5314676149, "lat": 55.2771308, "lon": 9.9204103, "tags": {"bus": "yes", "highway": "bus_stop", "name": "Brahesborgvej", "network": "FynBus", "network:wikidata": "Q12313224", "network:wikipedia": "da:FynBus", "operator": "Fynbus", "public_transport": "platform", "ref": "2179", "shelter": "no"}}, {"type": "node", "id": 5314676150, "lat": 55.2412633, "lon": 9.9837623, "tags": {"bus": "yes", "departures_board": "timetable", "highway": "bus_stop", "name": "Prinsevej", "network": "FynBus", "network:wikidata": "Q12313224", "network:wikipedia": "da:FynBus", "operator": "Fynbus", "public_transport": "platform", "ref": "2270"}}, {"type": "node", "id": 5314676151, "lat": 55.2534717, "lon": 9.9429462, "tags": {"bus": "yes", "highway": "bus_stop", "name": "K\u00e6rumvej", "network": "FynBus", "network:wikidata": "Q12313224", "operator": "Fynbus", "public_transport": "platform", "ref": "2159", "shelter": "no"}}, {"type": "node", "id": 5314676152, "lat": 55.2623251, "lon": 9.9092054, "tags": {"bus": "yes", "departures_board": "timetable", "highway": "bus_stop", "name": "M\u00f8llerhuse", "network": "FynBus", "network:wikidata": "Q12313224", "operator": "Fynbus", "public_transport": "platform", "ref": "2160"}}, {"type": "node", "id": 5314676154, "lat": 55.2406805, "lon": 9.9915532, "tags": {"bus": "yes", "departures_board": "timetable", "highway": "bus_stop", "name": "Mosemarksvej", "network": "FynBus", "network:wikidata": "Q12313224", "network:wikipedia": "da:FynBus", "operator": "Fynbus", "public_transport": "platform", "ref": "2269"}}, {"type": "node", "id": 5314676156, "lat": 55.2778604, "lon": 9.9206121, "tags": {"bus": "yes", "highway": "bus_stop", "name": "Brahesborgvej", "network": "FynBus", "network:wikidata": "Q12313224", "network:wikipedia": "da:FynBus", "operator": "Fynbus", "public_transport": "platform", "ref": "2178", "shelter": "no"}}, {"type": "node", "id": 5314676157, "lat": 55.2411784, "lon": 9.9839957, "tags": {"bus": "yes", "departures_board": "timetable", "highway": "bus_stop", "name": "Prinsevej", "network": "FynBus", "network:wikidata": "Q12313224", "network:wikipedia": "da:FynBus", "operator": "Fynbus", "public_transport": "platform", "ref": "2271"}}, {"type": "node", "id": 5314891065, "lat": 55.0135289, "lon": 9.5698026, "tags": {"bench": "yes", "highway": "bus_stop", "name": "Bl\u00e5krogvej", "network": "Sydtrafik", "network:wikidata": "Q12338112", "public_transport": "platform", "ref": "12", "shelter": "yes", "tactile_paving": "no"}}, {"type": "node", "id": 5351031536, "lat": 55.053108, "lon": 9.7527808, "tags": {"bus": "yes", "highway": "bus_stop", "public_transport": "platform"}}, {"type": "node", "id": 5409443395, "lat": 55.2641518, "lon": 9.4987448, "tags": {"bench": "yes", "highway": "bus_stop", "public_transport": "platform", "shelter": "yes"}}, {"type": "node", "id": 5667484097, "lat": 55.2468048, "lon": 9.4472866}, {"type": "node", "id": 5667484098, "lat": 55.2468128, "lon": 9.4474892}, {"type": "node", "id": 5760278214, "lat": 54.920349, "lon": 9.8603314, "tags": {"highway": "bus_stop", "name": "Rojg\u00e5rdvej v Storkemosevej", "network": "Sydtrafik", "network:wikidata": "Q12338112", "public_transport": "platform", "ref": "224", "shelter": "no"}}, {"type": "node", "id": 5760278215, "lat": 54.9207005, "lon": 9.8568271, "tags": {"highway": "bus_stop", "name": "Rojg\u00e5rdvej v T\u00f8tmosevej", "network": "Sydtrafik", "network:wikidata": "Q12338112", "public_transport": "platform", "ref": "224", "shelter": "no"}}, {"type": "node", "id": 5760278216, "lat": 54.9226286, "lon": 9.8510911, "tags": {"highway": "bus_stop", "name": "Lambjergskovvej (Vollerup)", "network": "Sydtrafik", "network:wikidata": "Q12338112", "public_transport": "platform", "ref": "224", "shelter": "no"}}, {"type": "node", "id": 5839660089, "lat": 55.0698148, "lon": 9.3329208}, {"type": "node", "id": 5839661976, "lat": 55.0698658, "lon": 9.3329403}, {"type": "node", "id": 5839663232, "lat": 55.0692102, "lon": 9.3326552}, {"type": "node", "id": 5839664594, "lat": 55.0698232, "lon": 9.3328549}, {"type": "node", "id": 5839665908, "lat": 55.0691609, "lon": 9.3326376}, {"type": "node", "id": 5839669128, "lat": 55.069203, "lon": 9.3327173}, {"type": "node", "id": 5839670159, "lat": 55.0698741, "lon": 9.3328746}, {"type": "node", "id": 5839673460, "lat": 55.0691536, "lon": 9.3326998}, {"type": "node", "id": 5849789732, "lat": 55.3070744, "lon": 9.499805, "tags": {"bench": "no", "bin": "no", "covered": "no", "highway": "bus_stop", "public_transport": "platform", "shelter": "no"}}, {"type": "node", "id": 5849790370, "lat": 55.2987349, "lon": 9.5615065, "tags": {"bench": "no", "bin": "no", "covered": "no", "highway": "bus_stop", "public_transport": "platform", "shelter": "no"}}, {"type": "node", "id": 5849790374, "lat": 55.2983944, "lon": 9.561241, "tags": {"highway": "bus_stop", "public_transport": "platform", "shelter": "yes"}}, {"type": "node", "id": 6129223326, "lat": 55.0532466, "lon": 9.7487995, "tags": {"bus": "yes", "highway": "bus_stop", "network": "Sydtrafik", "network:wikidata": "Q12338112", "network:wikipedia": "da:Sydtrafik", "operator": "Sydtrafik", "public_transport": "platform", "shelter": "yes"}}, {"type": "node", "id": 6129238479, "lat": 55.0452622, "lon": 9.7864356, "tags": {"bus": "yes", "highway": "bus_stop", "network": "Sydtrafik", "network:wikidata": "Q12338112", "network:wikipedia": "da:Sydtrafik", "operator": "Sydtrafik", "public_transport": "platform", "shelter": "yes"}}, {"type": "node", "id": 6129238482, "lat": 55.0536495, "lon": 9.7579231, "tags": {"bus": "yes", "highway": "bus_stop", "public_transport": "platform"}}, {"type": "node", "id": 6213009339, "lat": 54.9365325, "lon": 9.8051896, "tags": {"bench": "no", "bin": "no", "bus": "yes", "check_date:shelter": "2024-12-29", "highway": "bus_stop", "lit": "yes", "name": "Ormstoft", "network": "Sydtrafik", "network:wikidata": "Q12338112", "passenger_information_display": "no", "public_transport": "platform", "ref": "710", "shelter": "yes", "tactile_paving": "no"}}, {"type": "node", "id": 7119083385, "lat": 55.003603, "lon": 9.8241566, "tags": {"bench": "yes", "bus": "yes", "highway": "bus_stop", "network": "Sydtrafik", "network:wikidata": "Q12338112", "network:wikipedia": "da:Sydtrafik", "operator": "Sydtrafik", "public_transport": "platform", "shelter": "yes"}}, {"type": "node", "id": 7119083386, "lat": 55.0037919, "lon": 9.8241865, "tags": {"bench": "yes", "bus": "yes", "highway": "bus_stop", "network": "Sydtrafik", "network:wikidata": "Q12338112", "network:wikipedia": "da:Sydtrafik", "operator": "Sydtrafik", "public_transport": "platform", "shelter": "yes"}}, {"type": "node", "id": 7119083390, "lat": 55.0338451, "lon": 9.752956, "tags": {"bus": "yes", "highway": "bus_stop", "public_transport": "platform"}}, {"type": "node", "id": 7119083391, "lat": 55.0345306, "lon": 9.7524932, "tags": {"bus": "yes", "highway": "bus_stop", "public_transport": "platform"}}, {"type": "node", "id": 7223229856, "lat": 55.3259164, "lon": 9.9376707, "tags": {"bench": "yes", "bus": "yes", "highway": "bus_stop", "network": "FynBus", "network:wikidata": "Q12313224", "public_transport": "platform", "shelter": "yes", "shelter_type": "public_transport"}}, {"type": "node", "id": 7238471121, "lat": 55.0496241, "lon": 9.6806792}, {"type": "node", "id": 7238471700, "lat": 55.0496453, "lon": 9.6806723}, {"type": "node", "id": 7238473972, "lat": 55.0496435, "lon": 9.6806543}, {"type": "node", "id": 7238474533, "lat": 55.0496222, "lon": 9.6806611}, {"type": "node", "id": 7593070454, "lat": 55.2428629, "lon": 9.5005171, "tags": {"bench": "yes", "bin": "yes", "bus": "yes", "covered": "yes", "highway": "bus_stop", "public_transport": "platform", "wheelchair": "yes"}}, {"type": "node", "id": 7769653492, "lat": 55.069496, "lon": 9.3567256, "tags": {"bus": "yes", "highway": "bus_stop", "name": "Ribevej v Brundevej", "network": "Sydtrafik", "network:wikidata": "Q12338112", "network:wikipedia": "da:Sydtrafik", "operator": "sydtrafik", "public_transport": "platform", "route_ref": "1;2;124;129"}}, {"type": "node", "id": 7769653493, "lat": 55.0695986, "lon": 9.3558405, "tags": {"bus": "yes", "highway": "bus_stop", "name": "Ribevej v Brundevej", "network": "Sydtrafik", "network:wikidata": "Q12338112", "network:wikipedia": "da:Sydtrafik", "operator": "sydtrafik", "public_transport": "platform", "route_ref": "1;2;124;129"}}, {"type": "node", "id": 7770923972, "lat": 55.0473264, "lon": 9.4200918, "tags": {"bench": "yes", "bin": "yes", "bus": "yes", "highway": "bus_stop", "name": "H P Hanssens Gade v N\u00f8rreport", "network": "Sydtrafik", "network:wikidata": "Q12338112", "public_transport": "platform", "route_ref": "1;2;3;123;124;129", "shelter": "yes", "tactile_paving": "no"}}, {"type": "node", "id": 7770923973, "lat": 55.0479065, "lon": 9.4194826, "tags": {"bench": "yes", "bin": "no", "bus": "yes", "departures_board": "timetable", "highway": "bus_stop", "name": "H P Hanssens Gade v N\u00f8rreport", "network": "Sydtrafik", "network:wikidata": "Q12338112", "network:wikipedia": "da:Sydtrafik", "operator": "Sydtrafik", "public_transport": "platform", "route_ref": "1;2;3;123;124;129", "shelter": "yes", "tactile_paving": "no"}}, {"type": "node", "id": 7778059777, "lat": 55.0657231, "lon": 9.3655814, "tags": {"bus": "yes", "highway": "bus_stop", "name": "Aabenraa", "public_transport": "platform", "route_ref": "Flixbus 627, 636"}}, {"type": "node", "id": 7778059778, "lat": 55.2520966, "lon": 9.4904776}, {"type": "node", "id": 7778059779, "lat": 55.2521814, "lon": 9.4904615}, {"type": "node", "id": 7778059780, "lat": 55.2521302, "lon": 9.4903716}, {"type": "node", "id": 7778059781, "lat": 55.2521944, "lon": 9.4903623}, {"type": "node", "id": 7778059782, "lat": 55.2521662, "lon": 9.4902925}, {"type": "node", "id": 7778059783, "lat": 55.2522311, "lon": 9.4902912}, {"type": "node", "id": 7778059784, "lat": 55.2522044, "lon": 9.4902214}, {"type": "node", "id": 7778082385, "lat": 55.2522739, "lon": 9.4902201}, {"type": "node", "id": 7778082386, "lat": 55.2522441, "lon": 9.490149}, {"type": "node", "id": 7778082387, "lat": 55.2523152, "lon": 9.490149}, {"type": "node", "id": 7778082388, "lat": 55.252293, "lon": 9.490086}, {"type": "node", "id": 7778082389, "lat": 55.2523595, "lon": 9.4900887}, {"type": "node", "id": 7778082390, "lat": 55.2523393, "lon": 9.490025}, {"type": "node", "id": 7778082391, "lat": 55.2524066, "lon": 9.490031}, {"type": "node", "id": 7778082392, "lat": 55.2523832, "lon": 9.4899566}, {"type": "node", "id": 7778082393, "lat": 55.2524539, "lon": 9.489966}, {"type": "node", "id": 7778082394, "lat": 55.2524367, "lon": 9.4899009}, {"type": "node", "id": 7778082395, "lat": 55.252504, "lon": 9.4899157}, {"type": "node", "id": 7778082396, "lat": 55.2524841, "lon": 9.4898419}, {"type": "node", "id": 7778082397, "lat": 55.2525537, "lon": 9.4898607}, {"type": "node", "id": 7778082398, "lat": 55.2525399, "lon": 9.4897936}, {"type": "node", "id": 7778082399, "lat": 55.2526057, "lon": 9.4898097}, {"type": "node", "id": 7778082400, "lat": 55.2525858, "lon": 9.4897467}, {"type": "node", "id": 7778082401, "lat": 55.2526554, "lon": 9.4897695}, {"type": "node", "id": 7778082402, "lat": 55.2526462, "lon": 9.4897011}, {"type": "node", "id": 7778082403, "lat": 55.2527056, "lon": 9.4897263}, {"type": "node", "id": 7778082404, "lat": 55.252715, "lon": 9.4897293}, {"type": "node", "id": 7778082405, "lat": 55.2527123, "lon": 9.4896589}, {"type": "node", "id": 7778082406, "lat": 55.252809, "lon": 9.4897065}, {"type": "node", "id": 7961223943, "lat": 55.2452601, "lon": 9.4919246, "tags": {"bench": "yes", "bin": "yes", "highway": "bus_stop", "public_transport": "platform", "shelter": "yes"}}, {"type": "node", "id": 8181455968, "lat": 55.2454895, "lon": 9.2925721, "tags": {"bench": "yes", "bin": "yes", "highway": "bus_stop", "public_transport": "platform", "shelter": "yes"}}, {"type": "node", "id": 8252943126, "lat": 55.0024537, "lon": 9.4399283, "tags": {"bus": "yes", "highway": "bus_stop", "name": "Lundsbjerg Industrivej", "network": "Sydtrafik", "network:wikidata": "Q12338112", "public_transport": "platform"}}, {"type": "node", "id": 8252943127, "lat": 55.0030464, "lon": 9.441314, "tags": {"bus": "yes", "highway": "bus_stop", "name": "Lundsbjerg Industrivej", "network": "Sydtrafik", "network:wikidata": "Q12338112", "public_transport": "platform"}}, {"type": "node", "id": 8287517343, "lat": 54.924362, "lon": 9.9813689, "tags": {"bus": "yes", "highway": "bus_stop", "public_transport": "platform", "shelter": "yes"}}, {"type": "node", "id": 8287517344, "lat": 54.9241286, "lon": 9.9815474, "tags": {"bus": "yes", "highway": "bus_stop", "public_transport": "platform", "shelter": "no"}}, {"type": "node", "id": 8505118170, "lat": 55.0338355, "lon": 9.4203947, "tags": {"bus": "yes", "highway": "bus_stop", "name": "Flensborgvej syd for T\u00f8ndervej", "network": "Sydtrafik", "network:wikidata": "Q12338112", "public_transport": "platform", "route_ref": "220", "shelter": "yes"}}, {"type": "node", "id": 8505118171, "lat": 55.0337854, "lon": 9.4207307, "tags": {"bus": "yes", "highway": "bus_stop", "name": "Flensborgvej syd for T\u00f8ndervej", "network": "Sydtrafik", "network:wikidata": "Q12338112", "public_transport": "platform", "shelter": "yes"}}, {"type": "node", "id": 8505118172, "lat": 55.0354375, "lon": 9.4215654, "tags": {"bench": "yes", "bin": "yes", "bus": "yes", "highway": "bus_stop", "name": "Kystvej v T\u00f8ndervej", "network": "Sydtrafik", "network:wikidata": "Q12338112", "network:wikipedia": "da:Sydtrafik", "operator": "sydtrafik", "public_transport": "platform", "route_ref": "4;112", "shelter": "yes"}}, {"type": "node", "id": 8508243875, "lat": 55.0535263, "lon": 9.4015184, "tags": {"bus": "yes", "highway": "bus_stop", "name": "L\u00f8gumklostervej v Petersborg", "network": "Sydtrafik", "network:wikidata": "Q12338112", "network:wikipedia": "da:Sydtrafik", "operator": "sydtrafik", "public_transport": "platform", "route_ref": "2;123;124;129", "shelter": "yes"}}, {"type": "node", "id": 8508243876, "lat": 55.0538757, "lon": 9.3992248, "tags": {"bus": "yes", "highway": "bus_stop", "name": "L\u00f8gumklostervej v Gammel Ribevej", "network": "Sydtrafik", "network:wikidata": "Q12338112", "network:wikipedia": "da:Sydtrafik", "operator": "sydtrafik", "public_transport": "platform", "route_ref": "2;123;124;129", "shelter": "yes"}}, {"type": "node", "id": 8508268283, "lat": 55.0165587, "lon": 9.4376574, "tags": {"bus": "yes", "departures_board": "timetable", "highway": "bus_stop", "network": "Sydtrafik", "network:wikidata": "Q12338112", "public_transport": "platform"}}, {"type": "node", "id": 8508268284, "lat": 55.0173053, "lon": 9.4377146, "tags": {"bus": "yes", "departures_board": "timetable", "highway": "bus_stop", "network": "Sydtrafik", "network:wikidata": "Q12338112", "operator": "Sydtrafik", "public_transport": "platform"}}, {"type": "node", "id": 8936720894, "lat": 55.2700601, "lon": 9.8899824, "tags": {"bus": "yes", "departures_board": "timetable", "highway": "bus_stop", "lit": "yes", "name": "B\u00e5g\u00f8f\u00e6rgen", "network": "FynBus", "network:wikidata": "Q12313224", "network:wikipedia": "da:FynBus", "operator": "Fynbus", "public_transport": "platform", "ref": "8553", "shelter": "no"}}, {"type": "node", "id": 8936720896, "lat": 55.2671658, "lon": 9.8917163, "tags": {"bench": "no", "bin": "no", "bus": "yes", "departures_board": "timetable", "highway": "bus_stop", "lit": "yes", "name": "Assens R\u00e5dhus", "network": "FynBus", "network:wikidata": "Q12313224", "network:wikipedia": "da:FynBus", "operator": "Fynbus", "public_transport": "platform", "ref": "8554", "shelter": "no", "tactile_paving": "no"}}, {"type": "node", "id": 8936720898, "lat": 55.2648284, "lon": 9.8935307, "tags": {"bus": "yes", "departures_board": "timetable", "highway": "bus_stop", "lit": "yes", "name": "Arena Assens", "network": "FynBus", "network:wikidata": "Q12313224", "network:wikipedia": "da:FynBus", "operator": "Fynbus", "public_transport": "platform", "ref": "8584", "shelter": "yes"}}, {"type": "node", "id": 8936720899, "lat": 55.2645275, "lon": 9.8934284, "tags": {"bus": "yes", "departures_board": "timetable", "highway": "bus_stop", "lit": "yes", "name": "Arena Assens", "network": "FynBus", "network:wikidata": "Q12313224", "network:wikipedia": "da:FynBus", "operator": "Fynbus", "public_transport": "platform", "ref": "8583", "shelter": "no"}}, {"type": "node", "id": 8936738986, "lat": 55.2671577, "lon": 9.8919821, "tags": {"bench": "yes", "bin": "yes", "bus": "yes", "departures_board": "timetable", "highway": "bus_stop", "lit": "yes", "name": "Assens R\u00e5dhus", "network": "FynBus", "network:wikidata": "Q12313224", "network:wikipedia": "da:FynBus", "operator": "Fynbus", "public_transport": "platform", "ref": "8555", "shelter": "no", "tactile_paving": "no"}}, {"type": "node", "id": 8990457737, "lat": 55.3200175, "lon": 9.3107763, "tags": {"bench": "yes", "bin": "yes", "covered": "yes", "highway": "bus_stop", "public_transport": "platform", "shelter": "yes"}}, {"type": "node", "id": 9035377588, "lat": 55.2700779, "lon": 9.8898877, "tags": {"bus": "yes", "highway": "bus_stop", "name": "B\u00e5g\u00f8f\u00e6rgen", "network": "FynBus", "network:wikidata": "Q12313224", "network:wikipedia": "da:FynBus", "operator": "Fynbus", "public_transport": "platform", "ref": "8552"}}, {"type": "node", "id": 9035610658, "lat": 55.3177138, "lon": 10.0485839, "tags": {"bus": "yes", "highway": "bus_stop", "name": "Brahesholm Projektet", "network": "FynBus", "network:wikidata": "Q12313224", "network:wikipedia": "da:FynBus", "operator": "Fynbus", "public_transport": "platform", "ref": "2224", "shelter": "no"}}, {"type": "node", "id": 9035610675, "lat": 55.3292021, "lon": 10.0588579, "tags": {"bus": "yes", "highway": "bus_stop", "lit": "yes", "name": "Chr. Richardtsvej / Fr\u00f8bjergvj", "network": "FynBus", "network:wikidata": "Q12313224", "network:wikipedia": "da:FynBus", "operator": "Fynbus", "public_transport": "platform", "ref": "8011", "shelter": "no"}}, {"type": "node", "id": 9035610676, "lat": 55.2995399, "lon": 9.9819968, "tags": {"bus": "yes", "departures_board": "timetable", "highway": "bus_stop", "name": "M\u00f8llegyden", "network": "FynBus", "network:wikidata": "Q12313224", "network:wikipedia": "da:FynBus", "operator": "Fynbus", "public_transport": "platform", "ref": "8511", "shelter": "no"}}, {"type": "node", "id": 9035610677, "lat": 55.2996836, "lon": 9.9832038, "tags": {"bus": "yes", "highway": "bus_stop", "name": "M\u00f8llegyden", "network": "FynBus", "network:wikidata": "Q12313224", "network:wikipedia": "da:FynBus", "operator": "Fynbus", "public_transport": "platform", "ref": "8514", "shelter": "no"}}, {"type": "node", "id": 9035610678, "lat": 55.2669083, "lon": 9.9428669, "tags": {"bus": "yes", "highway": "bus_stop", "name": "Melby / Odensevej", "network": "FynBus", "network:wikidata": "Q12313224", "network:wikipedia": "da:FynBus", "operator": "Fynbus", "public_transport": "platform", "ref": "2170", "shelter": "no"}}, {"type": "node", "id": 9035610679, "lat": 55.2635774, "lon": 10.0158411, "tags": {"bus": "yes", "departures_board": "timetable", "highway": "bus_stop", "name": "Kirke S\u00f8byvej", "network": "FynBus", "network:wikidata": "Q12313224", "network:wikipedia": "da:FynBus", "operator": "Fynbus", "public_transport": "platform", "ref": "2280", "shelter": "no"}}, {"type": "node", "id": 9035610680, "lat": 55.2639649, "lon": 10.0172737, "tags": {"bus": "yes", "departures_board": "timetable", "highway": "bus_stop", "name": "Kirke S\u00f8byvej", "network": "FynBus", "network:wikidata": "Q12313224", "network:wikipedia": "da:FynBus", "operator": "Fynbus", "public_transport": "platform", "ref": "2281", "shelter": "no"}}, {"type": "node", "id": 9035653485, "lat": 55.2943524, "lon": 10.0660634, "tags": {"bus": "yes", "departures_board": "timetable", "highway": "bus_stop", "name": "S\u00f8llestedvej", "network": "FynBus", "network:wikidata": "Q12313224", "network:wikipedia": "da:FynBus", "operator": "Fynbus", "public_transport": "platform", "ref": "2231", "shelter": "no"}}, {"type": "node", "id": 9035653486, "lat": 55.2944456, "lon": 10.0660995, "tags": {"bus": "yes", "departures_board": "timetable", "highway": "bus_stop", "name": "S\u00f8llestedvej", "network": "FynBus", "network:wikidata": "Q12313224", "network:wikipedia": "da:FynBus", "operator": "Fynbus", "public_transport": "platform", "ref": "2230", "shelter": "no"}}, {"type": "node", "id": 9035653487, "lat": 55.3013301, "lon": 10.0540031, "tags": {"bus": "yes", "departures_board": "timetable", "highway": "bus_stop", "name": "Egemosedam", "network": "FynBus", "network:wikidata": "Q12313224", "network:wikipedia": "da:FynBus", "operator": "Fynbus", "public_transport": "platform", "ref": "2228", "shelter": "no"}}, {"type": "node", "id": 9035653488, "lat": 55.3007592, "lon": 10.0542696, "tags": {"bus": "yes", "departures_board": "timetable", "highway": "bus_stop", "name": "Egemosedam", "network": "FynBus", "network:wikidata": "Q12313224", "network:wikipedia": "da:FynBus", "operator": "Fynbus", "public_transport": "platform", "ref": "2229", "shelter": "no"}}, {"type": "node", "id": 9147611793, "lat": 55.0523096, "lon": 9.406296, "tags": {"bus": "yes", "highway": "bus_stop", "name": "L\u00f8gumklostervej v Petersborg \u00f8st", "network": "Sydtrafik", "network:wikidata": "Q12338112", "network:wikipedia": "da:Sydtrafik", "operator": "sydtrafik", "public_transport": "platform", "route_ref": "2;123;124;129"}}, {"type": "node", "id": 9466493136, "lat": 54.9393012, "lon": 9.3773688, "tags": {"highway": "bus_stop", "public_transport": "platform"}}, {"type": "node", "id": 9466493137, "lat": 54.9391402, "lon": 9.3773259, "tags": {"highway": "bus_stop", "public_transport": "platform"}}, {"type": "node", "id": 9572361133, "lat": 54.96579, "lon": 9.6598819, "tags": {"highway": "bus_stop", "public_transport": "platform"}}, {"type": "node", "id": 9572361134, "lat": 54.9655829, "lon": 9.6591899, "tags": {"highway": "bus_stop", "public_transport": "platform"}}, {"type": "node", "id": 9572671546, "lat": 54.9506424, "lon": 9.7081831, "tags": {"bus": "yes", "highway": "bus_stop", "name": "Vester Sottrup, Aabenraavej", "network": "Sydtrafik", "network:wikidata": "Q12338112", "public_transport": "platform", "route_ref": "112"}}, {"type": "node", "id": 9911543812, "lat": 55.2456531, "lon": 9.3968081, "tags": {"bench": "yes", "highway": "bus_stop", "public_transport": "platform", "shelter": "yes"}}, {"type": "node", "id": 9911543813, "lat": 55.2454818, "lon": 9.3968672, "tags": {"bench": "yes", "highway": "bus_stop", "public_transport": "platform", "shelter": "yes"}}, {"type": "node", "id": 9911543818, "lat": 55.251349, "lon": 9.3610489, "tags": {"bench": "yes", "covered": "yes", "highway": "bus_stop", "public_transport": "platform"}}, {"type": "node", "id": 9911543819, "lat": 55.2511663, "lon": 9.3610221, "tags": {"bench": "yes", "covered": "yes", "highway": "bus_stop", "public_transport": "platform"}}, {"type": "node", "id": 9982909970, "lat": 55.0192335, "lon": 9.3024722, "tags": {"highway": "bus_stop", "public_transport": "platform"}}, {"type": "node", "id": 9982909971, "lat": 55.019152, "lon": 9.3004632, "tags": {"highway": "bus_stop", "public_transport": "platform"}}, {"type": "node", "id": 10046488644, "lat": 54.9830494, "lon": 9.9691044, "tags": {"highway": "bus_stop", "public_transport": "platform"}}, {"type": "node", "id": 10046488645, "lat": 54.9835688, "lon": 9.9703261, "tags": {"highway": "bus_stop", "public_transport": "platform"}}, {"type": "node", "id": 10149156286, "lat": 54.9690834, "lon": 9.6626848, "tags": {"bus": "yes", "highway": "bus_stop", "public_transport": "platform"}}, {"type": "node", "id": 10149156308, "lat": 54.969891, "lon": 9.6593086, "tags": {"bus": "yes", "highway": "bus_stop", "name": "Ullerup, Aabenraavej", "network": "Sydtrafik", "network:wikidata": "Q12338112", "public_transport": "platform", "route_ref": "112"}}, {"type": "node", "id": 10220317414, "lat": 55.1973637, "lon": 9.6024058, "tags": {"bus": "yes", "highway": "bus_stop", "network": "Sydtrafik", "network:wikidata": "Q12338112", "operator": "sydtrafik", "public_transport": "platform"}}, {"type": "node", "id": 10220317415, "lat": 55.1973558, "lon": 9.6025415, "tags": {"bus": "yes", "highway": "bus_stop", "network": "Sydtrafik", "network:wikidata": "Q12338112", "operator": "sydtrafik", "public_transport": "platform"}}, {"type": "node", "id": 10739938654, "lat": 55.3288062, "lon": 10.0594428, "tags": {"bus": "yes", "highway": "bus_stop", "name": "\u00d8rsted K\u00f8bmand", "network": "FynBus", "network:wikidata": "Q12313224", "public_transport": "platform", "ref": "8620", "shelter": "no"}}, {"type": "node", "id": 10816551024, "lat": 55.3213848, "lon": 9.9395957, "tags": {"bus": "yes", "highway": "bus_stop", "network": "FynBus", "network:wikidata": "Q12313224", "public_transport": "platform"}}, {"type": "node", "id": 10845425361, "lat": 55.132991, "lon": 9.4385916, "tags": {"bus": "yes", "highway": "bus_stop", "public_transport": "platform"}}, {"type": "node", "id": 10845425362, "lat": 55.1343081, "lon": 9.4383006, "tags": {"bus": "yes", "highway": "bus_stop", "public_transport": "platform"}}, {"type": "node", "id": 11042964071, "lat": 54.9215239, "lon": 9.9899009, "tags": {"bus": "yes", "highway": "bus_stop", "network": "Sydtrafik", "network:wikidata": "Q12338112", "public_transport": "platform", "shelter": "yes"}}, {"type": "node", "id": 11617060387, "lat": 54.9362819, "lon": 9.4510124, "tags": {"bench": "no", "bin": "no", "bus": "yes", "highway": "bus_stop", "name": "Flensborg Landevej v S\u00f8g\u00e5rdhus", "network": "Sydtrafik", "network:wikidata": "Q12338112", "public_transport": "platform", "route_ref": "220", "shelter": "no", "tactile_paving": "no"}}, {"type": "node", "id": 11617060399, "lat": 54.9364632, "lon": 9.4512821, "tags": {"bus": "yes", "highway": "bus_stop", "name": "Flensborg Landevej v S\u00f8g\u00e5rdhus", "network": "Sydtrafik", "network:wikidata": "Q12338112", "public_transport": "platform", "route_ref": "220"}}, {"type": "node", "id": 11860386246, "lat": 55.2603947, "lon": 9.4934916, "tags": {"bus": "yes", "highway": "bus_stop", "network": "Sydtrafik", "network:wikidata": "Q12338112", "public_transport": "platform"}}, {"type": "node", "id": 11860389525, "lat": 55.260355, "lon": 9.4693695, "tags": {"bus": "yes", "highway": "bus_stop", "network": "Sydtrafik", "network:wikidata": "Q12338112", "public_transport": "platform", "shelter": "yes"}}, {"type": "node", "id": 11860389526, "lat": 55.2603653, "lon": 9.4689849, "tags": {"bus": "yes", "highway": "bus_stop", "network": "Sydtrafik", "network:wikidata": "Q12338112", "public_transport": "platform", "shelter": "no"}}, {"type": "node", "id": 12095764032, "lat": 54.95001, "lon": 9.6971958, "tags": {"bench": "yes", "bin": "yes", "bus": "yes", "departures_board": "timetable", "highway": "bus_stop", "lit": "no", "name": "Vester Sottrup, H\u00f8jlund", "network": "Sydtrafik", "network:wikidata": "Q12338112", "public_transport": "platform", "route_ref": "112", "shelter": "yes", "tactile_paving": "no"}}, {"type": "node", "id": 12096586413, "lat": 54.9592378, "lon": 9.9155554, "tags": {"bus": "yes", "highway": "bus_stop", "public_transport": "platform"}}, {"type": "node", "id": 12096609107, "lat": 54.9597013, "lon": 9.9161522, "tags": {"bus": "yes", "highway": "bus_stop", "public_transport": "platform"}}, {"type": "node", "id": 12098576781, "lat": 54.9193618, "lon": 9.5946512, "tags": {"bus": "yes", "highway": "bus_stop", "name": "Gr\u00e5sten St.", "network": "Sydtrafik", "network:wikidata": "Q12338112", "public_transport": "platform", "route_ref": "110;223"}}, {"type": "node", "id": 12098576784, "lat": 54.9198959, "lon": 9.6815511, "tags": {"bus": "yes", "highway": "bus_stop", "name": "Nyb\u00f8l, Amtsvejen v kirken", "network": "Sydtrafik", "network:wikidata": "Q12338112", "public_transport": "platform", "route_ref": "110", "shelter": "no"}}, {"type": "node", "id": 12098576785, "lat": 54.9199535, "lon": 9.6816219, "tags": {"bench": "yes", "bin": "yes", "bus": "yes", "highway": "bus_stop", "lit": "yes", "name": "Nyb\u00f8l, Amtsvejen v kirken", "network": "Sydtrafik", "network:wikidata": "Q12338112", "public_transport": "platform", "route_ref": "110", "shelter": "yes", "tactile_paving": "no"}}, {"type": "node", "id": 12098576787, "lat": 54.9215269, "lon": 9.7834474, "tags": {"bench": "yes", "bin": "no", "bus": "yes", "highway": "bus_stop", "name": "Vestermark v Bosager", "network": "Sydtrafik", "network:wikidata": "Q12338112", "public_transport": "platform", "route_ref": "110;112;113;223", "shelter": "yes"}}, {"type": "node", "id": 12098576788, "lat": 54.922681, "lon": 9.7832362, "tags": {"bench": "yes", "bin": "yes", "bus": "yes", "highway": "bus_stop", "lit": "yes", "name": "Vestermark v N\u00f8rrekobbel", "network": "Sydtrafik", "network:wikidata": "Q12338112", "public_transport": "platform", "route_ref": "110;112;113;223", "shelter": "yes", "tactile_paving": "no"}}, {"type": "node", "id": 12098576790, "lat": 54.9162449, "lon": 9.7882032, "tags": {"bench": "yes", "bus": "yes", "highway": "bus_stop", "name": "Arnkilgade v sygehuset", "network": "Sydtrafik", "network:wikidata": "Q12338112", "public_transport": "platform", "shelter": "yes"}}, {"type": "node", "id": 12098836809, "lat": 54.9236272, "lon": 9.4466375, "tags": {"bus": "yes", "highway": "bus_stop", "name": "Lundtoft, Flensborg Landevej", "network": "Sydtrafik", "network:wikidata": "Q12338112", "public_transport": "platform", "route_ref": "220"}}, {"type": "node", "id": 12098836810, "lat": 54.9243421, "lon": 9.4466106, "tags": {"bus": "yes", "highway": "bus_stop", "name": "Lundtoft, Flensborg Landevej", "network": "Sydtrafik", "network:wikidata": "Q12338112", "public_transport": "platform", "route_ref": "220"}}, {"type": "node", "id": 12098836815, "lat": 54.9288909, "lon": 9.4482428, "tags": {"bench": "yes", "bus": "yes", "highway": "bus_stop", "name": "S\u00f8g\u00e5rd, Ringvej", "network": "Sydtrafik", "network:wikidata": "Q12338112", "public_transport": "platform", "route_ref": "220", "shelter": "yes"}}, {"type": "node", "id": 12098836816, "lat": 54.9299467, "lon": 9.4489922, "tags": {"bench": "yes", "bus": "yes", "highway": "bus_stop", "name": "S\u00f8g\u00e5rd, Ringvej", "network": "Sydtrafik", "network:wikidata": "Q12338112", "public_transport": "platform", "route_ref": "220", "shelter": "yes"}}, {"type": "node", "id": 12098836821, "lat": 54.9420247, "lon": 9.4522766, "tags": {"bus": "yes", "highway": "bus_stop", "name": "Flensborg Landevej v S\u00f8g\u00e5rd Kaserne", "network": "Sydtrafik", "network:wikidata": "Q12338112", "public_transport": "platform", "route_ref": "220"}}, {"type": "node", "id": 12098836822, "lat": 54.9422906, "lon": 9.4524117, "tags": {"bus": "yes", "highway": "bus_stop", "name": "Flensborg Landevej v S\u00f8g\u00e5rd Kaserne", "network": "Sydtrafik", "network:wikidata": "Q12338112", "public_transport": "platform", "route_ref": "220"}}, {"type": "node", "id": 12098836825, "lat": 54.9549462, "lon": 9.4493456, "tags": {"bus": "yes", "highway": "bus_stop", "name": "Flensborg Landevej v Drejbjergvej", "network": "Sydtrafik", "network:wikidata": "Q12338112", "public_transport": "platform", "route_ref": "220"}}, {"type": "node", "id": 12098836826, "lat": 54.9549449, "lon": 9.4491704, "tags": {"bus": "yes", "highway": "bus_stop", "name": "Flensborg Landevej v Drejbjergvej", "network": "Sydtrafik", "network:wikidata": "Q12338112", "public_transport": "platform"}}, {"type": "node", "id": 12098836828, "lat": 54.9858668, "lon": 9.4464473, "tags": {"bench": "yes", "bus": "yes", "highway": "bus_stop", "name": "S\u00f8nder Hostrup, Flensborgvej", "network": "Sydtrafik", "network:wikidata": "Q12338112", "public_transport": "platform", "shelter": "yes"}}, {"type": "node", "id": 12098836829, "lat": 54.9858644, "lon": 9.4461737, "tags": {"bus": "yes", "highway": "bus_stop", "name": "S\u00f8nder Hostrup, Flensborgvej", "network": "Sydtrafik", "network:wikidata": "Q12338112", "public_transport": "platform", "route_ref": "220"}}, {"type": "node", "id": 12098836830, "lat": 54.987106, "lon": 9.444845, "tags": {"bus": "yes", "highway": "bus_stop", "name": "S\u00f8nder Hostrup, Stubb\u00e6kvej", "network": "Sydtrafik", "network:wikidata": "Q12338112", "public_transport": "platform", "route_ref": "220"}}, {"type": "node", "id": 12098836833, "lat": 54.9984201, "lon": 9.4332432, "tags": {"bus": "yes", "highway": "bus_stop", "name": "Stubb\u00e6k", "network": "Sydtrafik", "network:wikidata": "Q12338112", "public_transport": "platform", "route_ref": "220"}}, {"type": "node", "id": 12098836834, "lat": 54.9981367, "lon": 9.4335623, "tags": {"bus": "yes", "highway": "bus_stop", "name": "Stubb\u00e6k", "network": "Sydtrafik", "network:wikidata": "Q12338112", "public_transport": "platform", "route_ref": "220"}}, {"type": "node", "id": 12098836836, "lat": 55.0055846, "lon": 9.4422905, "tags": {"bus": "yes", "highway": "bus_stop", "name": "Lundsbjerg, Flensborgvej", "network": "Sydtrafik", "network:wikidata": "Q12338112", "public_transport": "platform", "route_ref": "112;220", "shelter": "yes"}}, {"type": "node", "id": 12098836837, "lat": 55.0055714, "lon": 9.4419719, "tags": {"bus": "yes", "highway": "bus_stop", "name": "Lundsbjerg, Flensborgvej", "network": "Sydtrafik", "network:wikidata": "Q12338112", "public_transport": "platform", "route_ref": "112;220"}}, {"type": "node", "id": 12098836841, "lat": 55.0295849, "lon": 9.4212377, "tags": {"bus": "yes", "highway": "bus_stop", "name": "Flensborgvej v Kallemosen", "network": "Sydtrafik", "network:wikidata": "Q12338112", "public_transport": "platform", "route_ref": "112;220"}}, {"type": "node", "id": 12098836842, "lat": 55.030361, "lon": 9.4212933, "tags": {"bus": "yes", "highway": "bus_stop", "name": "Flensborgvej v Kallemosen", "network": "Sydtrafik", "network:wikidata": "Q12338112", "public_transport": "platform", "route_ref": "112;220", "shelter": "no"}}, {"type": "node", "id": 12098836847, "lat": 55.0448035, "lon": 9.4225403, "tags": {"bus": "yes", "highway": "bus_stop", "name": "Aabenraa Busstation", "network": "Sydtrafik", "network:wikidata": "Q12338112", "public_transport": "platform", "route_ref": "1;2;3;4;5;112;220"}}, {"type": "node", "id": 12120435550, "lat": 54.9516743, "lon": 9.7070983, "tags": {"bus": "yes", "highway": "bus_stop", "name": "Vester Sottrup, Aabenraavej", "network": "Sydtrafik", "network:wikidata": "Q12338112", "public_transport": "platform", "route_ref": "112"}}, {"type": "node", "id": 12120435552, "lat": 54.9537688, "lon": 9.6982384, "tags": {"bus": "yes", "highway": "bus_stop", "name": "Vester Sottrup, H\u00f8jlund nord", "network": "Sydtrafik", "network:wikidata": "Q12338112", "public_transport": "platform", "route_ref": "112"}}, {"type": "node", "id": 12120435554, "lat": 54.9958891, "lon": 9.582098, "tags": {"bus": "yes", "highway": "bus_stop", "name": "Bovrup Storegade", "network": "Sydtrafik", "network:wikidata": "Q12338112", "public_transport": "platform", "route_ref": "112"}}, {"type": "node", "id": 12120435555, "lat": 54.9957283, "lon": 9.5826506, "tags": {"bus": "yes", "highway": "bus_stop", "name": "Bovrup Storegade", "network": "Sydtrafik", "network:wikidata": "Q12338112", "public_transport": "platform", "route_ref": "112"}}, {"type": "node", "id": 12120435558, "lat": 54.9924441, "lon": 9.553241, "tags": {"bus": "yes", "highway": "bus_stop", "name": "Svejrup", "network": "Sydtrafik", "network:wikidata": "Q12338112", "public_transport": "platform", "route_ref": "112"}}, {"type": "node", "id": 12120435559, "lat": 54.9923264, "lon": 9.5532984, "tags": {"bus": "yes", "highway": "bus_stop", "name": "Svejrup", "network": "Sydtrafik", "network:wikidata": "Q12338112", "public_transport": "platform", "route_ref": "112"}}, {"type": "node", "id": 12120435561, "lat": 54.9848647, "lon": 9.527575, "tags": {"bus": "yes", "highway": "bus_stop", "name": "S\u00f8nderborgvej v Slyngstenvej", "network": "Sydtrafik", "network:wikidata": "Q12338112", "public_transport": "platform", "route_ref": "112"}}, {"type": "node", "id": 12120435562, "lat": 54.9847539, "lon": 9.527697, "tags": {"bus": "yes", "highway": "bus_stop", "name": "S\u00f8nderborgvej v Slyngstenvej", "network": "Sydtrafik", "network:wikidata": "Q12338112", "public_transport": "platform", "route_ref": "112"}}, {"type": "node", "id": 12120435564, "lat": 54.9795743, "lon": 9.5099992, "tags": {"bus": "yes", "highway": "bus_stop", "name": "Felsted, M\u00f8gelmosevej v Havretoften", "network": "Sydtrafik", "network:wikidata": "Q12338112", "public_transport": "platform", "route_ref": "112"}}, {"type": "node", "id": 12120435565, "lat": 54.9795297, "lon": 9.510781, "tags": {"bus": "yes", "highway": "bus_stop", "name": "Felsted, M\u00f8gelmosevej v Havretoften", "network": "Sydtrafik", "network:wikidata": "Q12338112", "public_transport": "platform", "route_ref": "112"}}, {"type": "node", "id": 12120435566, "lat": 54.9795343, "lon": 9.4993783, "tags": {"bus": "yes", "highway": "bus_stop", "name": "Felsted, M\u00f8gelmosevej", "network": "Sydtrafik", "network:wikidata": "Q12338112", "public_transport": "platform", "route_ref": "112"}}, {"type": "node", "id": 12120435567, "lat": 54.9788519, "lon": 9.49958, "tags": {"bus": "yes", "highway": "bus_stop", "name": "Felsted, M\u00f8gelmosevej", "network": "Sydtrafik", "network:wikidata": "Q12338112", "public_transport": "platform", "route_ref": "112"}}, {"type": "node", "id": 12120435570, "lat": 55.0378011, "lon": 9.4217139, "tags": {"bus": "yes", "highway": "bus_stop", "name": "Kystvej", "network": "Sydtrafik", "network:wikidata": "Q12338112", "public_transport": "platform", "route_ref": "4;112", "shelter": "no"}}, {"type": "node", "id": 12120807238, "lat": 55.0496556, "lon": 9.4212186, "tags": {"bus": "yes", "highway": "bus_stop", "name": "Haderslevvej v Karpedam", "network": "Sydtrafik", "network:wikidata": "Q12338112", "public_transport": "platform", "route_ref": "1;3;123"}}, {"type": "node", "id": 12120807239, "lat": 55.0499252, "lon": 9.421153, "tags": {"bus": "yes", "highway": "bus_stop", "name": "Haderslevvej v Karpedam", "network": "Sydtrafik", "network:wikidata": "Q12338112", "public_transport": "platform", "route_ref": "1;3;123"}}, {"type": "node", "id": 12120807243, "lat": 55.0525846, "lon": 9.4234767, "tags": {"bus": "yes", "highway": "bus_stop", "name": "Camma Larsen-Ledets Vej v Frydendal", "network": "Sydtrafik", "network:wikidata": "Q12338112", "public_transport": "platform", "route_ref": "1"}}, {"type": "node", "id": 12120807244, "lat": 55.0524937, "lon": 9.4224851, "tags": {"bus": "yes", "highway": "bus_stop", "name": "Camma Larsen-Ledets Vej v Frydendal", "network": "Sydtrafik", "network:wikidata": "Q12338112", "public_transport": "platform", "route_ref": "1"}}, {"type": "node", "id": 12120807246, "lat": 55.0590677, "lon": 9.4084365, "tags": {"bus": "yes", "highway": "bus_stop", "name": "Damms Teglg\u00e5rd v N\u00f8rreskovparken", "network": "Sydtrafik", "network:wikidata": "Q12338112", "public_transport": "platform", "route_ref": "1"}}, {"type": "node", "id": 12120807249, "lat": 55.0581636, "lon": 9.4049858, "tags": {"bus": "yes", "highway": "bus_stop", "name": "H\u00f8rg\u00e5rd syd", "network": "Sydtrafik", "network:wikidata": "Q12338112", "public_transport": "platform", "route_ref": "1"}}, {"type": "node", "id": 12120807250, "lat": 55.0573612, "lon": 9.4086079, "tags": {"bus": "yes", "highway": "bus_stop", "name": "Damms Teglg\u00e5rd v Bjergholt", "network": "Sydtrafik", "network:wikidata": "Q12338112", "public_transport": "platform", "route_ref": "1"}}, {"type": "node", "id": 12120807253, "lat": 55.0601925, "lon": 9.4047522, "tags": {"bus": "yes", "highway": "bus_stop", "name": "H\u00f8rg\u00e5rd nord", "network": "Sydtrafik", "network:wikidata": "Q12338112", "public_transport": "platform", "route_ref": "1"}}, {"type": "node", "id": 12120807257, "lat": 55.0630829, "lon": 9.3833524, "tags": {"bus": "yes", "highway": "bus_stop", "name": "Gammel Ribevej v Kresten Philipsens Vej", "network": "Sydtrafik", "network:wikidata": "Q12338112", "network:wikipedia": "da:Sydtrafik", "operator": "sydtrafik", "public_transport": "platform", "route_ref": "1"}}, {"type": "node", "id": 12120807258, "lat": 55.0635258, "lon": 9.3819904, "tags": {"bus": "yes", "highway": "bus_stop", "name": "Kresten Philipsens Vej v Gammel Ribevej", "network": "Sydtrafik", "network:wikidata": "Q12338112", "network:wikipedia": "da:Sydtrafik", "operator": "sydtrafik", "public_transport": "platform", "route_ref": "1"}}, {"type": "node", "id": 12120807261, "lat": 55.0664739, "lon": 9.3748336, "tags": {"bus": "yes", "highway": "bus_stop", "name": "Erik Jessens Vej v Askelund", "network": "Sydtrafik", "network:wikidata": "Q12338112", "network:wikipedia": "da:Sydtrafik", "operator": "sydtrafik", "public_transport": "platform", "route_ref": "1"}}, {"type": "node", "id": 12120807262, "lat": 55.0663925, "lon": 9.3750281, "tags": {"bus": "yes", "highway": "bus_stop", "name": "Erik Jessens Vej v Askelund", "network": "Sydtrafik", "network:wikidata": "Q12338112", "network:wikipedia": "da:Sydtrafik", "operator": "sydtrafik", "public_transport": "platform", "route_ref": "1"}}, {"type": "node", "id": 12120807264, "lat": 55.0652357, "lon": 9.3716732, "tags": {"bus": "yes", "highway": "bus_stop", "name": "Erik Jessens Vej v Egelund", "network": "Sydtrafik", "network:wikidata": "Q12338112", "network:wikipedia": "da:Sydtrafik", "operator": "sydtrafik", "public_transport": "platform", "route_ref": "1"}}, {"type": "node", "id": 12120807265, "lat": 55.0654022, "lon": 9.3722952, "tags": {"bus": "yes", "highway": "bus_stop", "name": "Erik Jessens Vej v Egelund", "network": "Sydtrafik", "network:wikidata": "Q12338112", "network:wikipedia": "da:Sydtrafik", "operator": "sydtrafik", "public_transport": "platform", "route_ref": "1"}}, {"type": "node", "id": 12120807267, "lat": 55.0657385, "lon": 9.3656033, "tags": {"bus": "yes", "highway": "bus_stop", "name": "Egevej v L\u00f8gumklostervej", "network": "Sydtrafik", "network:wikidata": "Q12338112", "network:wikipedia": "da:Sydtrafik", "operator": "sydtrafik", "public_transport": "platform", "route_ref": "1"}}, {"type": "node", "id": 12120807268, "lat": 55.0657965, "lon": 9.3654847, "tags": {"bus": "yes", "highway": "bus_stop", "name": "Egevej v L\u00f8gumklostervej", "network": "Sydtrafik", "network:wikidata": "Q12338112", "network:wikipedia": "da:Sydtrafik", "operator": "sydtrafik", "public_transport": "platform", "route_ref": "1"}}, {"type": "node", "id": 12120807271, "lat": 55.073537, "lon": 9.3273881, "tags": {"bus": "yes", "highway": "bus_stop", "name": "R\u00f8dekro, Vestergade v Hellevadvej", "network": "Sydtrafik", "network:wikidata": "Q12338112", "network:wikipedia": "da:Sydtrafik", "operator": "sydtrafik", "public_transport": "platform", "route_ref": "1;124"}}, {"type": "node", "id": 12120807272, "lat": 55.0734664, "lon": 9.3273553, "tags": {"bus": "yes", "highway": "bus_stop", "name": "R\u00f8dekro, Vestergade v Hellevadvej", "network": "Sydtrafik", "network:wikidata": "Q12338112", "network:wikipedia": "da:Sydtrafik", "operator": "sydtrafik", "public_transport": "platform", "route_ref": "1;124"}}, {"type": "node", "id": 12120807274, "lat": 55.0725892, "lon": 9.3306385, "tags": {"bus": "yes", "highway": "bus_stop", "name": "R\u00f8dekro, Vestergade", "network": "Sydtrafik", "network:wikidata": "Q12338112", "network:wikipedia": "da:Sydtrafik", "operator": "sydtrafik", "public_transport": "platform", "route_ref": "1;124"}}, {"type": "node", "id": 12120807275, "lat": 55.0722946, "lon": 9.3312655, "tags": {"bus": "yes", "highway": "bus_stop", "name": "R\u00f8dekro, Vestergade", "network": "Sydtrafik", "network:wikidata": "Q12338112", "network:wikipedia": "da:Sydtrafik", "operator": "sydtrafik", "public_transport": "platform", "route_ref": "1;124"}}, {"type": "node", "id": 12120807278, "lat": 55.0694474, "lon": 9.3334831, "tags": {"bus": "yes", "highway": "bus_stop", "name": "R\u00f8dekro St.", "network": "Sydtrafik", "network:wikidata": "Q12338112", "network:wikipedia": "da:Sydtrafik", "operator": "sydtrafik", "public_transport": "platform", "route_ref": "1;2;124;129"}}, {"type": "node", "id": 12120807280, "lat": 55.0649272, "lon": 9.3345968, "tags": {"bus": "yes", "highway": "bus_stop", "name": "H\u00e6rvejen v Kirseb\u00e6rparken", "network": "Sydtrafik", "network:wikidata": "Q12338112", "network:wikipedia": "da:Sydtrafik", "operator": "sydtrafik", "public_transport": "platform", "route_ref": "1"}}, {"type": "node", "id": 12120807281, "lat": 55.0649225, "lon": 9.334828, "tags": {"bus": "yes", "highway": "bus_stop", "name": "H\u00e6rvejen v Kirseb\u00e6rparken", "network": "Sydtrafik", "network:wikidata": "Q12338112", "network:wikipedia": "da:Sydtrafik", "operator": "sydtrafik", "public_transport": "platform", "route_ref": "1"}}, {"type": "node", "id": 12120807283, "lat": 55.0603714, "lon": 9.3330467, "tags": {"bus": "yes", "highway": "bus_stop", "name": "H\u00e6rvejen v Ringvej", "network": "Sydtrafik", "network:wikidata": "Q12338112", "network:wikipedia": "da:Sydtrafik", "operator": "sydtrafik", "public_transport": "platform", "route_ref": "1"}}, {"type": "node", "id": 12120807284, "lat": 55.060368, "lon": 9.333199, "tags": {"bus": "yes", "highway": "bus_stop", "name": "H\u00e6rvejen v Ringvej", "network": "Sydtrafik", "network:wikidata": "Q12338112", "network:wikipedia": "da:Sydtrafik", "operator": "sydtrafik", "public_transport": "platform", "route_ref": "1"}}, {"type": "node", "id": 12120807285, "lat": 55.0552173, "lon": 9.3391707, "tags": {"bus": "yes", "highway": "bus_stop", "name": "Rise Bygade v plejehjemmet", "network": "Sydtrafik", "network:wikidata": "Q12338112", "network:wikipedia": "da:Sydtrafik", "operator": "Sydtrafik", "public_transport": "platform", "route_ref": "1", "shelter": "yes"}}, {"type": "node", "id": 12128361121, "lat": 55.0500114, "lon": 9.4166481, "tags": {"bus": "yes", "highway": "bus_stop", "name": "L\u00f8gumklostervej v Lille Bjerggade", "network": "Sydtrafik", "network:wikidata": "Q12338112", "public_transport": "platform", "route_ref": "2;123;124;129"}}, {"type": "node", "id": 12128361122, "lat": 55.0500758, "lon": 9.4155441, "tags": {"bus": "yes", "highway": "bus_stop", "name": "L\u00f8gumklostervej v Lille Bjerggade", "network": "Sydtrafik", "network:wikidata": "Q12338112", "public_transport": "platform", "route_ref": "2;123;124;129"}}, {"type": "node", "id": 12128361127, "lat": 55.0547169, "lon": 9.3892961, "tags": {"bus": "yes", "highway": "bus_stop", "name": "L\u00f8gumklostervej v M\u00f8llepold", "network": "Sydtrafik", "network:wikidata": "Q12338112", "network:wikipedia": "da:Sydtrafik", "operator": "sydtrafik", "public_transport": "platform", "route_ref": "2;124;129"}}, {"type": "node", "id": 12128361128, "lat": 55.054989, "lon": 9.3875791, "tags": {"bus": "yes", "highway": "bus_stop", "name": "L\u00f8gumklostervej v M\u00f8llepold", "network": "Sydtrafik", "network:wikidata": "Q12338112", "network:wikipedia": "da:Sydtrafik", "operator": "sydtrafik", "public_transport": "platform", "route_ref": "2;124;129"}}, {"type": "node", "id": 12128361131, "lat": 55.0616886, "lon": 9.3692936, "tags": {"bus": "yes", "highway": "bus_stop", "name": "L\u00f8gumklostervej v Erik Jessens Vej", "network": "Sydtrafik", "network:wikidata": "Q12338112", "network:wikipedia": "da:Sydtrafik", "operator": "sydtrafik", "public_transport": "platform", "route_ref": "2;124;129"}}, {"type": "node", "id": 12128361132, "lat": 55.0627147, "lon": 9.3680195, "tags": {"bus": "yes", "highway": "bus_stop", "name": "L\u00f8gumklostervej v Erik Jessens Vej", "network": "Sydtrafik", "network:wikidata": "Q12338112", "network:wikipedia": "da:Sydtrafik", "operator": "sydtrafik", "public_transport": "platform", "route_ref": "2;124;129"}}, {"type": "node", "id": 12128361133, "lat": 55.0489183, "lon": 9.4183841, "tags": {"bus": "yes", "highway": "bus_stop", "name": "Jernbanegade", "network": "Sydtrafik", "network:wikidata": "Q12338112", "public_transport": "platform", "route_ref": "2"}}, {"type": "node", "id": 12128361134, "lat": 55.049123, "lon": 9.4178773, "tags": {"bus": "yes", "highway": "bus_stop", "name": "Jernbanegade", "network": "Sydtrafik", "network:wikidata": "Q12338112", "public_transport": "platform", "route_ref": "2"}}, {"type": "node", "id": 12128361136, "lat": 55.0483881, "lon": 9.4112335, "tags": {"bus": "yes", "highway": "bus_stop", "name": "Langrode v Gr\u00f8nneg\u00e5rden", "network": "Sydtrafik", "network:wikidata": "Q12338112", "public_transport": "platform", "route_ref": "2"}}, {"type": "node", "id": 12128361137, "lat": 55.0482902, "lon": 9.4111811, "tags": {"bus": "yes", "highway": "bus_stop", "name": "Langrode v Gr\u00f8nneg\u00e5rden", "network": "Sydtrafik", "network:wikidata": "Q12338112", "public_transport": "platform", "route_ref": "2"}}, {"type": "node", "id": 12128361139, "lat": 55.0499204, "lon": 9.405267, "tags": {"bus": "yes", "highway": "bus_stop", "name": "Langrode v Vestvejen", "network": "Sydtrafik", "network:wikidata": "Q12338112", "public_transport": "platform", "route_ref": "2"}}, {"type": "node", "id": 12128361140, "lat": 55.0496918, "lon": 9.4056553, "tags": {"bus": "yes", "highway": "bus_stop", "name": "Langrode v Vestvejen", "network": "Sydtrafik", "network:wikidata": "Q12338112", "public_transport": "platform", "route_ref": "2"}}, {"type": "node", "id": 12128361142, "lat": 55.0518784, "lon": 9.402687, "tags": {"bus": "yes", "highway": "bus_stop", "name": "Vestvejen v Vestermarksvej", "network": "Sydtrafik", "network:wikidata": "Q12338112", "public_transport": "platform", "route_ref": "2"}}, {"type": "node", "id": 12128361143, "lat": 55.0518895, "lon": 9.4028728, "tags": {"bus": "yes", "highway": "bus_stop", "name": "Vestvejen v Vestermarksvej", "network": "Sydtrafik", "network:wikidata": "Q12338112", "public_transport": "platform", "route_ref": "2"}}, {"type": "node", "id": 12128361145, "lat": 55.068664, "lon": 9.3519049, "tags": {"bus": "yes", "highway": "bus_stop", "name": "Ringvej v \u00d8stergade", "network": "Sydtrafik", "network:wikidata": "Q12338112", "network:wikipedia": "da:Sydtrafik", "operator": "sydtrafik", "public_transport": "platform", "route_ref": "2;124;129"}}, {"type": "node", "id": 12128361146, "lat": 55.0686285, "lon": 9.3520553, "tags": {"bus": "yes", "highway": "bus_stop", "name": "Ringvej v \u00d8stergade", "network": "Sydtrafik", "network:wikidata": "Q12338112", "network:wikipedia": "da:Sydtrafik", "operator": "sydtrafik", "public_transport": "platform", "route_ref": "2;124;129"}}, {"type": "node", "id": 12128361148, "lat": 55.0696451, "lon": 9.3509304, "tags": {"bus": "yes", "highway": "bus_stop", "name": "\u00d8stergade v Ringvej", "network": "Sydtrafik", "network:wikidata": "Q12338112", "network:wikipedia": "da:Sydtrafik", "operator": "sydtrafik", "public_transport": "platform", "route_ref": "2;124;129"}}, {"type": "node", "id": 12128361149, "lat": 55.0695481, "lon": 9.3508472, "tags": {"bus": "yes", "highway": "bus_stop", "name": "\u00d8stergade v Ringvej", "network": "Sydtrafik", "network:wikidata": "Q12338112", "network:wikipedia": "da:Sydtrafik", "operator": "sydtrafik", "public_transport": "platform", "route_ref": "2;124;129"}}, {"type": "node", "id": 12128361151, "lat": 55.0693488, "lon": 9.3461697, "tags": {"bus": "yes", "highway": "bus_stop", "name": "R\u00f8dekro, Industrivej v \u00d8stergade", "network": "Sydtrafik", "network:wikidata": "Q12338112", "network:wikipedia": "da:Sydtrafik", "operator": "sydtrafik", "public_transport": "platform", "route_ref": "2;124;129"}}, {"type": "node", "id": 12128361152, "lat": 55.0693503, "lon": 9.3463333, "tags": {"bus": "yes", "highway": "bus_stop", "name": "R\u00f8dekro, Industrivej v \u00d8stergade", "network": "Sydtrafik", "network:wikidata": "Q12338112", "network:wikipedia": "da:Sydtrafik", "operator": "sydtrafik", "public_transport": "platform", "route_ref": "2;124;129"}}, {"type": "node", "id": 12128361154, "lat": 55.0667828, "lon": 9.3440119, "tags": {"bus": "yes", "highway": "bus_stop", "name": "Jyllandsgade v Brunde Kirkevej", "network": "Sydtrafik", "network:wikidata": "Q12338112", "network:wikipedia": "da:Sydtrafik", "operator": "sydtrafik", "public_transport": "platform", "route_ref": "2;124;129"}}, {"type": "node", "id": 12128361155, "lat": 55.0666957, "lon": 9.3440208, "tags": {"bus": "yes", "highway": "bus_stop", "name": "Jyllandsgade v Brunde Kirkevej", "network": "Sydtrafik", "network:wikidata": "Q12338112", "network:wikipedia": "da:Sydtrafik", "operator": "sydtrafik", "public_transport": "platform", "route_ref": "2;124;129"}}, {"type": "node", "id": 12128361157, "lat": 55.0661776, "lon": 9.3359252, "tags": {"bus": "yes", "highway": "bus_stop", "name": "Jyllandsgade", "network": "Sydtrafik", "network:wikidata": "Q12338112", "network:wikipedia": "da:Sydtrafik", "operator": "sydtrafik", "public_transport": "platform", "route_ref": "2;124;129"}}, {"type": "node", "id": 12128361158, "lat": 55.0660907, "lon": 9.3359287, "tags": {"bus": "yes", "highway": "bus_stop", "name": "Jyllandsgade", "network": "Sydtrafik", "network:wikidata": "Q12338112", "network:wikipedia": "da:Sydtrafik", "operator": "sydtrafik", "public_transport": "platform", "route_ref": "2;124;129"}}, {"type": "node", "id": 12132470924, "lat": 55.0532456, "lon": 9.4249363, "tags": {"bus": "yes", "highway": "bus_stop", "name": "Haderslevvej v N\u00f8rrevang", "network": "Sydtrafik", "network:wikidata": "Q12338112", "public_transport": "platform", "route_ref": "3;123"}}, {"type": "node", "id": 12132470926, "lat": 55.0539156, "lon": 9.4259503, "tags": {"bus": "yes", "highway": "bus_stop", "name": "Haderslevvej v N\u00f8rrevang", "network": "Sydtrafik", "network:wikidata": "Q12338112", "public_transport": "platform", "route_ref": "3;123"}}, {"type": "node", "id": 12132470928, "lat": 55.0563721, "lon": 9.4284272, "tags": {"bus": "yes", "highway": "bus_stop", "name": "Haderslevvej v Lindbjerg (Aabenraa)", "network": "Sydtrafik", "network:wikidata": "Q12338112", "public_transport": "platform", "route_ref": "3;123"}}, {"type": "node", "id": 12132470929, "lat": 55.0588048, "lon": 9.431186, "tags": {"bus": "yes", "highway": "bus_stop", "name": "Haderslevvej v Gamle Kongevej (Aabenraa)", "network": "Sydtrafik", "network:wikidata": "Q12338112", "public_transport": "platform", "route_ref": "3;123"}}, {"type": "node", "id": 12132470932, "lat": 55.0593926, "lon": 9.4321852, "tags": {"bus": "yes", "highway": "bus_stop", "name": "Haderslevvej v Gamle Kongevej (Aabenraa)", "network": "Sydtrafik", "network:wikidata": "Q12338112", "public_transport": "platform", "route_ref": "3;123"}}, {"type": "node", "id": 12132470933, "lat": 55.0679335, "lon": 9.4327099, "tags": {"bus": "yes", "highway": "bus_stop", "network": "Sydtrafik", "network:wikidata": "Q12338112", "public_transport": "platform"}}, {"type": "node", "id": 12132470936, "lat": 55.0642466, "lon": 9.4558641, "tags": {"bus": "yes", "highway": "bus_stop", "name": "Stollig", "network": "Sydtrafik", "network:wikidata": "Q12338112", "public_transport": "platform"}}, {"type": "node", "id": 12132470937, "lat": 55.0641843, "lon": 9.4559181, "tags": {"bus": "yes", "highway": "bus_stop", "name": "Stollig", "network": "Sydtrafik", "network:wikidata": "Q12338112", "public_transport": "platform", "route_ref": "3"}}, {"type": "node", "id": 12132470939, "lat": 55.0663781, "lon": 9.4630898, "tags": {"bus": "yes", "highway": "bus_stop", "name": "Stollig, Kongensgade", "network": "Sydtrafik", "network:wikidata": "Q12338112", "public_transport": "platform", "route_ref": "3"}}, {"type": "node", "id": 12132470941, "lat": 55.0697627, "lon": 9.4743141, "tags": {"bus": "yes", "highway": "bus_stop", "name": "L\u00f8jt Skovby", "network": "Sydtrafik", "network:wikidata": "Q12338112", "public_transport": "platform", "route_ref": "3"}}, {"type": "node", "id": 12132470942, "lat": 55.0698633, "lon": 9.4743717, "tags": {"bus": "yes", "highway": "bus_stop", "name": "L\u00f8jt Skovby", "network": "Sydtrafik", "network:wikidata": "Q12338112", "public_transport": "platform"}}, {"type": "node", "id": 12132470944, "lat": 55.0737225, "lon": 9.5004485, "tags": {"bus": "yes", "highway": "bus_stop", "name": "Skrevenstenvej v L\u00f8jt S\u00f8nderskovvej", "network": "Sydtrafik", "network:wikidata": "Q12338112", "public_transport": "platform", "route_ref": "3"}}, {"type": "node", "id": 12132470946, "lat": 55.0833066, "lon": 9.5167389, "tags": {"bus": "yes", "highway": "bus_stop", "name": "Barsmark Bygade v Skrevenstenvej", "network": "Sydtrafik", "network:wikidata": "Q12338112", "public_transport": "platform", "route_ref": "3"}}, {"type": "node", "id": 12132470947, "lat": 55.0865296, "lon": 9.5120389, "tags": {"bus": "yes", "highway": "bus_stop", "name": "Barsmark Bygade v Jakobsg\u00e5rdforte", "network": "Sydtrafik", "network:wikidata": "Q12338112", "public_transport": "platform", "route_ref": "3"}}, {"type": "node", "id": 12132470950, "lat": 55.0876903, "lon": 9.5071765, "tags": {"bus": "yes", "highway": "bus_stop", "name": "Barsmark Bygade 139", "network": "Sydtrafik", "network:wikidata": "Q12338112", "public_transport": "platform", "route_ref": "3"}}, {"type": "node", "id": 12132470952, "lat": 55.0889553, "lon": 9.495827, "tags": {"bus": "yes", "highway": "bus_stop", "name": "Barsmark Bygade 93", "network": "Sydtrafik", "network:wikidata": "Q12338112", "public_transport": "platform", "route_ref": "3"}}, {"type": "node", "id": 12132470953, "lat": 55.0917418, "lon": 9.4713996, "tags": {"bus": "yes", "highway": "bus_stop", "name": "L\u00f8jt N\u00f8rregade", "network": "Sydtrafik", "network:wikidata": "Q12338112", "public_transport": "platform", "route_ref": "3"}}, {"type": "node", "id": 12132470954, "lat": 55.0918073, "lon": 9.4644498, "tags": {"bus": "yes", "highway": "bus_stop", "name": "L\u00f8jt Forsamlingshus", "network": "Sydtrafik", "network:wikidata": "Q12338112", "public_transport": "platform", "route_ref": "3"}}, {"type": "node", "id": 12132470955, "lat": 55.0916716, "lon": 9.4640816, "tags": {"bus": "yes", "highway": "bus_stop", "name": "L\u00f8jt Forsamlingshus", "network": "Sydtrafik", "network:wikidata": "Q12338112", "public_transport": "platform"}}, {"type": "node", "id": 12132470958, "lat": 55.0885732, "lon": 9.4595466, "tags": {"bus": "yes", "highway": "bus_stop", "name": "L\u00f8jt Storegade v skolen", "network": "Sydtrafik", "network:wikidata": "Q12338112", "public_transport": "platform", "route_ref": "3;123"}}, {"type": "node", "id": 12132470959, "lat": 55.0884615, "lon": 9.4596462, "tags": {"bus": "yes", "highway": "bus_stop", "name": "L\u00f8jt Storegade v skolen", "network": "Sydtrafik", "network:wikidata": "Q12338112", "public_transport": "platform", "route_ref": "123"}}, {"type": "node", "id": 12132470961, "lat": 55.0862481, "lon": 9.4551112, "tags": {"bus": "yes", "highway": "bus_stop", "name": "Bodumvej v Lykkevej", "network": "Sydtrafik", "network:wikidata": "Q12338112", "public_transport": "platform", "route_ref": "3;123"}}, {"type": "node", "id": 12132470962, "lat": 55.0862084, "lon": 9.4552267, "tags": {"bus": "yes", "highway": "bus_stop", "name": "Bodumvej v Lykkevej", "network": "Sydtrafik", "network:wikidata": "Q12338112", "public_transport": "platform", "route_ref": "123"}}, {"type": "node", "id": 12132470964, "lat": 55.0809548, "lon": 9.4314595, "tags": {"bus": "yes", "highway": "bus_stop", "name": "Haderslevvej v Bodumvej", "network": "Sydtrafik", "network:wikidata": "Q12338112", "public_transport": "platform", "route_ref": "3;123"}}, {"type": "node", "id": 12132470966, "lat": 55.0813527, "lon": 9.4327441, "tags": {"bus": "yes", "highway": "bus_stop", "name": "Bodumvej v Haderslevvej", "network": "Sydtrafik", "network:wikidata": "Q12338112", "public_transport": "platform", "route_ref": "123"}}, {"type": "node", "id": 12133964142, "lat": 55.0348656, "lon": 9.4175191, "tags": {"bus": "yes", "highway": "bus_stop", "name": "T\u00f8ndervej v Stegholt", "network": "Sydtrafik", "network:wikidata": "Q12338112", "network:wikipedia": "da:Sydtrafik", "public_transport": "platform", "route_ref": "4;116;678"}}, {"type": "node", "id": 12133964145, "lat": 55.0349233, "lon": 9.4161598, "tags": {"bus": "yes", "highway": "bus_stop", "name": "T\u00f8ndervej v Stegholt", "network": "Sydtrafik", "network:wikidata": "Q12338112", "network:wikipedia": "da:Sydtrafik", "public_transport": "platform", "route_ref": "116;678"}}, {"type": "node", "id": 12133964147, "lat": 55.0326189, "lon": 9.417484, "tags": {"bus": "yes", "highway": "bus_stop", "name": "Stegholt v EUC", "network": "Sydtrafik", "network:wikidata": "Q12338112", "network:wikipedia": "da:Sydtrafik", "public_transport": "platform", "route_ref": "4"}}, {"type": "node", "id": 12133964148, "lat": 55.0328053, "lon": 9.4175978, "tags": {"bus": "yes", "highway": "bus_stop", "name": "Stegholt v EUC", "network": "Sydtrafik", "network:wikidata": "Q12338112", "network:wikipedia": "da:Sydtrafik", "public_transport": "platform", "route_ref": "4"}}, {"type": "node", "id": 12133964150, "lat": 55.0297415, "lon": 9.4190327, "tags": {"bus": "yes", "highway": "bus_stop", "name": "Stegholt v Kallemosen", "network": "Sydtrafik", "network:wikidata": "Q12338112", "network:wikipedia": "da:Sydtrafik", "public_transport": "platform", "route_ref": "4"}}, {"type": "node", "id": 12133964152, "lat": 55.0296017, "lon": 9.4147367, "tags": {"bus": "yes", "highway": "bus_stop", "name": "Kallemosen v Ellemosen", "network": "Sydtrafik", "network:wikidata": "Q12338112", "network:wikipedia": "da:Sydtrafik", "public_transport": "platform", "route_ref": "4"}}, {"type": "node", "id": 12133964153, "lat": 55.0294992, "lon": 9.4146936, "tags": {"bus": "yes", "highway": "bus_stop", "name": "Kallemosen v Ellemosen", "network": "Sydtrafik", "network:wikidata": "Q12338112", "network:wikipedia": "da:Sydtrafik", "public_transport": "platform", "route_ref": "4"}}, {"type": "node", "id": 12133964155, "lat": 55.0297425, "lon": 9.4117791, "tags": {"bus": "yes", "highway": "bus_stop", "name": "Kallemosen v Kirseb\u00e6rhaven", "network": "Sydtrafik", "network:wikidata": "Q12338112", "network:wikipedia": "da:Sydtrafik", "public_transport": "platform", "route_ref": "4"}}, {"type": "node", "id": 12133964156, "lat": 55.029608, "lon": 9.4117896, "tags": {"bus": "yes", "highway": "bus_stop", "name": "Kallemosen v Kirseb\u00e6rhaven", "network": "Sydtrafik", "network:wikidata": "Q12338112", "network:wikipedia": "da:Sydtrafik", "public_transport": "platform", "route_ref": "4"}}, {"type": "node", "id": 12133964158, "lat": 55.0249212, "lon": 9.4155904, "tags": {"bus": "yes", "highway": "bus_stop", "name": "S\u00f8nderskovvej v Posek\u00e6rvej", "network": "Sydtrafik", "network:wikidata": "Q12338112", "network:wikipedia": "da:Sydtrafik", "public_transport": "platform", "route_ref": "4"}}, {"type": "node", "id": 12133964160, "lat": 55.0254441, "lon": 9.4198715, "tags": {"bus": "yes", "highway": "bus_stop", "name": "Posek\u00e6rvej", "network": "Sydtrafik", "network:wikidata": "Q12338112", "network:wikipedia": "da:Sydtrafik", "public_transport": "platform", "route_ref": "4"}}, {"type": "node", "id": 12133964162, "lat": 55.0232723, "lon": 9.4203673, "tags": {"bus": "yes", "highway": "bus_stop", "name": "Skelb\u00e6kvej v r\u00e5dhuset", "network": "Sydtrafik", "network:wikidata": "Q12338112", "network:wikipedia": "da:Sydtrafik", "public_transport": "platform", "route_ref": "4"}}, {"type": "node", "id": 12133964164, "lat": 55.022118, "lon": 9.4189673, "tags": {"bus": "yes", "highway": "bus_stop", "name": "Rugkobbel v Peberlyk", "network": "Sydtrafik", "network:wikidata": "Q12338112", "network:wikipedia": "da:Sydtrafik", "public_transport": "platform", "route_ref": "4"}}, {"type": "node", "id": 12134037831, "lat": 55.0397785, "lon": 9.4193784, "tags": {"bus": "yes", "highway": "bus_stop", "name": "M\u00f8llem\u00e6rsk v S\u00f8nderport", "network": "Sydtrafik", "network:wikidata": "Q12338112", "public_transport": "platform", "route_ref": "5"}}, {"type": "node", "id": 12134037832, "lat": 55.0396594, "lon": 9.419376, "tags": {"bus": "yes", "highway": "bus_stop", "name": "M\u00f8llem\u00e6rsk v S\u00f8nderport", "network": "Sydtrafik", "network:wikidata": "Q12338112", "public_transport": "platform", "route_ref": "5"}}, {"type": "node", "id": 12134037834, "lat": 55.0407164, "lon": 9.4145526, "tags": {"bus": "yes", "highway": "bus_stop", "name": "M\u00f8llem\u00e6rsk v Dronning Margrethes Vej", "network": "Sydtrafik", "network:wikidata": "Q12338112", "public_transport": "platform", "route_ref": "5"}}, {"type": "node", "id": 12134037835, "lat": 55.0406187, "lon": 9.4144615, "tags": {"bus": "yes", "highway": "bus_stop", "name": "M\u00f8llem\u00e6rsk v Dronning Margrethes Vej", "network": "Sydtrafik", "network:wikidata": "Q12338112", "public_transport": "platform", "route_ref": "5"}}, {"type": "node", "id": 12134037837, "lat": 55.0389008, "lon": 9.4125722, "tags": {"bus": "yes", "highway": "bus_stop", "name": "Dronning Margrethes Vej v Hjelmall\u00e9", "network": "Sydtrafik", "network:wikidata": "Q12338112", "public_transport": "platform"}}, {"type": "node", "id": 12134037838, "lat": 55.0389342, "lon": 9.412383, "tags": {"bus": "yes", "highway": "bus_stop", "name": "Dronning Margrethes Vej v Hjelmall\u00e9", "network": "Sydtrafik", "network:wikidata": "Q12338112", "public_transport": "platform", "route_ref": "5"}}, {"type": "node", "id": 12134037840, "lat": 55.0349731, "lon": 9.4096666, "tags": {"bus": "yes", "highway": "bus_stop", "name": "Dronning Margrethes Vej v T\u00f8ndervej", "network": "Sydtrafik", "network:wikidata": "Q12338112", "public_transport": "platform", "route_ref": "5"}}, {"type": "node", "id": 12134037842, "lat": 55.0393699, "lon": 9.4106013, "tags": {"bus": "yes", "highway": "bus_stop", "name": "Hjelmall\u00e9 v sv\u00f8mmehallen", "network": "Sydtrafik", "network:wikidata": "Q12338112", "public_transport": "platform", "route_ref": "5"}}, {"type": "node", "id": 12134037844, "lat": 55.0382769, "lon": 9.4067267, "tags": {"bus": "yes", "highway": "bus_stop", "name": "Vestvejen v Hjelmall\u00e9", "network": "Sydtrafik", "network:wikidata": "Q12338112", "public_transport": "platform", "route_ref": "5"}}, {"type": "node", "id": 12134037845, "lat": 55.0381524, "lon": 9.4065068, "tags": {"bus": "yes", "highway": "bus_stop", "name": "Vestvejen v Hjelmall\u00e9", "network": "Sydtrafik", "network:wikidata": "Q12338112", "public_transport": "platform"}}, {"type": "node", "id": 12134037847, "lat": 55.0363407, "lon": 9.4070662, "tags": {"bus": "yes", "highway": "bus_stop", "name": "Vestvejen v Stadion", "network": "Sydtrafik", "network:wikidata": "Q12338112", "public_transport": "platform"}}, {"type": "node", "id": 12134037848, "lat": 55.036602, "lon": 9.4072138, "tags": {"bus": "yes", "highway": "bus_stop", "name": "Vestvejen v Stadion", "network": "Sydtrafik", "network:wikidata": "Q12338112", "public_transport": "platform", "route_ref": "5"}}, {"type": "node", "id": 12134037849, "lat": 55.0341337, "lon": 9.4050884, "tags": {"bus": "yes", "highway": "bus_stop", "name": "T\u00f8ndervej v Farversm\u00f8llevej", "network": "Sydtrafik", "network:wikidata": "Q12338112", "public_transport": "platform", "route_ref": "5;116;678"}}, {"type": "node", "id": 12134037850, "lat": 55.0339417, "lon": 9.4051256, "tags": {"bus": "yes", "highway": "bus_stop", "name": "T\u00f8ndervej v Farversm\u00f8llevej", "network": "Sydtrafik", "network:wikidata": "Q12338112", "public_transport": "platform", "route_ref": "5;116;678"}}, {"type": "node", "id": 12134037852, "lat": 55.0341008, "lon": 9.4011559, "tags": {"bus": "yes", "highway": "bus_stop", "name": "T\u00f8ndervej v Hjelmg\u00e5rden", "network": "Sydtrafik", "network:wikidata": "Q12338112", "public_transport": "platform", "route_ref": "5;116;678"}}, {"type": "node", "id": 12134037853, "lat": 55.0342235, "lon": 9.4009587, "tags": {"bus": "yes", "highway": "bus_stop", "name": "T\u00f8ndervej v Hjelmg\u00e5rden", "network": "Sydtrafik", "network:wikidata": "Q12338112", "public_transport": "platform", "route_ref": "5;116;678"}}, {"type": "node", "id": 12134037855, "lat": 55.0341416, "lon": 9.3965869, "tags": {"bus": "yes", "highway": "bus_stop", "name": "T\u00f8ndervej v Fladholm", "network": "Sydtrafik", "network:wikidata": "Q12338112", "public_transport": "platform", "route_ref": "5;116;678"}}, {"type": "node", "id": 12134037857, "lat": 55.0340935, "lon": 9.3938522, "tags": {"bus": "yes", "highway": "bus_stop", "name": "T\u00f8ndervej v Granholm", "network": "Sydtrafik", "network:wikidata": "Q12338112", "public_transport": "platform", "route_ref": "5;116;678"}}, {"type": "node", "id": 12134037860, "lat": 55.0339825, "lon": 9.391202, "tags": {"bus": "yes", "highway": "bus_stop", "name": "T\u00f8ndervej v Bag Hjelm", "network": "Sydtrafik", "network:wikidata": "Q12338112", "public_transport": "platform", "route_ref": "5;116;678"}}, {"type": "node", "id": 12134037861, "lat": 55.0338057, "lon": 9.390443, "tags": {"bus": "yes", "highway": "bus_stop", "name": "T\u00f8ndervej v Bag Hjelm", "network": "Sydtrafik", "network:wikidata": "Q12338112", "public_transport": "platform", "route_ref": "5;116;678"}}, {"type": "node", "id": 12134037862, "lat": 55.0335425, "lon": 9.3856336, "tags": {"bus": "yes", "highway": "bus_stop", "name": "T\u00f8ndervej v Hesseldam", "network": "Sydtrafik", "network:wikidata": "Q12338112", "public_transport": "platform", "route_ref": "5;116;678"}}, {"type": "node", "id": 12134037863, "lat": 55.0335553, "lon": 9.3863288, "tags": {"bus": "yes", "highway": "bus_stop", "name": "T\u00f8ndervej v Hesseldam", "network": "Sydtrafik", "network:wikidata": "Q12338112", "public_transport": "platform", "route_ref": "5;116;678"}}, {"type": "node", "id": 12134037871, "lat": 55.0326599, "lon": 9.3835892, "tags": {"bus": "yes", "highway": "bus_stop", "name": "T\u00f8ndervej v Farverhus", "network": "Sydtrafik", "network:wikidata": "Q12338112", "public_transport": "platform", "route_ref": "5"}}, {"type": "node", "id": 12463216754, "lat": 54.9636306, "lon": 9.7688557, "tags": {"bench": "no", "bin": "no", "bus": "yes", "highway": "bus_stop", "lit": "no", "name": "Arnkil", "network": "Sydtrafik", "network:wikidata": "Q12338112", "operator": "Sydtrafik", "public_transport": "platform", "shelter": "yes"}}, {"type": "node", "id": 12463216755, "lat": 54.9587902, "lon": 9.7690998, "tags": {"bus": "yes", "highway": "bus_stop", "name": "Skovhuse", "network": "Sydtrafik", "network:wikidata": "Q12338112", "operator": "Sydtrafik", "public_transport": "platform", "source": "https://sydtrafik.dk/koreplaner-trafikinfo/koreplaner-i-din-kommune/koreplaner-i-sonderborg-kommune/"}}, {"type": "node", "id": 12463216756, "lat": 54.9468624, "lon": 9.7757412, "tags": {"bus": "yes", "highway": "bus_stop", "name": "Hestehave v Arnkilsmaj", "network": "Sydtrafik", "network:wikidata": "Q12338112", "operator": "Sydtrafik", "public_transport": "platform", "source": "https://sydtrafik.dk/koreplaner-trafikinfo/koreplaner-i-din-kommune/koreplaner-i-sonderborg-kommune/"}}, {"type": "node", "id": 12463216757, "lat": 54.9376186, "lon": 9.789853, "tags": {"bench": "no", "bin": "no", "bus": "yes", "highway": "bus_stop", "lit": "no", "name": "K\u00e6r Bygade v Tomb\u00f8lg\u00e5rdvej", "network": "Sydtrafik", "network:wikidata": "Q12338112", "operator": "Sydtrafik", "public_transport": "platform", "shelter": "yes"}}, {"type": "node", "id": 12463216758, "lat": 54.936697, "lon": 9.7994695, "tags": {"bench": "no", "bin": "no", "bus": "yes", "highway": "bus_stop", "lit": "no", "name": "K\u00e6r Bygade v Ormstoft", "network": "Sydtrafik", "network:wikidata": "Q12338112", "operator": "Sydtrafik", "public_transport": "platform", "shelter": "yes"}}, {"type": "node", "id": 12463216759, "lat": 54.9374015, "lon": 9.8110989, "tags": {"bus": "yes", "highway": "bus_stop", "name": "N\u00f8rremark v Ormstoft", "public_transport": "platform", "source": "https://sydtrafik.dk/koreplaner-trafikinfo/koreplaner-i-din-kommune/koreplaner-i-sonderborg-kommune/"}}, {"type": "node", "id": 12463216760, "lat": 54.9373307, "lon": 9.8112151, "tags": {"bus": "yes", "highway": "bus_stop", "name": "N\u00f8rremark v K\u00e6r Bygade", "public_transport": "platform", "source": "https://sydtrafik.dk/koreplaner-trafikinfo/koreplaner-i-din-kommune/koreplaner-i-sonderborg-kommune/"}}, {"type": "node", "id": 12463216761, "lat": 54.9601484, "lon": 9.7849926, "tags": {"bus": "yes", "highway": "bus_stop", "name": "N\u00f8rremark v S\u00f8nderborg Lufthavn", "network": "Sydtrafik", "network:wikidata": "Q12338112", "operator": "Sydtrafik", "public_transport": "platform"}}, {"type": "node", "id": 12463216762, "lat": 54.9602142, "lon": 9.7850138, "tags": {"bus": "yes", "highway": "bus_stop", "name": "N\u00f8rremark v S\u00f8nderborg Lufthavn", "network": "Sydtrafik", "network:wikidata": "Q12338112", "operator": "Sydtrafik", "public_transport": "platform"}}, {"type": "node", "id": 12552161238, "lat": 54.995266, "lon": 9.8578711, "tags": {"bus": "yes", "highway": "bus_stop", "public_transport": "platform"}}, {"type": "node", "id": 12730709313, "lat": 55.0553155, "lon": 9.3389821, "tags": {"bus": "yes", "highway": "bus_stop", "name": "Rise Bygade v plejehjemmet", "network": "Sydtrafik", "network:wikidata": "Q12338112", "network:wikipedia": "da:Sydtrafik", "operator": "Sydtrafik", "public_transport": "platform", "shelter": "yes"}}, {"type": "node", "id": 12877462382, "lat": 55.2702349, "lon": 9.8901866, "tags": {"bench": "yes", "bus": "yes", "highway": "bus_stop", "name": "B\u00e5g\u00f8f\u00e6rgen", "public_transport": "platform"}}, {"type": "way", "id": 116837888, "nodes": [1316238140, 1316238139, 2324179947, 1316238145, 1316238146, 1316238144, 1316238140], "tags": {"area": "yes", "bench": "yes", "bin": "yes", "lit": "yes", "name": "Vojens", "public_transport": "platform", "railway": "platform", "ref": "2; 3", "shelter": "yes", "tactile_paving": "no", "train": "yes"}}, {"type": "way", "id": 188034508, "nodes": [1986559386, 4993313123, 1986559442, 1986559432, 1986559359, 1738040416, 1986559386], "tags": {"area": "yes", "covered": "yes", "public_transport": "platform", "railway": "platform", "ref": "1", "train": "yes"}}, {"type": "way", "id": 223134450, "nodes": [2320674240, 2320674211], "tags": {"public_transport": "platform", "railway": "platform", "train": "yes"}}, {"type": "way", "id": 223134451, "nodes": [2320674215, 2320674244], "tags": {"public_transport": "platform", "railway": "platform", "train": "yes"}}, {"type": "way", "id": 229145721, "nodes": [2377765236, 2377765233, 2377765230], "tags": {"public_transport": "platform", "railway": "platform", "train": "yes"}}, {"type": "way", "id": 319184644, "nodes": [3255946904, 3255946905, 3255946906], "tags": {"bench": "yes", "bin": "yes", "lit": "yes", "public_transport": "platform", "railway": "platform", "shelter": "yes", "tactile_paving": "no", "train": "yes"}}, {"type": "way", "id": 374073870, "nodes": [3774819593, 3774819603, 3774819607], "tags": {"railway": "platform_edge", "ref": "2"}}, {"type": "way", "id": 374073871, "nodes": [3774819596, 3774819595, 4266815717, 3774819601, 3774819605, 3774819606, 3774819602, 3774819596], "tags": {"area": "yes", "bench": "yes", "bin": "no", "lit": "yes", "public_transport": "platform", "railway": "platform", "ref": "1", "shelter": "no", "surface": "paved", "tactile_paving": "no", "train": "yes"}}, {"type": "way", "id": 436138791, "nodes": [4340181049, 4340181042], "tags": {"public_transport": "platform"}}, {"type": "way", "id": 452932544, "nodes": [4497445674, 4497445673], "tags": {"public_transport": "platform"}}, {"type": "way", "id": 452932545, "nodes": [4497445676, 4497445675], "tags": {"public_transport": "platform"}}, {"type": "way", "id": 594317405, "nodes": [5667484098, 5667484097], "tags": {"public_transport": "platform", "railway": "platform"}}, {"type": "way", "id": 617788543, "nodes": [5839665908, 5839663232, 5839669128, 5839673460, 5839665908], "tags": {"building": "hut"}}, {"type": "way", "id": 617790689, "nodes": [5839661976, 5839660089, 5839664594, 5839670159, 5839661976], "tags": {"building": "hut"}}, {"type": "way", "id": 775907448, "nodes": [7238474533, 7238473972, 7238471700, 7238471121, 7238474533], "tags": {"building": "yes", "covered": "yes", "public_transport": "platform"}}, {"type": "way", "id": 833202574, "nodes": [7778059779, 7778059778], "tags": {"bench": "no", "bin": "no", "lit": "yes", "name": "Haderslev Busstation (14)", "public_transport": "platform", "shelter": "yes", "tactile_paving": "no"}}, {"type": "way", "id": 833202575, "nodes": [7778059781, 7778059780], "tags": {"bench": "no", "bin": "no", "lit": "yes", "name": "Haderslev Busstation (13)", "public_transport": "platform", "route_ref": "Flixbus 627, 636", "shelter": "no", "tactile_paving": "no"}}, {"type": "way", "id": 833202576, "nodes": [7778059783, 7778059782], "tags": {"bench": "no", "bin": "no", "lit": "yes", "name": "Haderslev Busstation (12)", "public_transport": "platform", "shelter": "no", "tactile_paving": "no"}}, {"type": "way", "id": 833202577, "nodes": [7778082385, 7778059784], "tags": {"bench": "no", "bin": "no", "lit": "yes", "name": "Haderslev Busstation (11)", "public_transport": "platform", "shelter": "no", "tactile_paving": "no"}}, {"type": "way", "id": 833202578, "nodes": [7778082387, 7778082386], "tags": {"bench": "no", "bin": "no", "lit": "yes", "name": "Haderslev Busstation (10)", "public_transport": "platform", "shelter": "no", "tactile_paving": "no"}}, {"type": "way", "id": 833202579, "nodes": [7778082389, 7778082388], "tags": {"bench": "no", "bin": "no", "lit": "yes", "name": "Haderslev Busstation (9)", "public_transport": "platform", "shelter": "no", "tactile_paving": "no"}}, {"type": "way", "id": 833202580, "nodes": [7778082391, 7778082390], "tags": {"bench": "no", "bin": "no", "lit": "yes", "name": "Haderslev Busstation (8)", "public_transport": "platform", "shelter": "no", "tactile_paving": "no"}}, {"type": "way", "id": 833202581, "nodes": [7778082393, 7778082392], "tags": {"bench": "no", "bin": "no", "lit": "yes", "name": "Haderslev Busstation (7)", "public_transport": "platform", "shelter": "no", "tactile_paving": "no"}}, {"type": "way", "id": 833202582, "nodes": [7778082395, 7778082394], "tags": {"bench": "no", "bin": "no", "lit": "yes", "name": "Haderslev Busstation (6)", "public_transport": "platform", "shelter": "no", "tactile_paving": "no"}}, {"type": "way", "id": 833202583, "nodes": [7778082397, 7778082396], "tags": {"bench": "no", "bin": "no", "lit": "yes", "name": "Haderslev Busstation (5)", "public_transport": "platform", "shelter": "no", "tactile_paving": "no"}}, {"type": "way", "id": 833202584, "nodes": [7778082399, 7778082398], "tags": {"bench": "no", "bin": "no", "lit": "yes", "name": "Haderslev Busstation (4)", "public_transport": "platform", "shelter": "no", "tactile_paving": "no"}}, {"type": "way", "id": 833202585, "nodes": [7778082401, 7778082400], "tags": {"bench": "no", "bin": "no", "lit": "yes", "name": "Haderslev Busstation (3)", "public_transport": "platform", "shelter": "no", "tactile_paving": "no"}}, {"type": "way", "id": 833202586, "nodes": [7778082404, 7778082403, 7778082402], "tags": {"bench": "no", "bin": "no", "lit": "yes", "name": "Haderslev Busstation (2)", "public_transport": "platform", "shelter": "no", "tactile_paving": "no"}}, {"type": "way", "id": 833202587, "nodes": [7778082406, 7778082405], "tags": {"bench": "no", "bin": "yes", "lit": "yes", "name": "Haderslev Busstation (1)", "public_transport": "platform", "shelter": "no", "tactile_paving": "no"}}, {"type": "way", "id": 846252024, "nodes": [3774819594, 3774819593]}, {"type": "way", "id": 846252025, "nodes": [3774819608, 3774819594], "tags": {"railway": "platform_edge", "ref": "3"}}, {"type": "way", "id": 846252026, "nodes": [3774819607, 3774819608]}, {"type": "relation", "id": 11605663, "members": [{"type": "way", "ref": 374073870, "role": "outer"}, {"type": "way", "ref": 846252026, "role": "outer"}, {"type": "way", "ref": 846252025, "role": "outer"}, {"type": "way", "ref": 846252024, "role": "outer"}, {"type": "way", "ref": 617788543, "role": "inner"}, {"type": "way", "ref": 617790689, "role": "inner"}], "tags": {"bench": "yes", "bin": "yes", "lit": "yes", "public_transport": "platform", "railway": "platform", "ref": "2;3", "shelter": "yes", "surface": "paved", "tactile_paving": "no", "train": "yes", "type": "multipolygon"}}]}