{"version": 0.6, "generator": "Overpass API 0.7.62.7 375dc00a", "osm3s": {"timestamp_osm_base": "2025-07-16T17:49:40Z", "copyright": "The data included in this document is from www.openstreetmap.org. The data is made available under ODbL."}, "elements": [{"type": "node", "id": 490822114, "lat": 55.0100366, "lon": 14.9918526, "tags": {"bench": "yes", "bus": "yes", "highway": "bus_stop", "name": "\u00d8stre S\u00f8marken", "operator": "BAT", "public_transport": "platform", "shelter": "yes", "wheelchair": "no"}}, {"type": "node", "id": 490822317, "lat": 55.0092642, "lon": 14.9926371, "tags": {"bench": "yes", "bus": "yes", "highway": "bus_stop", "name": "\u00d8stre S\u00f8marken", "operator": "BAT", "public_transport": "platform", "shelter": "yes", "wheelchair": "no"}}, {"type": "node", "id": 792653018, "lat": 54.9935299, "lon": 15.0781951, "tags": {"bench": "yes", "bin": "yes", "bus": "yes", "covered": "no", "highway": "bus_stop", "lit": "no", "name": "Dueodde", "operator": "BAT", "public_transport": "platform", "shelter": "yes", "tactile_paving": "no", "wheelchair": "no"}}, {"type": "node", "id": 1761689831, "lat": 55.1756475, "lon": 14.9573367, "tags": {"bench": "yes", "bin": "yes", "covered": "no", "highway": "bus_stop", "lit": "no", "name": "Middelaldercentret", "network": "BAT", "operator": "BAT", "public_transport": "platform", "tactile_paving": "no", "website": "https://www.bat.dk/"}}, {"type": "node", "id": 1761690018, "lat": 55.1766492, "lon": 14.9571114, "tags": {"bench": "yes", "bin": "yes", "covered": "no", "highway": "bus_stop", "lit": "no", "name": "Middelaldercentret", "network": "BAT", "operator": "BAT", "public_transport": "platform", "tactile_paving": "no", "website": "https://www.bat.dk/"}}, {"type": "node", "id": 1814833852, "lat": 55.1361053, "lon": 15.1411236, "tags": {"bench": "yes", "bin": "yes", "bus": "yes", "covered": "no", "highway": "bus_stop", "lit": "yes", "name": "Svaneke Torv", "network": "BAT, 3,7", "operator": "BAT", "public_transport": "platform", "shelter": "no", "tactile_paving": "no", "website": "https://www.bat.dk/"}}, {"type": "node", "id": 1904344408, "lat": 55.140482, "lon": 15.0126804, "tags": {"bench": "no", "bin": "no", "bus": "yes", "highway": "bus_stop", "name": "\u00d8stermarie - Godth\u00e5bsvej", "network": "BAT", "operator": "BAT", "public_transport": "platform", "shelter": "no", "tactile_paving": "no", "website": "https://www.bat.dk/"}}, {"type": "node", "id": 1904344825, "lat": 55.1390909, "lon": 15.0156384, "tags": {"bench": "no", "bus": "yes", "highway": "bus_stop", "name": "\u00d8stermarie v/ kirken", "network": "BAT", "network:wikidata": "Q97577976", "operator": "BAT", "public_transport": "platform", "shelter": "no", "website": "https://www.bat.dk/"}}, {"type": "node", "id": 1904345116, "lat": 55.1385405, "lon": 15.0163521, "tags": {"bench": "no", "bin": "no", "bus": "yes", "highway": "bus_stop", "name": "\u00d8stermarie v/ kirken", "network": "BAT", "network:wikidata": "Q97577976", "operator": "BAT", "public_transport": "platform", "shelter": "no", "website": "https://www.bat.dk/"}}, {"type": "node", "id": 1904347503, "lat": 55.1387812, "lon": 15.0082408, "tags": {"bench": "yes", "bin": "yes", "bus": "yes", "check_date:shelter": "2022-08-23", "highway": "bus_stop", "lit": "no", "name": "\u00d8stermarie v/ skolen", "network": "BAT", "operator": "BAT", "public_transport": "platform", "shelter": "yes", "tactile_paving": "no", "website": "https://www.bat.dk/"}}, {"type": "node", "id": 1904347528, "lat": 55.1387214, "lon": 15.0090964, "tags": {"bench": "no", "bin": "no", "bus": "yes", "check_date:shelter": "2023-10-11", "highway": "bus_stop", "lit": "yes", "name": "\u00d8stermarie v/ skolen", "network": "BAT", "operator": "BAT", "public_transport": "platform", "shelter": "no", "tactile_paving": "no", "website": "https://www.bat.dk/"}}, {"type": "node", "id": 1904353102, "lat": 55.1419539, "lon": 15.0105967, "tags": {"bench": "no", "bin": "no", "bus": "yes", "highway": "bus_stop", "name": "\u00d8stermarie", "network": "BAT", "network:wikidata": "Q97577976", "operator": "BAT", "public_transport": "platform", "shelter": "no", "tactile_paving": "no", "website": "https://www.bat.dk/"}}, {"type": "node", "id": 1904481754, "lat": 55.1405419, "lon": 15.0128475, "tags": {"bench": "no", "bin": "no", "bus": "yes", "highway": "bus_stop", "local_ref": "\u00d8stermarie - Godth\u00e5bsvej", "network": "BAT", "operator": "BAT", "public_transport": "platform", "shelter": "no", "tactile_paving": "no", "website": "https://www.bat.dk/"}}, {"type": "node", "id": 1904487046, "lat": 55.1070354, "lon": 14.8212969, "tags": {"bench": "yes", "bin": "yes", "bus": "yes", "highway": "bus_stop", "lit": "yes", "name": "Vestermarie v. Brugsen", "network": "BAT", "network:wikidata": "Q97577976", "network:wikipedia": "da:BAT (Bornholms Amts Trafikselskab)", "operator": "BAT", "public_transport": "platform", "shelter": "yes", "tactile_paving": "no", "website": "https://www.bat.dk/"}}, {"type": "node", "id": 1904487138, "lat": 55.1068831, "lon": 14.8214155, "tags": {"bench": "yes", "bin": "yes", "bus": "yes", "highway": "bus_stop", "lit": "yes", "local_ref": "Vestermarie", "name": "Vestermarie v. Brugsen", "network": "BAT", "network:wikidata": "Q97577976", "network:wikipedia": "da:BAT (Bornholms Amts Trafikselskab)", "operator": "BAT", "public_transport": "platform", "shelter": "yes", "tactile_paving": "no", "website": "https://www.bat.dk/"}}, {"type": "node", "id": 2136863191, "lat": 55.1711857, "lon": 14.8015429, "tags": {"bench": "yes", "bin": "yes", "bus": "yes", "highway": "bus_stop", "name": "Klemensker Vest", "network": "BAT", "operator": "BAT", "public_transport": "platform", "shelter": "yes", "tactile_paving": "no", "website": "https://www.bat.dk/"}}, {"type": "node", "id": 2136863198, "lat": 55.1720068, "lon": 14.8018929, "tags": {"bench": "yes", "bin": "yes", "bus": "yes", "highway": "bus_stop", "name": "Klemensker Vest", "network": "BAT", "operator": "BAT", "public_transport": "platform", "shelter": "yes", "tactile_paving": "no", "website": "https://www.bat.dk/"}}, {"type": "node", "id": 2156276707, "lat": 55.0614112, "lon": 15.0708333, "tags": {"bench": "yes", "bus": "yes", "highway": "bus_stop", "name": "Bodils kirke", "network": "BAT", "operator": "BAT", "public_transport": "platform", "shelter": "yes", "website": "https://www.bat.dk/"}}, {"type": "node", "id": 2156276720, "lat": 55.0612822, "lon": 15.0712035, "tags": {"bus": "yes", "highway": "bus_stop", "name": "Bodils kirke", "network": "BAT", "operator": "BAT", "public_transport": "platform", "shelter": "yes", "website": "https://www.bat.dk/"}}, {"type": "node", "id": 2249266756, "lat": 55.0297144, "lon": 14.9925589, "tags": {"bus": "yes", "highway": "bus_stop", "name": "Pedersker", "network": "BAT", "network:wikidata": "Q97577976", "operator": "BAT", "public_transport": "platform", "website": "https://www.bat.dk/"}}, {"type": "node", "id": 2395557944, "lat": 55.0632114, "lon": 15.1186086, "tags": {"bench": "no", "bin": "no", "highway": "bus_stop", "network": "BAT", "operator": "BAT", "public_transport": "platform", "shelter": "no", "website": "https://www.bat.dk/"}}, {"type": "node", "id": 2554226961, "lat": 55.1362619, "lon": 15.1411521, "tags": {"bench": "yes", "bin": "yes", "bus": "yes", "covered": "no", "departures_board": "digital", "highway": "bus_stop", "lit": "yes", "name": "Svaneke Torv", "network": "BAT", "operator": "BAT", "public_transport": "platform", "shelter": "no", "tactile_paving": "no", "website": "https://www.bat.dk/"}}, {"type": "node", "id": 2554227145, "lat": 55.1350941, "lon": 15.1441089, "tags": {"bench": "yes", "bin": "yes", "bus": "yes", "highway": "bus_stop", "name": "Svaneke Havn", "network": "BAT3,7", "operator": "BAT", "public_transport": "platform", "shelter": "no", "tactile_paving": "no", "website": "https://www.bat.dk/"}}, {"type": "node", "id": 2554227358, "lat": 55.1349255, "lon": 15.1448492, "tags": {"bench": "no", "bin": "no", "bus": "yes", "highway": "bus_stop", "lit": "yes", "name": "Svaneke Havn", "network": "BAT", "operator": "BAT", "public_transport": "platform", "shelter": "no", "tactile_paving": "no", "website": "https://www.bat.dk/"}}, {"type": "node", "id": 3771540384, "lat": 55.0242064, "lon": 15.114325, "tags": {"bench": "yes", "bin": "yes", "bus": "yes", "highway": "bus_stop", "lit": "yes", "name": "Snogeb\u00e6k Turistvej", "network": "BAT", "network:wikidata": "Q97577976", "operator": "BAT", "public_transport": "platform", "shelter": "yes", "tactile_paving": "no", "website": "https://www.bat.dk/"}}, {"type": "node", "id": 3842841954, "lat": 55.0701377, "lon": 14.9204775, "tags": {"bench": "yes", "bin": "yes", "bus": "yes", "highway": "bus_stop", "lit": "yes", "name": "Aakirkeby Centrum", "network": "BAT", "network:wikidata": "Q97577976", "network:wikipedia": "da:BAT (Bornholms Amts Trafikselskab)", "operator": "BAT", "public_transport": "platform", "shelter": "yes", "tactile_paving": "no", "website": "https://www.bat.dk/"}}, {"type": "node", "id": 3842841955, "lat": 55.0700509, "lon": 14.9202264, "tags": {"bench": "yes", "bin": "yes", "bus": "yes", "covered": "no", "highway": "bus_stop", "lit": "yes", "name": "Aakirkeby Centrum", "network": "BAT", "network:wikidata": "Q97577976", "network:wikipedia": "da:BAT (Bornholms Amts Trafikselskab)", "operator": "BAT", "public_transport": "platform", "shelter": "yes", "tactile_paving": "no", "website": "https://www.bat.dk/"}}, {"type": "node", "id": 3842870278, "lat": 55.0230776, "lon": 15.0402517, "tags": {"bench": "yes", "bus": "yes", "covered": "no", "highway": "bus_stop", "name": "Pouls kirke", "network": "BAT", "operator": "BAT", "public_transport": "platform", "shelter": "yes", "website": "https://www.bat.dk/"}}, {"type": "node", "id": 3844226719, "lat": 55.0715755, "lon": 14.8085216, "tags": {"covered": "no", "highway": "bus_stop", "name": "Nylars", "network": "BAT", "operator": "BAT", "public_transport": "platform", "shelter": "yes", "website": "https://www.bat.dk/"}}, {"type": "node", "id": 3844226720, "lat": 55.0712807, "lon": 14.8093673, "tags": {"bench": "yes", "bin": "yes", "covered": "no", "highway": "bus_stop", "lit": "no", "name": "Nylars", "network": "BAT", "operator": "BAT", "public_transport": "platform", "shelter": "yes", "tactile_paving": "no", "website": "https://www.bat.dk/"}}, {"type": "node", "id": 3844585568, "lat": 55.1751831, "lon": 14.8045818, "tags": {"bus": "yes", "highway": "bus_stop", "name": "Klemensker", "network": "BAT", "operator": "BAT", "public_transport": "platform", "website": "https://www.bat.dk/"}}, {"type": "node", "id": 3844585569, "lat": 55.17513, "lon": 14.8055131, "tags": {"bench": "yes", "bus": "yes", "highway": "bus_stop", "name": "Klemensker", "network": "BAT", "network:wikidata": "Q97577976", "operator": "BAT", "public_transport": "platform", "shelter": "yes", "website": "https://www.bat.dk/"}}, {"type": "node", "id": 3844675870, "lat": 55.0696338, "lon": 14.7497006, "tags": {"bench": "yes", "bus": "yes", "highway": "bus_stop", "name": "Lufthavnen", "network": "BAT", "network:wikidata": "Q97577976", "operator": "BAT", "public_transport": "platform", "shelter": "yes", "website": "https://www.bat.dk/"}}, {"type": "node", "id": 3966274485, "lat": 55.1412734, "lon": 15.1293412, "tags": {"bench": "yes", "bus": "yes", "highway": "bus_stop", "name": "Svaneke - Gryneparken", "network": "BAT", "operator": "BAT", "public_transport": "platform", "shelter": "yes", "website": "https://www.bat.dk/"}}, {"type": "node", "id": 3966274487, "lat": 55.1414768, "lon": 15.1289912, "tags": {"bus": "yes", "highway": "bus_stop", "name": "Svaneke - Gryneparken", "network": "BAT", "operator": "BAT", "public_transport": "platform", "shelter": "no", "website": "https://www.bat.dk/"}}, {"type": "node", "id": 4301110144, "lat": 55.0544993, "lon": 14.7791511, "tags": {"bench": "yes", "bin": "yes", "bus": "yes", "highway": "bus_stop", "name": "Arnager", "network": "BAT", "operator": "BAT", "public_transport": "platform", "shelter": "yes", "tactile_paving": "no", "website": "https://www.bat.dk/"}}, {"type": "node", "id": 4377592301, "lat": 55.0295919, "lon": 14.9818665, "tags": {"highway": "bus_stop", "public_transport": "platform"}}, {"type": "node", "id": 4377592549, "lat": 55.0297212, "lon": 14.9816484, "tags": {"highway": "bus_stop", "public_transport": "platform"}}, {"type": "node", "id": 4377593363, "lat": 55.0268229, "lon": 14.9745331, "tags": {"highway": "bus_stop", "public_transport": "platform"}}, {"type": "node", "id": 4377593806, "lat": 55.0266188, "lon": 14.9913309, "tags": {"highway": "bus_stop", "public_transport": "platform"}}, {"type": "node", "id": 4377609135, "lat": 55.0256727, "lon": 15.1188917, "tags": {"bench": "yes", "bin": "yes", "bus": "yes", "departures_board": "timetable", "highway": "bus_stop", "name": "Snogeb\u00e6k Havn", "public_transport": "platform", "shelter": "yes", "tactile_paving": "no"}}, {"type": "node", "id": 4377880155, "lat": 55.2068296, "lon": 14.9724372, "tags": {"bus": "yes", "covered": "yes", "highway": "bus_stop", "name": "Gudhjem Museet (syd)", "public_transport": "platform", "tactile_paving": "no"}}, {"type": "node", "id": 4378910043, "lat": 55.2065683, "lon": 14.9731017, "tags": {"bus": "yes", "covered": "no", "highway": "bus_stop", "name": "Melstedvej of kirkeg\u00e5rden", "operator": "BAT", "public_transport": "platform", "tactile_paving": "no"}}, {"type": "node", "id": 4378914149, "lat": 55.2069165, "lon": 14.9720965, "tags": {"bench": "yes", "bin": "yes", "bus": "yes", "covered": "yes", "highway": "bus_stop", "name": "Gudhjem Museet (nord)", "public_transport": "platform", "shelter": "yes", "tactile_paving": "no"}}, {"type": "node", "id": 4418046687, "lat": 55.1211707, "lon": 14.8837301, "tags": {"bin": "no", "bus": "yes", "highway": "bus_stop", "name": "Segen ovf. Kongemindevejen", "network": "BAT", "network:wikidata": "Q97577976", "operator": "BAT", "public_transport": "platform", "shelter": "no", "tactile_paving": "no", "website": "https://www.bat.dk/"}}, {"type": "node", "id": 4418047600, "lat": 55.1207691, "lon": 14.8849302, "tags": {"bench": "no", "bin": "no", "bus": "yes", "highway": "bus_stop", "name": "Segenvej v. Kongemindevejen", "network": "BAT", "network:wikidata": "Q97577976", "operator": "BAT", "public_transport": "platform", "shelter": "no", "tactile_paving": "no", "website": "https://www.bat.dk/"}}, {"type": "node", "id": 5024205762, "lat": 55.0660564, "lon": 15.135223, "tags": {"bench": "yes", "bin": "yes", "bus": "yes", "covered": "yes", "highway": "bus_stop", "name": "Nex\u00f8-Nordre Strandvej", "public_transport": "platform", "shelter": "yes", "tactile_paving": "no"}}, {"type": "node", "id": 5169783188, "lat": 55.1644459, "lon": 14.9703403, "tags": {"bench": "yes", "highway": "bus_stop", "network": "BAT", "operator": "BAT", "public_transport": "platform", "shelter": "yes", "website": "https://www.bat.dk/"}}, {"type": "node", "id": 5169783189, "lat": 55.1646835, "lon": 14.968825, "tags": {"bench": "no", "bin": "no", "bus": "yes", "highway": "bus_stop", "network": "BAT", "operator": "BAT", "public_transport": "platform", "shelter": "no", "tactile_paving": "no", "website": "https://www.bat.dk/"}}, {"type": "node", "id": 5196232773, "lat": 55.1657417, "lon": 14.961014, "tags": {"highway": "bus_stop", "network": "BAT", "operator": "BAT", "public_transport": "platform", "shelter": "no", "website": "https://www.bat.dk/"}}, {"type": "node", "id": 5196232774, "lat": 55.1657897, "lon": 14.960708, "tags": {"highway": "bus_stop", "network": "BAT", "operator": "BAT", "public_transport": "platform", "website": "https://www.bat.dk/"}}, {"type": "node", "id": 5196267751, "lat": 55.1627997, "lon": 14.9554938, "tags": {"bench": "yes", "highway": "bus_stop", "name": "\u00d8sterlars V. Brommevej", "network": "BAT", "operator": "BAT", "public_transport": "platform", "shelter": "yes", "website": "https://www.bat.dk/"}}, {"type": "node", "id": 5196267752, "lat": 55.1629552, "lon": 14.9566297, "tags": {"highway": "bus_stop", "network": "BAT", "operator": "BAT", "public_transport": "platform", "website": "https://www.bat.dk/"}}, {"type": "node", "id": 5834280403, "lat": 55.1647363, "lon": 14.9645586, "tags": {"bench": "yes", "bin": "no", "bus": "yes", "check_date:bench": "2023-08-24", "covered": "no", "highway": "bus_stop", "name": "\u00d8sterlars", "network": "BAT", "network:wikidata": "Q97577976", "operator": "BAT", "public_transport": "platform", "shelter": "yes", "tactile_paving": "no", "website": "https://www.bat.dk/"}}, {"type": "node", "id": 5834280423, "lat": 55.1078588, "lon": 14.8249373, "tags": {"bench": "no", "bin": "no", "bus": "yes", "highway": "bus_stop", "name": "Skovg\u00e5rdsvejen ovf. L\u00e6rkene", "network": "BAT", "network:wikidata": "Q97577976", "network:wikipedia": "da:BAT (Bornholms Amts Trafikselskab)", "operator": "BAT", "public_transport": "platform", "shelter": "no", "tactile_paving": "no", "website": "https://www.bat.dk/"}}, {"type": "node", "id": 5834280424, "lat": 55.108097, "lon": 14.825217, "tags": {"bench": "no", "bin": "no", "bus": "yes", "highway": "bus_stop", "name": "Skovg\u00e5rdsvejen ovf. L\u00e6rkene", "network": "BAT", "network:wikidata": "Q97577976", "network:wikipedia": "da:BAT (Bornholms Amts Trafikselskab)", "operator": "BAT", "public_transport": "platform", "shelter": "no", "tactile_paving": "no", "website": "https://www.bat.dk/"}}, {"type": "node", "id": 5834280450, "lat": 55.1045591, "lon": 14.9101565, "tags": {"bench": "yes", "bin": "no", "bus": "yes", "highway": "bus_stop", "name": "Bornholms H\u00f8jskole", "network": "BAT", "operator": "BAT", "public_transport": "platform", "shelter": "yes", "tactile_paving": "no", "website": "https://www.bat.dk/"}}, {"type": "node", "id": 5834280451, "lat": 55.1200758, "lon": 14.8992044, "tags": {"bench": "no", "bin": "no", "bus": "yes", "highway": "bus_stop", "name": "Almindingen ovf. Lilleborg", "network": "BAT", "network:wikidata": "Q97577976", "operator": "BAT", "public_transport": "platform", "shelter": "no", "tactile_paving": "no", "website": "https://www.bat.dk/"}}, {"type": "node", "id": 5834280452, "lat": 55.1199838, "lon": 14.8996577, "tags": {"bench": "no", "bin": "no", "bus": "yes", "highway": "bus_stop", "name": "Almindingen v. Lilleborg", "network": "BAT", "network:wikidata": "Q97577976", "operator": "BAT", "public_transport": "platform", "shelter": "no", "tactile_paving": "no", "website": "https://www.bat.dk/"}}, {"type": "node", "id": 5834280454, "lat": 55.1214363, "lon": 14.8757055, "tags": {"bench": "no", "bin": "no", "bus": "yes", "highway": "bus_stop", "name": "Segenvej v. Flyvestationen", "network": "BAT", "network:wikidata": "Q97577976", "operator": "BAT", "public_transport": "platform", "shelter": "no", "tactile_paving": "no", "website": "https://www.bat.dk/"}}, {"type": "node", "id": 5834280455, "lat": 55.1213547, "lon": 14.8753802, "tags": {"bench": "no", "bin": "no", "bus": "yes", "highway": "bus_stop", "name": "Segen ovf. Flyvestationen", "network": "BAT", "network:wikidata": "Q97577976", "operator": "BAT", "public_transport": "platform", "shelter": "no", "tactile_paving": "no", "website": "https://www.bat.dk/"}}, {"type": "node", "id": 5834281035, "lat": 55.0719474, "lon": 14.8128989, "tags": {"bus": "yes", "highway": "bus_stop", "network": "BAT", "operator": "BAT", "public_transport": "platform", "website": "https://www.bat.dk/"}}, {"type": "node", "id": 5834281036, "lat": 55.0719654, "lon": 14.8127769, "tags": {"bus": "yes", "highway": "bus_stop", "network": "BAT", "operator": "BAT", "public_transport": "platform", "website": "https://www.bat.dk/"}}, {"type": "node", "id": 5834287298, "lat": 55.2017656, "lon": 14.9795023, "tags": {"bench": "no", "bin": "no", "bus": "yes", "highway": "bus_stop", "name": "Melsted v Melstedg\u00e5rd", "network": "BAT", "operator": "BAT", "public_transport": "platform", "shelter": "no", "tactile_paving": "no", "website": "https://www.bat.dk/"}}, {"type": "node", "id": 5834287299, "lat": 55.2029469, "lon": 14.9777046, "tags": {"bench": "no", "bin": "no", "bus": "yes", "highway": "bus_stop", "name": "Melsted of Melstedg\u00e5rd", "network": "BAT", "operator": "BAT", "public_transport": "platform", "shelter": "no", "tactile_paving": "no", "website": "https://www.bat.dk/"}}, {"type": "node", "id": 5834318647, "lat": 55.0706882, "lon": 15.1388016, "tags": {"bench": "yes", "bin": "no", "bus": "yes", "highway": "bus_stop", "name": "Nex\u00f8 v. Nes\u00f8huset", "network": "BAT", "operator": "BAT", "public_transport": "platform", "shelter": "no", "tactile_paving": "no", "website": "https://www.bat.dk/"}}, {"type": "node", "id": 5834318648, "lat": 55.0705276, "lon": 15.1388383, "tags": {"bench": "yes", "bin": "no", "bus": "yes", "highway": "bus_stop", "name": "Nex\u00f8 v. Nes\u00f8huset", "network": "BAT", "operator": "BAT", "public_transport": "platform", "shelter": "no", "tactile_paving": "no", "website": "https://www.bat.dk/"}}, {"type": "node", "id": 5834370858, "lat": 55.1401319, "lon": 15.1347533, "tags": {"bench": "yes", "bin": "no", "bus": "yes", "highway": "bus_stop", "name": "Svaneke M\u00f8llebakken", "network": "BAT", "operator": "BAT", "public_transport": "platform", "shelter": "yes", "tactile_paving": "no", "website": "https://www.bat.dk/"}}, {"type": "node", "id": 5834370859, "lat": 55.1396536, "lon": 15.1349062, "tags": {"bench": "no", "bin": "no", "bus": "yes", "highway": "bus_stop", "name": "Svaneke M\u00f8llebakken", "network": "BAT, 3", "operator": "BAT", "public_transport": "platform", "shelter": "no", "tactile_paving": "no", "website": "https://www.bat.dk/"}}, {"type": "node", "id": 5834370861, "lat": 55.0262299, "lon": 15.1118305, "tags": {"bench": "yes", "highway": "bus_stop", "network": "BAT", "operator": "BAT", "public_transport": "platform", "shelter": "yes", "tactile_paving": "no", "website": "https://www.bat.dk/"}}, {"type": "node", "id": 6171410905, "lat": 55.1240568, "lon": 14.9114712, "tags": {"bench": "no", "bus": "yes", "highway": "bus_stop", "name": "Koldekildehus - Segenvej (vest)", "network": "BAT", "network:wikidata": "Q97577976", "public_transport": "platform", "shelter": "no", "tactile_paving": "no"}}, {"type": "node", "id": 6171410906, "lat": 55.1239556, "lon": 14.9115969, "tags": {"bench": "no", "bus": "yes", "highway": "bus_stop", "name": "Koldekildehus - Segenvej (\u00f8st)", "network": "BAT", "network:wikidata": "Q97577976", "public_transport": "platform", "shelter": "no", "tactile_paving": "no"}}, {"type": "node", "id": 6171410907, "lat": 55.1248104, "lon": 14.9195365, "tags": {"bus": "yes", "highway": "bus_stop", "name": "Segenvej v. Travbanen", "network": "BAT", "network:wikidata": "Q97577976", "public_transport": "platform"}}, {"type": "node", "id": 6171410908, "lat": 55.1246795, "lon": 14.9198545, "tags": {"bus": "yes", "highway": "bus_stop", "name": "Segenvej ovf. Travbanen", "network": "BAT", "network:wikidata": "Q97577976", "public_transport": "platform"}}, {"type": "node", "id": 6233049617, "lat": 55.0695249, "lon": 14.7501363, "tags": {"bench": "yes", "bus": "yes", "highway": "bus_stop", "name": "Lufthavnen", "network": "BAT", "network:wikidata": "Q97577976", "operator": "BAT", "public_transport": "platform", "shelter": "yes", "website": "https://www.bat.dk/"}}, {"type": "node", "id": 6233049618, "lat": 55.0694271, "lon": 14.7505272, "tags": {"bench": "yes", "bus": "yes", "highway": "bus_stop", "name": "Lufthavnen", "network": "BAT", "network:wikidata": "Q97577976", "operator": "BAT", "public_transport": "platform", "shelter": "yes", "website": "https://www.bat.dk/"}}, {"type": "node", "id": 6233049620, "lat": 55.0696593, "lon": 14.7495842}, {"type": "node", "id": 6233049624, "lat": 55.0696823, "lon": 14.7494922}, {"type": "node", "id": 6233049625, "lat": 55.069597, "lon": 14.7498333}, {"type": "node", "id": 6233049626, "lat": 55.069411, "lon": 14.7505681}, {"type": "node", "id": 6718386206, "lat": 55.1546743, "lon": 15.0736893, "tags": {"bus": "yes", "highway": "bus_stop", "name": "B\u00f8lshavn of Sommervej", "network": "7", "operator": "BAT", "public_transport": "platform", "shelter": "no", "tactile_paving": "no"}}, {"type": "node", "id": 6718386208, "lat": 55.1546927, "lon": 15.0740207, "tags": {"bus": "yes", "highway": "bus_stop", "name": "B\u00f8lshavn of Sommervej", "operator": "BAT", "public_transport": "platform", "ref": "8", "shelter": "no"}}, {"type": "node", "id": 6718386209, "lat": 55.1798063, "lon": 15.0148985, "tags": {"bench": "no", "bus": "yes", "highway": "bus_stop", "network": "BAT", "network:wikidata": "Q97577976", "operator": "BAT", "public_transport": "platform"}}, {"type": "node", "id": 6718386210, "lat": 55.1532604, "lon": 15.0793927, "tags": {"bench": "no", "bus": "yes", "highway": "bus_stop", "name": "B\u00f8lshavn v. B\u00f8lshavnvej", "network": "3,7", "operator": "BAT", "public_transport": "platform", "shelter": "no"}}, {"type": "node", "id": 6718386211, "lat": 55.1753943, "lon": 15.0220534, "tags": {"bus": "yes", "highway": "bus_stop", "name": "Randkl\u00f8vevej of Hvide Hus", "network": "8", "operator": "BAT", "public_transport": "platform"}}, {"type": "node", "id": 6718386212, "lat": 55.1535417, "lon": 15.0784104, "tags": {"bench": "yes", "bus": "yes", "highway": "bus_stop", "name": "B\u00f8lshavn of B\u00f8lshavnvej", "network": "5,8", "operator": "BAT", "public_transport": "platform", "shelter": "no"}}, {"type": "node", "id": 6718386214, "lat": 55.1752551, "lon": 15.0219526, "tags": {"bus": "yes", "highway": "bus_stop", "name": "Randkl\u00f8vevej v. Hvide Hus", "network": "7", "public_transport": "platform"}}, {"type": "node", "id": 6720892223, "lat": 55.039821, "lon": 15.1069115, "tags": {"bench": "no", "bus": "yes", "highway": "bus_stop", "name": "Balka Boulevarden (nord)", "operator": "BAT", "public_transport": "platform", "shelter": "no"}}, {"type": "node", "id": 6720892224, "lat": 55.0397869, "lon": 15.1067919, "tags": {"bench": "no", "bus": "yes", "highway": "bus_stop", "name": "Balka Boulevarden (syd)", "operator": "BAT", "public_transport": "platform", "shelter": "no"}}, {"type": "node", "id": 6720971480, "lat": 55.040873, "lon": 15.1028761, "tags": {"bench": "no", "bus": "yes", "highway": "bus_stop", "name": "Balka (havside)", "public_transport": "platform", "shelter": "no", "website": "https://www.bat.dk/"}}, {"type": "node", "id": 6721006769, "lat": 55.0576745, "lon": 15.1285853, "tags": {"bench": "yes", "bus": "yes", "highway": "bus_stop", "name": "Nex\u00f8-S\u00f8bakken", "network": "BAT", "network:wikidata": "Q97577976", "network:wikipedia": "da:BAT (Bornholms Amts Trafikselskab)", "operator": "BAT", "public_transport": "platform", "shelter": "yes"}}, {"type": "node", "id": 6721006770, "lat": 55.0577298, "lon": 15.1290869, "tags": {"bench": "no", "bus": "yes", "highway": "bus_stop", "name": "Nex\u00f8-S\u00f8b\u00e6kken", "network": "BAT", "network:wikidata": "Q97577976", "network:wikipedia": "da:BAT (Bornholms Amts Trafikselskab)", "operator": "BAT", "public_transport": "platform", "shelter": "no"}}, {"type": "node", "id": 6721011313, "lat": 55.0398805, "lon": 15.1097256, "tags": {"bench": "no", "bus": "yes", "highway": "bus_stop", "name": "Balka Skansevej (Havside)", "operator": "BAT", "public_transport": "platform", "shelter": "no"}}, {"type": "node", "id": 6721011402, "lat": 55.0399463, "lon": 15.1097599, "tags": {"bench": "no", "bus": "yes", "highway": "bus_stop", "name": "Balka Skansevej (Landside)", "operator": "BAT", "public_transport": "platform", "shelter": "no"}}, {"type": "node", "id": 6721011505, "lat": 55.0411984, "lon": 15.1026371, "tags": {"bench": "yes", "bus": "yes", "highway": "bus_stop", "name": "Balka (landside)", "operator": "BAT", "public_transport": "platform", "shelter": "yes"}}, {"type": "node", "id": 6721011708, "lat": 55.1427008, "lon": 15.115909, "tags": {"bench": "yes", "bus": "yes", "highway": "bus_stop", "name": "Listed Syd", "operator": "BAT", "public_transport": "platform", "shelter": "yes"}}, {"type": "node", "id": 6721011710, "lat": 55.1103409, "lon": 15.1430122, "tags": {"bench": "no", "highway": "bus_stop", "name": "\u00c5rsdale", "network": "BAT", "operator": "BAT", "public_transport": "platform", "shelter": "no"}}, {"type": "node", "id": 6721011711, "lat": 55.0576668, "lon": 15.1285853, "tags": {"bus": "yes", "highway": "bus_stop", "name": "Nex\u00f8 S\u00f8b\u00e6ken", "public_transport": "platform", "shelter": "yes"}}, {"type": "node", "id": 6721011712, "lat": 55.1454058, "lon": 15.1097155, "tags": {"bus": "yes", "highway": "bus_stop", "name": "Listed Havn v Br\u00f8ddan", "operator": "BAT", "public_transport": "platform"}}, {"type": "node", "id": 6721011713, "lat": 55.0660693, "lon": 15.1350667, "tags": {"bus": "yes", "highway": "bus_stop", "name": "Nex\u00f8 of DJB museum", "network": "BAT", "network:wikidata": "Q97577976", "network:wikipedia": "da:BAT (Bornholms Amts Trafikselskab)", "operator": "BAT", "public_transport": "platform", "shelter": "no"}}, {"type": "node", "id": 6721011714, "lat": 55.1313442, "lon": 15.1460415, "tags": {"bench": "yes", "bus": "yes", "highway": "bus_stop", "name": "Svaneke Syd", "network": "BAT", "operator": "BAT", "public_transport": "platform", "shelter": "yes"}}, {"type": "node", "id": 6721011715, "lat": 55.0622429, "lon": 15.1332481, "tags": {"bench": "yes", "bin": "yes", "bus": "yes", "departures_board": "digital", "highway": "bus_stop", "name": "Nex\u00f8 rutebilstation", "network": "BAT", "operator": "BAT", "public_transport": "platform", "shelter": "yes", "tactile_paving": "no"}}, {"type": "node", "id": 6721011716, "lat": 55.072595, "lon": 15.1410328, "tags": {"bus": "yes", "highway": "bus_stop", "name": "Nex\u00f8 Camping", "network": "BAT", "operator": "BAT", "public_transport": "platform", "shelter": "no", "tactile_paving": "no"}}, {"type": "node", "id": 6721170031, "lat": 55.0682415, "lon": 15.1340793, "tags": {"bench": "no", "bin": "no", "bus": "yes", "highway": "bus_stop", "public_transport": "platform", "shelter": "no", "tactile_paving": "no"}}, {"type": "node", "id": 6721170033, "lat": 55.06929, "lon": 15.1320717, "tags": {"bench": "no", "bus": "yes", "highway": "bus_stop", "kerb": "raised", "kerb:approach_aid": "no", "passenger_information_display": "no", "public_transport": "platform", "shelter": "no"}}, {"type": "node", "id": 6721170034, "lat": 55.0726224, "lon": 15.1412633, "tags": {"bench": "yes", "bus": "yes", "highway": "bus_stop", "name": "Nex\u00f8 Camping", "network": "BAT", "operator": "BAT", "public_transport": "platform", "shelter": "no", "tactile_paving": "no"}}, {"type": "node", "id": 6721289160, "lat": 55.1085348, "lon": 15.1435216, "tags": {"bench": "yes", "bin": "yes", "bus": "yes", "highway": "bus_stop", "name": "\u00c5rsdale Havn", "network": "BAT", "operator": "BAT", "public_transport": "platform", "shelter": "yes", "tactile_paving": "no"}}, {"type": "node", "id": 6721289161, "lat": 55.1084249, "lon": 15.143386, "tags": {"bench": "no", "bin": "no", "bus": "yes", "highway": "bus_stop", "name": "\u00c5rsdale Havn", "network": "BAT", "operator": "BAT", "public_transport": "platform", "shelter": "no", "tactile_paving": "no"}}, {"type": "node", "id": 6721289162, "lat": 55.1289786, "lon": 15.1471654, "tags": {"bus": "yes", "highway": "bus_stop", "name": "Svaneke S\u00f8ndergade of Stadion", "public_transport": "platform"}}, {"type": "node", "id": 6721289163, "lat": 55.1300687, "lon": 15.147124, "tags": {"bench": "no", "bus": "yes", "highway": "bus_stop", "name": "Svaneke S\u00f8ndergade v. skolen", "public_transport": "platform", "shelter": "no"}}, {"type": "node", "id": 6721289164, "lat": 55.1319626, "lon": 15.1459476, "tags": {"bus": "yes", "highway": "bus_stop", "name": "Svaneke Syd", "operator": "BAT", "public_transport": "platform", "shelter": "no"}}, {"type": "node", "id": 6721289165, "lat": 55.1429969, "lon": 15.115467, "tags": {"bench": "yes", "bus": "yes", "highway": "bus_stop", "name": "Listed Syd", "operator": "BAT", "public_transport": "platform", "shelter": "no"}}, {"type": "node", "id": 6721289166, "lat": 55.142629, "lon": 15.1146892, "tags": {"bench": "no", "bus": "yes", "highway": "bus_stop", "name": "Listed v \u00c5vej", "operator": "BAT", "public_transport": "platform", "shelter": "no"}}, {"type": "node", "id": 6721289167, "lat": 55.1426106, "lon": 15.1145229, "tags": {"bus": "yes", "highway": "bus_stop", "name": "Listed v P\u00e6levej", "operator": "BAT", "public_transport": "platform"}}, {"type": "node", "id": 6721289168, "lat": 55.1456713, "lon": 15.1089016, "tags": {"bench": "yes", "bin": "yes", "bus": "yes", "highway": "bus_stop", "name": "Listed Havn", "operator": "BAT", "public_transport": "platform", "shelter": "yes", "tactile_paving": "no"}}, {"type": "node", "id": 6721289169, "lat": 55.1471817, "lon": 15.1023063, "tags": {"bench": "no", "bus": "yes", "highway": "bus_stop", "name": "Listed v. Elverh\u00f8j", "public_transport": "platform", "shelter": "no", "tactile_paving": "no"}}, {"type": "node", "id": 6721289170, "lat": 55.1476851, "lon": 15.1006288, "tags": {"bench": "no", "bus": "yes", "highway": "bus_stop", "name": "Listed - Tuevej", "operator": "BAT", "public_transport": "platform", "shelter": "no"}}, {"type": "node", "id": 6721289171, "lat": 55.2060842, "lon": 14.9740245, "tags": {"bench": "no", "bin": "no", "bus": "yes", "highway": "bus_stop", "lit": "no", "name": "Melstedvej v kirkeg\u00e5rden", "operator": "BAT", "public_transport": "platform", "shelter": "no", "tactile_paving": "no"}}, {"type": "node", "id": 6728909894, "lat": 55.1107289, "lon": 14.7561191, "tags": {"bench": "yes", "bus": "yes", "highway": "bus_stop", "name": "Knudsker", "public_transport": "platform", "shelter": "yes"}}, {"type": "node", "id": 6728909895, "lat": 55.1444425, "lon": 14.8691282, "tags": {"bench": "yes", "bus": "yes", "highway": "bus_stop", "name": "\u00c5rsballe", "public_transport": "platform", "shelter": "yes"}}, {"type": "node", "id": 6728909896, "lat": 55.1104315, "lon": 15.1432089, "tags": {"bench": "no", "highway": "bus_stop", "name": "\u00c5rsdale", "network": "BAT", "operator": "BAT", "public_transport": "platform", "shelter": "no"}}, {"type": "node", "id": 6728909900, "lat": 55.1106298, "lon": 14.7561398, "tags": {"bench": "no", "bus": "yes", "highway": "bus_stop", "name": "Knudsker", "public_transport": "platform", "shelter": "no"}}, {"type": "node", "id": 6731624282, "lat": 55.1042748, "lon": 15.1439575, "tags": {"bench": "no", "bin": "no", "bus": "yes", "highway": "bus_stop", "name": "\u00c5rsdale Gaden", "network": "BAT", "operator": "BAT", "public_transport": "platform", "shelter": "no", "tactile_paving": "no"}}, {"type": "node", "id": 6731694786, "lat": 55.1042447, "lon": 15.1438701, "tags": {"bench": "no", "bin": "no", "bus": "yes", "highway": "bus_stop", "name": "\u00c5rsdale Gaden", "network": "BAT", "operator": "BAT", "public_transport": "platform", "shelter": "no", "tactile_paving": "no"}}, {"type": "node", "id": 6735565672, "lat": 55.0681906, "lon": 14.922898, "tags": {"bench": "no", "bus": "yes", "highway": "bus_stop", "network": "BAT", "operator": "BAT", "public_transport": "platform", "shelter": "no", "tactile_paving": "no"}}, {"type": "node", "id": 6735565675, "lat": 55.0704258, "lon": 14.9273777, "tags": {"bench": "yes", "bus": "yes", "highway": "bus_stop", "public_transport": "platform", "shelter": "yes"}}, {"type": "node", "id": 6735565677, "lat": 55.0705052, "lon": 14.9273433, "tags": {"bench": "no", "bus": "yes", "highway": "bus_stop", "network": "6", "public_transport": "platform", "shelter": "no"}}, {"type": "node", "id": 6735565678, "lat": 55.0549186, "lon": 15.1250206, "tags": {"bench": "no", "bus": "yes", "highway": "bus_stop", "network": "BAT", "operator": "BAT", "public_transport": "platform", "shelter": "no"}}, {"type": "node", "id": 6735565680, "lat": 55.0548714, "lon": 15.1250974, "tags": {"bench": "no", "bus": "yes", "highway": "bus_stop", "network": "BAT", "operator": "BAT", "public_transport": "platform", "shelter": "no"}}, {"type": "node", "id": 6735565682, "lat": 55.1289828, "lon": 15.1060753, "tags": {"bench": "yes", "bus": "yes", "highway": "bus_stop", "name": "Br\u00e6ndesg\u00e5rdshaven", "network": "BAT", "operator": "BAT", "public_transport": "platform", "shelter": "yes"}}, {"type": "node", "id": 6735586989, "lat": 55.0680375, "lon": 14.9230193, "tags": {"bench": "no", "bus": "yes", "highway": "bus_stop", "network": "BAT", "operator": "BAT", "public_transport": "platform", "shelter": "no", "tactile_paving": "no"}}, {"type": "node", "id": 6746467556, "lat": 55.1422245, "lon": 15.0099965, "tags": {"bench": "yes", "bin": "yes", "bus": "yes", "departures_board": "digital", "highway": "bus_stop", "name": "\u00d8stermarie", "network": "BAT", "network:wikidata": "Q97577976", "operator": "BAT", "public_transport": "platform", "shelter": "yes", "tactile_paving": "no", "website": "https://www.bat.dk/"}}, {"type": "node", "id": 9162119288, "lat": 55.139908, "lon": 14.7649907, "tags": {"bench": "yes", "bin": "yes", "bus": "yes", "highway": "bus_stop", "name": "Nyker", "network": "BAT", "network:wikidata": "Q97577976", "operator": "BAT", "public_transport": "platform", "shelter": "yes", "tactile_paving": "no", "website": "https://www.bat.dk"}}, {"type": "node", "id": 9162146217, "lat": 55.1397233, "lon": 14.7652351, "tags": {"bench": "yes", "bin": "yes", "bus": "yes", "highway": "bus_stop", "name": "Nyker", "network": "BAT", "network:wikidata": "Q97577976", "operator": "BAT", "public_transport": "platform", "shelter": "no", "tactile_paving": "no", "website": "https://www.bat.dk"}}, {"type": "node", "id": 9177965722, "lat": 55.1443543, "lon": 14.8692106, "tags": {"bench": "yes", "bus": "yes", "fixme": "Position estimated", "highway": "bus_stop", "name": "\u00c5rsballe", "public_transport": "platform"}}, {"type": "node", "id": 9178003831, "lat": 55.1647924, "lon": 14.9657065, "tags": {"bus": "yes", "highway": "bus_stop", "network": "BAT", "network:wikidata": "Q97577976", "operator": "BAT", "public_transport": "platform", "shelter": "no", "tactile_paving": "no", "website": "https://www.bat.dk/"}}, {"type": "node", "id": 9196199562, "lat": 55.0763598, "lon": 14.7404532, "tags": {"bench": "no", "bin": "no", "bus": "yes", "highway": "bus_stop", "name": "Onsb\u00e6k ovf. Stampen", "public_transport": "platform", "shelter": "no"}}, {"type": "node", "id": 9196202205, "lat": 55.0762663, "lon": 14.74021, "tags": {"bench": "no", "bin": "no", "bus": "yes", "highway": "bus_stop", "name": "Onsb\u00e6k v. Stampen", "public_transport": "platform", "shelter": "no"}}, {"type": "node", "id": 9196935402, "lat": 55.1397465, "lon": 14.7534019, "tags": {"bus": "yes", "highway": "bus_stop", "public_transport": "platform"}}, {"type": "node", "id": 9196935403, "lat": 55.1400977, "lon": 14.7552555, "tags": {"bus": "yes", "highway": "bus_stop", "name": "Nyker Vest", "public_transport": "platform"}}, {"type": "node", "id": 9196935404, "lat": 55.1399291, "lon": 14.7585469, "tags": {"bus": "yes", "highway": "bus_stop", "name": "Nyker-skolen", "public_transport": "platform"}}, {"type": "node", "id": 9196935405, "lat": 55.1401066, "lon": 14.7581172, "tags": {"bus": "yes", "highway": "bus_stop", "name": "Nyker-skolen", "public_transport": "platform"}}, {"type": "node", "id": 9481066225, "lat": 55.0605897, "lon": 15.118546, "tags": {"highway": "bus_stop", "public_transport": "platform"}}, {"type": "node", "id": 9481066226, "lat": 55.0606281, "lon": 15.1188867, "tags": {"highway": "bus_stop", "public_transport": "platform"}}, {"type": "node", "id": 12109639098, "lat": 55.110483, "lon": 14.912036, "tags": {"bus": "yes", "public_transport": "platform"}}, {"type": "node", "id": 12109639099, "lat": 55.1105179, "lon": 14.9118421, "tags": {"bus": "yes", "public_transport": "platform"}}, {"type": "node", "id": 12328681997, "lat": 55.1089443, "lon": 14.8256566, "tags": {"bench": "no", "bin": "no", "bus": "yes", "departures_board": "timetable", "highway": "bus_stop", "name": "Skovg\u00e5rdsvejen v. Pindel\u00f8kkeg\u00e5rd", "network": "BAT", "network:wikidata": "Q97577976", "network:wikipedia": "da:BAT (Bornholms Amts Trafikselskab)", "operator": "BAT", "public_transport": "platform", "shelter": "no", "tactile_paving": "no", "website": "https://www.bat.dk/"}}, {"type": "node", "id": 12328681998, "lat": 55.10897, "lon": 14.8255338, "tags": {"bench": "no", "bin": "no", "bus": "yes", "departures_board": "timetable", "highway": "bus_stop", "name": "Skovg\u00e5rdsvejen v. Pindel\u00f8kkeg\u00e5rd", "network": "BAT", "network:wikidata": "Q97577976", "network:wikipedia": "da:BAT (Bornholms Amts Trafikselskab)", "operator": "BAT", "public_transport": "platform", "shelter": "no", "tactile_paving": "no", "website": "https://www.bat.dk/"}}, {"type": "way", "id": 665858754, "nodes": [6233049624, 6233049620, 6233049625, 6233049626], "tags": {"bench": "yes", "bus": "yes", "public_transport": "platform", "shelter": "no"}}]}