{"version": 0.6, "generator": "Overpass API 0.7.62.7 375dc00a", "osm3s": {"timestamp_osm_base": "2025-07-16T17:29:13Z", "copyright": "The data included in this document is from www.openstreetmap.org. The data is made available under ODbL."}, "elements": [{"type": "node", "id": 32840755, "lat": 55.1640941, "lon": 14.7160169, "tags": {"bench": "no", "bin": "no", "bus": "yes", "highway": "bus_stop", "network": "BAT", "network:wikidata": "Q97577976", "noname": "yes", "operator": "BAT", "public_transport": "platform", "shelter": "no", "tactile_paving": "no", "website": "https://www.bat.dk"}}, {"type": "node", "id": 1308304974, "lat": 55.1011217, "lon": 14.6933465, "tags": {"bench": "no", "bin": "yes", "bus": "yes", "check_date:shelter": "2024-06-09", "highway": "bus_stop", "lit": "yes", "name": "Snellemark 8", "network": "BAT", "network:wikidata": "Q97577976", "operator": "BAT", "public_transport": "platform", "shelter": "no", "tactile_paving": "no", "website": "https://www.bat.dk/"}}, {"type": "node", "id": 1308304975, "lat": 55.1011754, "lon": 14.6931519, "tags": {"bench": "no", "bin": "no", "bus": "yes", "check_date:shelter": "2024-06-08", "highway": "bus_stop", "lit": "yes", "name": "Snellemark v Havnegade", "network": "BAT", "network:wikidata": "Q97577976", "operator": "BAT", "public_transport": "platform", "shelter": "no", "tactile_paving": "no", "website": "https://www.bat.dk/"}}, {"type": "node", "id": 1309507310, "lat": 55.0982645, "lon": 14.71399, "tags": {"bench": "yes", "bus": "yes", "highway": "bus_stop", "network": "BAT", "network:wikidata": "Q97577976", "network:wikipedia": "da:BAT (Bornholms Amts Trafikselskab)", "operator": "BAT", "public_transport": "platform", "shelter": "yes", "website": "https://www.bat.dk/"}}, {"type": "node", "id": 1326868743, "lat": 55.1014979, "lon": 14.6976628, "tags": {"bench": "no", "bin": "yes", "bus": "yes", "highway": "bus_stop", "lit": "yes", "name": "Snellemark 45", "network": "BAT", "network:wikidata": "Q97577976", "operator": "BAT", "public_transport": "platform", "shelter": "no", "tactile_paving": "no", "website": "https://www.bat.dk/"}}, {"type": "node", "id": 1326868744, "lat": 55.1000186, "lon": 14.7027645, "tags": {"bench": "no", "bin": "no", "bus": "yes", "departures_board": "timetable", "highway": "bus_stop", "name": "\u00d8stergade v. Slagtergade", "network": "BAT", "network:wikidata": "Q97577976", "operator": "BAT", "public_transport": "platform", "shelter": "no", "tactile_paving": "no", "website": "https://www.bat.dk/"}}, {"type": "node", "id": 1858742689, "lat": 55.1846339, "lon": 14.7055522, "tags": {"bench": "yes", "bin": "yes", "bus": "yes", "covered": "no", "highway": "bus_stop", "name": "Hasle Torvet", "network": "BAT", "network:wikidata": "Q97577976", "operator": "BAT", "public_transport": "platform", "shelter": "yes", "tactile_paving": "no", "website": "https://www.bat.dk/"}}, {"type": "node", "id": 1858742724, "lat": 55.1846247, "lon": 14.7057051, "tags": {"bench": "yes", "bin": "yes", "bus": "yes", "covered": "no", "highway": "bus_stop", "name": "Hasle Torvet", "network": "BAT", "network:wikidata": "Q97577976", "operator": "BAT", "public_transport": "platform", "shelter": "yes", "tactile_paving": "no", "website": "https://www.bat.dk/"}}, {"type": "node", "id": 1965385807, "lat": 55.1058484, "lon": 14.7027393, "tags": {"bus": "yes", "highway": "bus_stop", "name": "M\u00f8llegade v. Byledsgade", "network": "BAT", "network:wikidata": "Q97577976", "operator": "BAT", "public_transport": "platform", "shelter": "yes", "tactile_paving": "no", "website": "https://www.bat.dk/"}}, {"type": "node", "id": 1965391292, "lat": 55.1082864, "lon": 14.702317, "tags": {"bench": "yes", "bus": "yes", "highway": "bus_stop", "name": "Store Torvegade ovf. Kystparken", "network": "BAT", "network:wikidata": "Q97577976", "operator": "BAT", "public_transport": "platform", "shelter": "no", "tactile_paving": "no", "website": "https://www.bat.dk/"}}, {"type": "node", "id": 1965391294, "lat": 55.1089657, "lon": 14.7029396, "tags": {"bench": "yes", "bin": "yes", "bus": "yes", "check_date:shelter": "2023-01-22", "highway": "bus_stop", "name": "Store Torvegade ovf. Kystparken", "network": "BAT", "network:wikidata": "Q97577976", "operator": "BAT", "public_transport": "platform", "shelter": "yes", "website": "https://www.bat.dk/"}}, {"type": "node", "id": 1965398212, "lat": 55.1060946, "lon": 14.7009277, "tags": {"bench": "no", "bin": "yes", "bus": "yes", "departures_board": "timetable", "highway": "bus_stop", "name": "Store Torvegade v. Byledsgade", "network": "BAT", "network:wikidata": "Q97577976", "operator": "BAT", "public_transport": "platform", "shelter": "no", "tactile_paving": "no", "website": "https://www.bat.dk/"}}, {"type": "node", "id": 1965407145, "lat": 55.1013769, "lon": 14.6971251, "tags": {"bench": "yes", "bin": "yes", "bus": "yes", "highway": "bus_stop", "lit": "yes", "name": "Snellemark 30", "network": "BAT", "network:wikidata": "Q97577976", "operator": "BAT", "public_transport": "platform", "shelter": "yes", "tactile_paving": "no", "website": "https://www.bat.dk/"}}, {"type": "node", "id": 4377539499, "lat": 55.100739, "lon": 14.7007136, "tags": {"bus": "yes", "highway": "bus_stop", "name": "Lille Torv", "network": "BAT", "network:wikidata": "Q97577976", "public_transport": "platform", "shelter": "no"}}, {"type": "node", "id": 4378995230, "lat": 55.0996484, "lon": 14.7084815, "tags": {"bench": "no", "bin": "yes", "bus": "yes", "departures_board": "timetable", "highway": "bus_stop", "lit": "no", "public_transport": "platform", "shelter": "no"}}, {"type": "node", "id": 5834280409, "lat": 55.0859286, "lon": 14.7088426, "tags": {"bench": "no", "bin": "no", "bus": "yes", "highway": "bus_stop", "name": "Strandvejen ovf. GSH", "network": "BAT", "network:wikidata": "Q97577976", "operator": "BAT", "public_transport": "platform", "shelter": "no", "tactile_paving": "no", "website": "https://www.bat.dk/"}}, {"type": "node", "id": 5834280410, "lat": 55.0890105, "lon": 14.7062671, "tags": {"bench": "no", "bin": "no", "bus": "yes", "check_date:shelter": "2024-07-29", "highway": "bus_stop", "lit": "no", "name": "Strandvejen ovf. Campingpladsen", "network": "BAT", "network:wikidata": "Q97577976", "operator": "BAT", "public_transport": "platform", "shelter": "no", "tactile_paving": "no", "website": "https://www.bat.dk/"}}, {"type": "node", "id": 5834280411, "lat": 55.0895036, "lon": 14.7060137, "tags": {"bench": "no", "bin": "no", "bus": "yes", "check_date:shelter": "2024-07-29", "highway": "bus_stop", "lit": "yes", "name": "Strandvejen ovf. Campingpladsen", "network": "BAT", "network:wikidata": "Q97577976", "operator": "BAT", "public_transport": "platform", "shelter": "no", "tactile_paving": "no", "website": "https://www.bat.dk/"}}, {"type": "node", "id": 5834280414, "lat": 55.098384, "lon": 14.7138906, "tags": {"bench": "no", "bin": "no", "bus": "yes", "highway": "bus_stop", "network": "BAT", "network:wikidata": "Q97577976", "network:wikipedia": "da:BAT (Bornholms Amts Trafikselskab)", "operator": "BAT", "public_transport": "platform", "shelter": "no", "tactile_paving": "no", "website": "https://www.bat.dk/"}}, {"type": "node", "id": 5834280415, "lat": 55.101896, "lon": 14.721607, "tags": {"bench": "no", "bin": "no", "bus": "yes", "highway": "bus_stop", "name": "Almindingsvej-Brovangen", "network": "BAT", "network:wikidata": "Q97577976", "network:wikipedia": "da:BAT (Bornholms Amts Trafikselskab)", "operator": "BAT", "public_transport": "platform", "shelter": "no", "tactile_paving": "no", "website": "https://www.bat.dk/"}}, {"type": "node", "id": 5834280416, "lat": 55.1015772, "lon": 14.721217, "tags": {"bench": "yes", "bus": "yes", "highway": "bus_stop", "name": "Almindingsvej-Brovangen", "network": "BAT", "network:wikidata": "Q97577976", "network:wikipedia": "da:BAT (Bornholms Amts Trafikselskab)", "operator": "BAT", "public_transport": "platform", "shelter": "yes", "tactile_paving": "no", "website": "https://www.bat.dk/"}}, {"type": "node", "id": 5834280417, "lat": 55.1036271, "lon": 14.7274163, "tags": {"bench": "no", "bin": "no", "bus": "yes", "highway": "bus_stop", "line": "1;5;...", "network": "BAT", "network:wikidata": "Q97577976", "network:wikipedia": "da:BAT (Bornholms Amts Trafikselskab)", "operator": "BAT", "public_transport": "platform", "shelter": "no", "tactile_paving": "no", "website": "https://www.bat.dk/"}}, {"type": "node", "id": 5834350915, "lat": 55.1497142, "lon": 14.7170618, "tags": {"bench": "yes", "bus": "yes", "highway": "bus_stop", "name": "Sorthat", "network": "BAT", "network:wikidata": "Q97577976", "operator": "BAT", "public_transport": "platform", "shelter": "yes", "tactile_paving": "no", "website": "https://www.bat.dk"}}, {"type": "node", "id": 5834350917, "lat": 55.1611027, "lon": 14.7157735, "tags": {"bench": "no", "bin": "no", "bus": "yes", "highway": "bus_stop", "network": "BAT", "network:wikidata": "Q97577976", "noname": "yes", "operator": "BAT", "public_transport": "platform", "shelter": "no", "tactile_paving": "no", "website": "https://www.bat.dk/"}}, {"type": "node", "id": 5834350918, "lat": 55.1611012, "lon": 14.7156475, "tags": {"bench": "no", "bin": "no", "bus": "yes", "highway": "bus_stop", "network": "BAT", "network:wikidata": "Q97577976", "noname": "yes", "operator": "BAT", "public_transport": "platform", "shelter": "no", "tactile_paving": "no", "website": "https://www.bat.dk"}}, {"type": "node", "id": 5834350919, "lat": 55.164097, "lon": 14.715907, "tags": {"bench": "no", "bin": "no", "bus": "yes", "highway": "bus_stop", "network": "BAT", "network:wikidata": "Q97577976", "noname": "yes", "operator": "BAT", "public_transport": "platform", "shelter": "no", "tactile_paving": "no", "website": "https://www.bat.dk"}}, {"type": "node", "id": 5834350920, "lat": 55.1671083, "lon": 14.714148, "tags": {"bench": "no", "bin": "no", "bus": "yes", "highway": "bus_stop", "network": "BAT", "network:wikidata": "Q97577976", "noname": "yes", "operator": "BAT", "public_transport": "platform", "shelter": "no", "tactile_paving": "no", "website": "https://www.bat.dk/"}}, {"type": "node", "id": 5834350921, "lat": 55.1671616, "lon": 14.7139744, "tags": {"bench": "no", "bin": "yes", "bus": "yes", "highway": "bus_stop", "network": "BAT", "network:wikidata": "Q97577976", "noname": "yes", "operator": "BAT", "public_transport": "platform", "shelter": "no", "tactile_paving": "no", "website": "https://www.bat.dk"}}, {"type": "node", "id": 6696349049, "lat": 55.1023143, "lon": 14.699526, "tags": {"bench": "yes", "bin": "yes", "bus": "yes", "highway": "bus_stop", "lit": "yes", "name": "Store Torv v. Netto", "network": "BAT", "network:wikidata": "Q97577976", "public_transport": "platform", "shelter": "no", "tactile_paving": "no", "website": "https://bat.dk/koereplaner/regionale-ruter/"}}, {"type": "node", "id": 6699375956, "lat": 55.1056908, "lon": 14.7089053, "tags": {"bench": "yes", "bin": "yes", "bus": "yes", "highway": "bus_stop", "name": "Campus (Nord)", "network": "BAT", "network:wikidata": "Q97577976", "public_transport": "platform", "shelter": "yes", "tactile_paving": "no"}}, {"type": "node", "id": 6699375957, "lat": 55.105607, "lon": 14.7092996, "tags": {"bench": "yes", "bin": "yes", "bus": "yes", "departures_board": "timetable", "highway": "bus_stop", "name": "Campus (Syd)", "network": "BAT", "network:wikidata": "Q97577976", "public_transport": "platform", "shelter": "yes", "tactile_paving": "no"}}, {"type": "node", "id": 6728909897, "lat": 55.0985962, "lon": 14.7129419, "tags": {"bus": "yes", "highway": "bus_stop", "name": "Borgmester Nielsens Vej", "public_transport": "platform", "shelter": "yes"}}, {"type": "node", "id": 6728909898, "lat": 55.098631, "lon": 14.7131025, "tags": {"bus": "yes", "highway": "bus_stop", "name": "Borgmester Nielsens Vej", "public_transport": "platform", "shelter": "no"}}, {"type": "node", "id": 6728909899, "lat": 55.1035439, "lon": 14.7281289, "tags": {"bench": "no", "bus": "yes", "highway": "bus_stop", "network": "BAT", "network:wikidata": "Q97577976", "network:wikipedia": "da:BAT (Bornholms Amts Trafikselskab)", "operator": "BAT", "public_transport": "platform", "shelter": "no"}}, {"type": "node", "id": 8528368758, "lat": 55.0995879, "lon": 14.7129333, "tags": {"bench": "yes", "bin": "yes", "bus": "yes", "highway": "bus_stop", "lit": "yes", "name": "Borgmester Nielsens Vej - Syd", "public_transport": "platform", "shelter": "yes", "tactile_paving": "no"}}, {"type": "node", "id": 9162040951, "lat": 55.1796507, "lon": 14.7071344, "tags": {"bench": "yes", "bin": "yes", "bus": "yes", "highway": "bus_stop", "name": "Hasle F\u00e6lled", "network": "BAT", "network:wikidata": "Q97577976", "operator": "BAT", "public_transport": "platform", "shelter": "yes", "tactile_paving": "no", "website": "https://www.bat.dk"}}, {"type": "node", "id": 9162091044, "lat": 55.1798664, "lon": 14.7071053, "tags": {"bench": "no", "bin": "no", "bus": "yes", "highway": "bus_stop", "name": "Hasle F\u00e6lled", "network": "BAT", "network:wikidata": "Q97577976", "operator": "BAT", "public_transport": "platform", "shelter": "no", "tactile_paving": "no", "website": "https://www.bat.dk"}}, {"type": "node", "id": 9177761033, "lat": 55.2085387, "lon": 14.742393, "tags": {"bus": "yes", "highway": "bus_stop", "network": "BAT", "operator": "BAT", "public_transport": "platform", "tactile_paving": "no", "website": "https://www.bat.dk"}}, {"type": "node", "id": 9177761034, "lat": 55.2084844, "lon": 14.7425017, "tags": {"bus": "yes", "highway": "bus_stop", "network": "BAT", "operator": "BAT", "public_transport": "platform", "tactile_paving": "no", "website": "https://www.bat.dk"}}, {"type": "node", "id": 9177830908, "lat": 55.2118803, "lon": 14.7473873, "tags": {"bus": "yes", "highway": "bus_stop", "network": "BAT", "operator": "BAT", "public_transport": "platform", "tactile_paving": "no", "website": "https://www.bat.dk"}}, {"type": "node", "id": 9177830909, "lat": 55.2118107, "lon": 14.7474571, "tags": {"bus": "yes", "highway": "bus_stop", "network": "BAT", "operator": "BAT", "public_transport": "platform", "tactile_paving": "no", "website": "https://www.bat.dk"}}, {"type": "node", "id": 9177965723, "lat": 55.0994525, "lon": 14.7089078, "tags": {"bench": "yes", "bin": "yes", "bus": "yes", "departures_board": "timetable", "highway": "bus_stop", "name": "\u00c5kirkebyvej ovf. \u00d8stre skole", "network": "BAT", "network:wikidata": "Q97577976", "public_transport": "platform", "shelter": "no"}}, {"type": "node", "id": 9178408959, "lat": 55.171189, "lon": 14.7116521, "tags": {"bench": "no", "bin": "yes", "bus": "yes", "highway": "bus_stop", "network": "BAT", "network:wikidata": "Q97577976", "noname": "yes", "operator": "BAT", "public_transport": "platform", "shelter": "no", "tactile_paving": "no", "website": "https://www.bat.dk"}}, {"type": "node", "id": 9178408960, "lat": 55.1548948, "lon": 14.7170382, "tags": {"bench": "yes", "bin": "yes", "bus": "yes", "highway": "bus_stop", "name": "Muleby", "network": "BAT", "network:wikidata": "Q97577976", "operator": "BAT", "public_transport": "platform", "shelter": "yes", "tactile_paving": "no", "website": "https://www.bat.dk"}}, {"type": "node", "id": 9178419583, "lat": 55.1490238, "lon": 14.7172804, "tags": {"bench": "yes", "bin": "yes", "bus": "yes", "highway": "bus_stop", "name": "Sorthat", "network": "BAT", "network:wikidata": "Q97577976", "operator": "BAT", "public_transport": "platform", "shelter": "yes", "tactile_paving": "no", "website": "https://www.bat.dk"}}, {"type": "node", "id": 9178426415, "lat": 55.1772124, "lon": 14.7087792, "tags": {"bench": "no", "bin": "yes", "bus": "yes", "highway": "bus_stop", "network": "BAT", "network:wikidata": "Q97577976", "noname": "yes", "operator": "BAT", "public_transport": "platform", "shelter": "no", "tactile_paving": "no", "website": "https://www.bat.dk"}}, {"type": "node", "id": 9178427416, "lat": 55.1546978, "lon": 14.7171418, "tags": {"bench": "no", "bin": "no", "bus": "yes", "highway": "bus_stop", "name": "Muleby", "network": "BAT", "network:wikidata": "Q97577976", "operator": "BAT", "public_transport": "platform", "shelter": "no", "tactile_paving": "no", "website": "https://www.bat.dk"}}, {"type": "node", "id": 9178437660, "lat": 55.1811399, "lon": 14.7106969, "tags": {"bench": "yes", "bin": "yes", "bus": "yes", "highway": "bus_stop", "name": "Hasle Daml\u00f8kkevej", "network": "BAT", "network:wikidata": "Q97577976", "operator": "BAT", "public_transport": "platform", "shelter": "no", "tactile_paving": "no", "website": "https://www.bat.dk"}}, {"type": "node", "id": 9178437785, "lat": 55.1884905, "lon": 14.7060655, "tags": {"bench": "no", "bin": "no", "bus": "yes", "highway": "bus_stop", "network": "BAT", "network:wikidata": "Q97577976", "noname": "yes", "operator": "BAT", "public_transport": "platform", "shelter": "no", "tactile_paving": "no", "website": "https://www.bat.dk"}}, {"type": "node", "id": 9178450911, "lat": 55.1746919, "lon": 14.7099813, "tags": {"bench": "no", "bin": "no", "bus": "yes", "highway": "bus_stop", "network": "BAT", "network:wikidata": "Q97577976", "noname": "yes", "operator": "BAT", "public_transport": "platform", "shelter": "no", "tactile_paving": "no", "website": "https://www.bat.dk"}}, {"type": "node", "id": 9178453805, "lat": 55.1772284, "lon": 14.7088805, "tags": {"bench": "no", "bin": "no", "bus": "yes", "highway": "bus_stop", "network": "BAT", "network:wikidata": "Q97577976", "noname": "yes", "operator": "BAT", "public_transport": "platform", "shelter": "no", "tactile_paving": "no", "website": "https://www.bat.dk"}}, {"type": "node", "id": 9178456776, "lat": 55.174705, "lon": 14.710056, "tags": {"bench": "no", "bin": "no", "bus": "yes", "highway": "bus_stop", "network": "BAT", "network:wikidata": "Q97577976", "noname": "yes", "operator": "BAT", "public_transport": "platform", "shelter": "no", "tactile_paving": "no", "website": "https://www.bat.dk"}}, {"type": "node", "id": 9178463790, "lat": 55.1810391, "lon": 14.7105712, "tags": {"bench": "yes", "bin": "yes", "bus": "yes", "highway": "bus_stop", "name": "Hasle Daml\u00f8kkevej", "network": "BAT", "network:wikidata": "Q97577976", "operator": "BAT", "public_transport": "platform", "shelter": "yes", "tactile_paving": "no", "website": "https://www.bat.dk"}}, {"type": "node", "id": 9178463791, "lat": 55.171226, "lon": 14.7117306, "tags": {"bench": "no", "bin": "no", "bus": "yes", "highway": "bus_stop", "network": "BAT", "network:wikidata": "Q97577976", "noname": "yes", "operator": "BAT", "public_transport": "platform", "shelter": "no", "tactile_paving": "no", "website": "https://www.bat.dk"}}, {"type": "node", "id": 9178463792, "lat": 55.1882944, "lon": 14.7060554, "tags": {"bench": "no", "bin": "no", "bus": "yes", "highway": "bus_stop", "network": "BAT", "network:wikidata": "Q97577976", "noname": "yes", "operator": "BAT", "public_transport": "platform", "shelter": "no", "tactile_paving": "no", "website": "https://www.bat.dk"}}, {"type": "node", "id": 9196161710, "lat": 55.1160696, "lon": 14.7058855, "tags": {"bench": "yes", "bin": "yes", "bus": "yes", "highway": "bus_stop", "name": "Haslevej v. Ndr. Ringvej", "network": "BAT", "network:wikidata": "Q97577976", "public_transport": "platform", "shelter": "no"}}, {"type": "node", "id": 9196166701, "lat": 55.1452361, "lon": 14.7168505, "tags": {"bench": "yes", "bin": "no", "bus": "yes", "highway": "bus_stop", "name": "Sorthat Sahara", "network": "BAT", "network:wikidata": "Q97577976", "operator": "BAT", "public_transport": "platform", "shelter": "yes"}}, {"type": "node", "id": 9196179729, "lat": 55.1117704, "lon": 14.704298, "tags": {"bench": "no", "bin": "no", "bus": "yes", "highway": "bus_stop", "public_transport": "platform", "shelter": "no"}}, {"type": "node", "id": 9196179731, "lat": 55.0936417, "lon": 14.7035625, "tags": {"bench": "no", "bin": "no", "bus": "yes", "highway": "bus_stop", "public_transport": "platform", "shelter": "no"}}, {"type": "node", "id": 9196180414, "lat": 55.1452347, "lon": 14.7166726, "tags": {"bench": "no", "bin": "no", "bus": "yes", "highway": "bus_stop", "name": "Sorthat Sahara", "network": "BAT", "network:wikidata": "Q97577976", "operator": "BAT", "public_transport": "platform", "shelter": "no"}}, {"type": "node", "id": 9196180528, "lat": 55.1163026, "lon": 14.7056687, "tags": {"bench": "yes", "bin": "yes", "bus": "yes", "highway": "bus_stop", "name": "Haslevej ovf. Ndr. Ringvej", "network": "BAT", "network:wikidata": "Q97577976", "operator": "BAT", "public_transport": "platform", "shelter": "no"}}, {"type": "node", "id": 9196194226, "lat": 55.1090163, "lon": 14.7046337, "tags": {"bench": "no", "bin": "yes", "bus": "yes", "departures_board": "yes", "highway": "bus_stop", "name": "Borgmester Nielsens Vej 153", "network": "BAT", "network:wikidata": "Q97577976", "public_transport": "platform", "shelter": "yes"}}, {"type": "node", "id": 9196198368, "lat": 55.0986255, "lon": 14.7014632, "tags": {"bench": "no", "bin": "no", "bus": "yes", "highway": "bus_stop", "public_transport": "platform", "shelter": "no", "tactile_paving": "no"}}, {"type": "node", "id": 9196199563, "lat": 55.1104327, "lon": 14.7035976, "tags": {"bench": "no", "bin": "no", "bus": "yes", "highway": "bus_stop", "public_transport": "platform", "shelter": "no", "tactile_paving": "no"}}, {"type": "node", "id": 9196202563, "lat": 55.1122104, "lon": 14.7043265, "tags": {"bench": "no", "bin": "no", "bus": "yes", "highway": "bus_stop", "public_transport": "platform", "shelter": "no"}}, {"type": "node", "id": 9196206021, "lat": 55.1096061, "lon": 14.7041822, "tags": {"bench": "no", "bin": "yes", "bus": "yes", "highway": "bus_stop", "name": "Borgmester Nielsens Vej 142", "network": "BAT", "network:wikidata": "Q97577976", "public_transport": "platform", "shelter": "no"}}, {"type": "node", "id": 9196206822, "lat": 55.0937914, "lon": 14.703694, "tags": {"bench": "yes", "bin": "yes", "bus": "yes", "highway": "bus_stop", "public_transport": "platform", "shelter": "no"}}, {"type": "node", "id": 12344896334, "lat": 55.1043095, "lon": 14.7009138, "tags": {"bin": "no", "bus": "yes", "departures_board": "timetable", "highway": "bus_stop", "name": "N\u00f8rregade v. Magstr\u00e6de", "network": "BAT", "network:wikidata": "Q97577976", "public_transport": "platform", "shelter": "no"}}, {"type": "node", "id": 12349925371, "lat": 55.1035153, "lon": 14.7106164, "tags": {"bench": "yes", "bin": "yes", "bus": "yes", "departures_board": "timetable", "highway": "bus_stop", "name": "Borgmester Nielsens Vej v. Landem\u00e6rket", "network": "BAT", "network:wikidata": "Q97577976", "public_transport": "platform", "shelter": "yes"}}, {"type": "node", "id": 12349925372, "lat": 55.1035315, "lon": 14.7109486, "tags": {"bench": "yes", "bin": "yes", "bus": "yes", "departures_board": "timetable", "highway": "bus_stop", "name": "Borgmester Nielsens Vej v. Ystadvej", "network": "BAT", "network:wikidata": "Q97577976", "public_transport": "platform", "shelter": "yes"}}, {"type": "node", "id": 12373572685, "lat": 55.1105579, "lon": 14.7165153, "tags": {"bus": "yes", "highway": "bus_stop", "public_transport": "platform"}}, {"type": "node", "id": 12373572686, "lat": 55.1107525, "lon": 14.7176098, "tags": {"bench": "no", "bin": "yes", "bus": "yes", "departures_board": "timetable", "fixme": "https://bat.dk/media/dpmhofxg/bybus-22-111024.pdf\nBybus R\u00f8nne\nNeeds route relation", "highway": "bus_stop", "name": "Tornev\u00e6rksvej ovf. R\u00f8nne Sv\u00f8mmehal", "network": "BAT", "network:wikidata": "Q97577976", "public_transport": "platform", "shelter": "no"}}, {"type": "node", "id": 12373572687, "lat": 55.1106159, "lon": 14.716223, "tags": {"bench": "no", "bin": "yes", "bus": "yes", "departures_board": "timetable", "fixme": "https://bat.dk/media/dpmhofxg/bybus-22-111024.pdf\nBybus R\u00f8nne\nNeeds route relation", "highway": "bus_stop", "name": "Tornev\u00e6rksvej v. R\u00f8nne Sv\u00f8mmehal", "network": "BAT", "network:wikidata": "Q97577976", "public_transport": "platform", "shelter": "no"}}, {"type": "node", "id": 12373572688, "lat": 55.110343, "lon": 14.7152061, "tags": {"bench": "no", "bin": "yes", "bus": "yes", "departures_board": "timetable", "fixme": "https://bat.dk/media/dpmhofxg/bybus-22-111024.pdf\nBybus R\u00f8nne\nNeeds route relation", "highway": "bus_stop", "name": "Bowlingcenter R\u00f8nne", "network": "BAT", "network:wikidata": "Q97577976", "public_transport": "platform", "shelter": "no"}}, {"type": "node", "id": 12373572689, "lat": 55.109708, "lon": 14.7110761, "tags": {"bench": "no", "bin": "yes", "bus": "yes", "departures_board": "timetable", "fixme": "https://bat.dk/media/dpmhofxg/bybus-22-111024.pdf\nBybus R\u00f8nne\nNeeds rout relation", "highway": "bus_stop", "name": "R\u00f8nne Idr\u00e6tscenter", "network": "BAT", "network:wikidata": "Q97577976", "public_transport": "platform", "shelter": "no"}}, {"type": "node", "id": 12373572712, "lat": 55.1119474, "lon": 14.7176819, "tags": {"bench": "yes", "bin": "yes", "bus": "yes", "departures_board": "timetable", "fixme": "https://bat.dk/media/dpmhofxg/bybus-22-111024.pdf\nBybus R\u00f8nne\nNeeds rout relation", "highway": "bus_stop", "name": "Nordre Ringvej v. Holger Lundgrens Vej", "network": "BAT", "network:wikidata": "Q97577976", "public_transport": "platform", "shelter": "yes"}}, {"type": "node", "id": 12373572713, "lat": 55.1119069, "lon": 14.7174838, "tags": {"bench": "no", "bin": "yes", "bus": "yes", "departures_board": "timetable", "fixme": "https://bat.dk/media/dpmhofxg/bybus-22-111024.pdf\nBybus R\u00f8nne\nNeeds rout relation", "highway": "bus_stop", "name": "Nordre Ringvej ovf Holger Lundgrens Vej", "network": "BAT", "network:wikidata": "Q97577976", "public_transport": "platform", "shelter": "no"}}, {"type": "node", "id": 12392553861, "lat": 55.0850204, "lon": 14.7103556, "tags": {"bus": "yes", "highway": "bus_stop", "name": "Strandvejen v. GSH", "network": "BAT", "network:wikidata": "Q97577976", "note": "https://bat.dk/media/yipfrkpp/samlet-koereplan-alle-stop-111024.pdf\nLinje 7", "public_transport": "platform"}}, {"type": "node", "id": 12392695169, "lat": 55.082681, "lon": 14.7146253, "tags": {"bus": "yes", "departures_board": "timetable", "highway": "bus_stop", "name": "Strandvejen ovf. Fredensborg", "network": "BAT", "network:wikidata": "Q97577976", "public_transport": "platform", "shelter": "no"}}, {"type": "node", "id": 12392695170, "lat": 55.0828567, "lon": 14.7137082, "tags": {"bus": "yes", "departures_board": "timetable", "highway": "bus_stop", "name": "Strandvejen v. Fredensborg", "network": "BAT", "network:wikidata": "Q97577976", "public_transport": "platform", "shelter": "no"}}]}